<?xml version="1.0" encoding="UTF-8"?>
<gpx creator="https://gpx.studio" version="1.1" xmlns="http://www.topografix.com/GPX/1/1" xmlns:xsi="http://www.w3.org/2001/XMLSchema-instance" xsi:schemaLocation="http://www.topografix.com/GPX/1/1 http://www.topografix.com/GPX/1/1/gpx.xsd http://www.garmin.com/xmlschemas/GpxExtensions/v3 http://www.garmin.com/xmlschemas/GpxExtensionsv3.xsd http://www.garmin.com/xmlschemas/TrackPointExtension/v1 http://www.garmin.com/xmlschemas/TrackPointExtensionv1.xsd http://www.garmin.com/xmlschemas/PowerExtension/v1 http://www.garmin.com/xmlschemas/PowerExtensionv1.xsd http://www.topografix.com/GPX/gpx_style/0/2 http://www.topografix.com/GPX/gpx_style/0/2/gpx_style.xsd" xmlns:gpxtpx="http://www.garmin.com/xmlschemas/TrackPointExtension/v1" xmlns:gpxx="http://www.garmin.com/xmlschemas/GpxExtensions/v3" xmlns:gpxpx="http://www.garmin.com/xmlschemas/PowerExtension/v1" xmlns:gpx_style="http://www.topografix.com/GPX/gpx_style/0/2">
  <metadata>
    <name>New file 3</name>
    <author>
      <name>gpx.studio</name>
      <link href="https://gpx.studio"/>
    </author>
  </metadata>
  <trk>
    <name>New file 3</name>
    <trkseg>
      <trkpt lat="31.809514" lon="34.900337">
        <ele>107.59</ele>
      </trkpt>
      <trkpt lat="31.809439" lon="34.899814">
        <ele>108.21</ele>
      </trkpt>
      <trkpt lat="31.809444" lon="34.899755">
        <ele>108.13</ele>
      </trkpt>
      <trkpt lat="31.809553" lon="34.899698">
        <ele>107.44</ele>
      </trkpt>
      <trkpt lat="31.810391" lon="34.899964">
        <ele>104</ele>
      </trkpt>
      <trkpt lat="31.810623" lon="34.900059">
        <ele>104.45</ele>
      </trkpt>
      <trkpt lat="31.810723" lon="34.900111">
        <ele>104.66</ele>
      </trkpt>
      <trkpt lat="31.81078" lon="34.900154">
        <ele>104.96</ele>
      </trkpt>
      <trkpt lat="31.810824" lon="34.90021">
        <ele>105.26</ele>
      </trkpt>
      <trkpt lat="31.810886" lon="34.900316">
        <ele>105.69</ele>
      </trkpt>
      <trkpt lat="31.810963" lon="34.900619">
        <ele>105.21</ele>
      </trkpt>
      <trkpt lat="31.81121" lon="34.901456">
        <ele>105.28</ele>
      </trkpt>
      <trkpt lat="31.811326" lon="34.901393">
        <ele>105.92</ele>
      </trkpt>
      <trkpt lat="31.811388" lon="34.901346">
        <ele>106.03</ele>
      </trkpt>
      <trkpt lat="31.812138" lon="34.900566">
        <ele>108.56</ele>
      </trkpt>
      <trkpt lat="31.813021" lon="34.899751">
        <ele>113.76</ele>
      </trkpt>
      <trkpt lat="31.813242" lon="34.899548">
        <ele>115.06</ele>
      </trkpt>
      <trkpt lat="31.813673" lon="34.899163">
        <ele>116.9</ele>
      </trkpt>
      <trkpt lat="31.813938" lon="34.898872">
        <ele>118.24</ele>
      </trkpt>
      <trkpt lat="31.814221" lon="34.898512">
        <ele>119.25</ele>
      </trkpt>
      <trkpt lat="31.814774" lon="34.89774">
        <ele>121</ele>
      </trkpt>
      <trkpt lat="31.815325" lon="34.896965">
        <ele>125.03</ele>
      </trkpt>
      <trkpt lat="31.81569" lon="34.896581">
        <ele>126.15</ele>
      </trkpt>
      <trkpt lat="31.815994" lon="34.896325">
        <ele>127.42</ele>
      </trkpt>
      <trkpt lat="31.8161" lon="34.896129">
        <ele>127.01</ele>
      </trkpt>
      <trkpt lat="31.816303" lon="34.895985">
        <ele>126.81</ele>
      </trkpt>
      <trkpt lat="31.816621" lon="34.895834">
        <ele>126.85</ele>
      </trkpt>
      <trkpt lat="31.816743" lon="34.895799">
        <ele>126.45</ele>
      </trkpt>
      <trkpt lat="31.81693" lon="34.895776">
        <ele>125.57</ele>
      </trkpt>
      <trkpt lat="31.817775" lon="34.895715">
        <ele>122.61</ele>
      </trkpt>
      <trkpt lat="31.818641" lon="34.895612">
        <ele>119.28</ele>
      </trkpt>
      <trkpt lat="31.819937" lon="34.895437">
        <ele>116.86</ele>
      </trkpt>
      <trkpt lat="31.820033" lon="34.895411">
        <ele>116.47</ele>
      </trkpt>
      <trkpt lat="31.820088" lon="34.895378">
        <ele>116.28</ele>
      </trkpt>
      <trkpt lat="31.820143" lon="34.895319">
        <ele>115.92</ele>
      </trkpt>
      <trkpt lat="31.820193" lon="34.895244">
        <ele>115.14</ele>
      </trkpt>
      <trkpt lat="31.820238" lon="34.895115">
        <ele>114.08</ele>
      </trkpt>
      <trkpt lat="31.820279" lon="34.894944">
        <ele>112.8</ele>
      </trkpt>
      <trkpt lat="31.82032" lon="34.894649">
        <ele>111.03</ele>
      </trkpt>
      <trkpt lat="31.820366" lon="34.894155">
        <ele>109.55</ele>
      </trkpt>
      <trkpt lat="31.820375" lon="34.893919">
        <ele>110.94</ele>
      </trkpt>
      <trkpt lat="31.820375" lon="34.893206">
        <ele>116.22</ele>
      </trkpt>
      <trkpt lat="31.820389" lon="34.893082">
        <ele>116.48</ele>
      </trkpt>
      <trkpt lat="31.820425" lon="34.892959">
        <ele>117.69</ele>
      </trkpt>
      <trkpt lat="31.820487" lon="34.892836">
        <ele>119.44</ele>
      </trkpt>
      <trkpt lat="31.82058" lon="34.892691">
        <ele>121.04</ele>
      </trkpt>
      <trkpt lat="31.820671" lon="34.892573">
        <ele>121.61</ele>
      </trkpt>
      <trkpt lat="31.820767" lon="34.892482">
        <ele>122.15</ele>
      </trkpt>
      <trkpt lat="31.82105" lon="34.89224">
        <ele>124.5</ele>
      </trkpt>
      <trkpt lat="31.821544" lon="34.891848">
        <ele>125.98</ele>
      </trkpt>
      <trkpt lat="31.822039" lon="34.891457">
        <ele>129.47</ele>
      </trkpt>
      <trkpt lat="31.822189" lon="34.891319">
        <ele>130.73</ele>
      </trkpt>
      <trkpt lat="31.822591" lon="34.890864">
        <ele>134.02</ele>
      </trkpt>
      <trkpt lat="31.822813" lon="34.890583">
        <ele>135.12</ele>
      </trkpt>
      <trkpt lat="31.822925" lon="34.890405">
        <ele>135</ele>
      </trkpt>
      <trkpt lat="31.823709" lon="34.888965">
        <ele>127</ele>
      </trkpt>
      <trkpt lat="31.823801" lon="34.888815">
        <ele>127.01</ele>
      </trkpt>
      <trkpt lat="31.824239" lon="34.888033">
        <ele>125.59</ele>
      </trkpt>
      <trkpt lat="31.825035" lon="34.886474">
        <ele>120.26</ele>
      </trkpt>
      <trkpt lat="31.825276" lon="34.885986">
        <ele>119.72</ele>
      </trkpt>
      <trkpt lat="31.82537" lon="34.885833">
        <ele>119.79</ele>
      </trkpt>
      <trkpt lat="31.82549" lon="34.88567">
        <ele>120.61</ele>
      </trkpt>
      <trkpt lat="31.825808" lon="34.885271">
        <ele>121.79</ele>
      </trkpt>
      <trkpt lat="31.825982" lon="34.885074">
        <ele>122.97</ele>
      </trkpt>
      <trkpt lat="31.826328" lon="34.884679">
        <ele>122.03</ele>
      </trkpt>
      <trkpt lat="31.826494" lon="34.884509">
        <ele>121.08</ele>
      </trkpt>
      <trkpt lat="31.826579" lon="34.884389">
        <ele>120.96</ele>
      </trkpt>
      <trkpt lat="31.82667" lon="34.884229">
        <ele>120.14</ele>
      </trkpt>
      <trkpt lat="31.827629" lon="34.882307">
        <ele>113.46</ele>
      </trkpt>
      <trkpt lat="31.828049" lon="34.881468">
        <ele>114</ele>
      </trkpt>
      <trkpt lat="31.828831" lon="34.87982">
        <ele>115</ele>
      </trkpt>
      <trkpt lat="31.8298" lon="34.877775">
        <ele>109.84</ele>
      </trkpt>
      <trkpt lat="31.831174" lon="34.874822">
        <ele>102.38</ele>
      </trkpt>
      <trkpt lat="31.831237" lon="34.874707">
        <ele>102.01</ele>
      </trkpt>
      <trkpt lat="31.831384" lon="34.874511">
        <ele>101.05</ele>
      </trkpt>
      <trkpt lat="31.831495" lon="34.874383">
        <ele>101</ele>
      </trkpt>
      <trkpt lat="31.832242" lon="34.87357">
        <ele>99</ele>
      </trkpt>
      <trkpt lat="31.832382" lon="34.873405">
        <ele>98.52</ele>
      </trkpt>
      <trkpt lat="31.83253" lon="34.873205">
        <ele>98.28</ele>
      </trkpt>
      <trkpt lat="31.832661" lon="34.87299">
        <ele>97.72</ele>
      </trkpt>
      <trkpt lat="31.833118" lon="34.872156">
        <ele>94.26</ele>
      </trkpt>
      <trkpt lat="31.833664" lon="34.871229">
        <ele>92.94</ele>
      </trkpt>
      <trkpt lat="31.833862" lon="34.870902">
        <ele>92.88</ele>
      </trkpt>
      <trkpt lat="31.833989" lon="34.870737">
        <ele>92</ele>
      </trkpt>
      <trkpt lat="31.834124" lon="34.870573">
        <ele>91.71</ele>
      </trkpt>
      <trkpt lat="31.834643" lon="34.870005">
        <ele>91.52</ele>
      </trkpt>
      <trkpt lat="31.834816" lon="34.869816">
        <ele>89.74</ele>
      </trkpt>
      <trkpt lat="31.836243" lon="34.86837">
        <ele>85.35</ele>
      </trkpt>
      <trkpt lat="31.837113" lon="34.867542">
        <ele>84.08</ele>
      </trkpt>
      <trkpt lat="31.837548" lon="34.867127">
        <ele>85</ele>
      </trkpt>
      <trkpt lat="31.837727" lon="34.866943">
        <ele>85.35</ele>
      </trkpt>
      <trkpt lat="31.837994" lon="34.866635">
        <ele>86.18</ele>
      </trkpt>
      <trkpt lat="31.838241" lon="34.866309">
        <ele>87.87</ele>
      </trkpt>
      <trkpt lat="31.838435" lon="34.865978">
        <ele>89.2</ele>
      </trkpt>
      <trkpt lat="31.838531" lon="34.865778">
        <ele>89.04</ele>
      </trkpt>
      <trkpt lat="31.838691" lon="34.865312">
        <ele>89.42</ele>
      </trkpt>
      <trkpt lat="31.838745" lon="34.865102">
        <ele>89.32</ele>
      </trkpt>
      <trkpt lat="31.838786" lon="34.86486">
        <ele>89.6</ele>
      </trkpt>
      <trkpt lat="31.838811" lon="34.864651">
        <ele>89.77</ele>
      </trkpt>
      <trkpt lat="31.838817" lon="34.864456">
        <ele>89.81</ele>
      </trkpt>
      <trkpt lat="31.838814" lon="34.86404">
        <ele>90.77</ele>
      </trkpt>
      <trkpt lat="31.838724" lon="34.862586">
        <ele>92</ele>
      </trkpt>
      <trkpt lat="31.838646" lon="34.861408">
        <ele>90.28</ele>
      </trkpt>
      <trkpt lat="31.838567" lon="34.859847">
        <ele>86.62</ele>
      </trkpt>
      <trkpt lat="31.838543" lon="34.859013">
        <ele>86.85</ele>
      </trkpt>
      <trkpt lat="31.838525" lon="34.858037">
        <ele>84.03</ele>
      </trkpt>
      <trkpt lat="31.838519" lon="34.856962">
        <ele>78.94</ele>
      </trkpt>
      <trkpt lat="31.838555" lon="34.856135">
        <ele>76.11</ele>
      </trkpt>
      <trkpt lat="31.83862" lon="34.855237">
        <ele>71.9</ele>
      </trkpt>
      <trkpt lat="31.83867" lon="34.854775">
        <ele>69.57</ele>
      </trkpt>
      <trkpt lat="31.83876" lon="34.854156">
        <ele>67.61</ele>
      </trkpt>
      <trkpt lat="31.838825" lon="34.853778">
        <ele>67</ele>
      </trkpt>
      <trkpt lat="31.838992" lon="34.852972">
        <ele>65.73</ele>
      </trkpt>
      <trkpt lat="31.839258" lon="34.851899">
        <ele>63.08</ele>
      </trkpt>
      <trkpt lat="31.839626" lon="34.850899">
        <ele>63</ele>
      </trkpt>
      <trkpt lat="31.839845" lon="34.850173">
        <ele>61.54</ele>
      </trkpt>
      <trkpt lat="31.840223" lon="34.848853">
        <ele>59</ele>
      </trkpt>
      <trkpt lat="31.840559" lon="34.847394">
        <ele>57</ele>
      </trkpt>
      <trkpt lat="31.840973" lon="34.845227">
        <ele>56</ele>
      </trkpt>
      <trkpt lat="31.841148" lon="34.844671">
        <ele>56</ele>
      </trkpt>
      <trkpt lat="31.841306" lon="34.844294">
        <ele>56</ele>
      </trkpt>
      <trkpt lat="31.841423" lon="34.844098">
        <ele>56</ele>
      </trkpt>
      <trkpt lat="31.841661" lon="34.843742">
        <ele>56</ele>
      </trkpt>
      <trkpt lat="31.842541" lon="34.842303">
        <ele>54</ele>
      </trkpt>
      <trkpt lat="31.842919" lon="34.841642">
        <ele>53.98</ele>
      </trkpt>
      <trkpt lat="31.843229" lon="34.841203">
        <ele>53.99</ele>
      </trkpt>
      <trkpt lat="31.843566" lon="34.840783">
        <ele>53.69</ele>
      </trkpt>
      <trkpt lat="31.843987" lon="34.840437">
        <ele>53</ele>
      </trkpt>
      <trkpt lat="31.844516" lon="34.840029">
        <ele>53</ele>
      </trkpt>
      <trkpt lat="31.845081" lon="34.839664">
        <ele>52</ele>
      </trkpt>
      <trkpt lat="31.845361" lon="34.839452">
        <ele>52.6</ele>
      </trkpt>
      <trkpt lat="31.845523" lon="34.839314">
        <ele>53.48</ele>
      </trkpt>
      <trkpt lat="31.846004" lon="34.83874">
        <ele>53</ele>
      </trkpt>
      <trkpt lat="31.846216" lon="34.838404">
        <ele>53</ele>
      </trkpt>
      <trkpt lat="31.846312" lon="34.838229">
        <ele>53</ele>
      </trkpt>
      <trkpt lat="31.84679" lon="34.837244">
        <ele>53</ele>
      </trkpt>
      <trkpt lat="31.846996" lon="34.836847">
        <ele>52.79</ele>
      </trkpt>
      <trkpt lat="31.847264" lon="34.836482">
        <ele>53.95</ele>
      </trkpt>
      <trkpt lat="31.847754" lon="34.835912">
        <ele>53.46</ele>
      </trkpt>
      <trkpt lat="31.84811" lon="34.835577">
        <ele>52.99</ele>
      </trkpt>
      <trkpt lat="31.848282" lon="34.835428">
        <ele>52.57</ele>
      </trkpt>
      <trkpt lat="31.84887" lon="34.834951">
        <ele>51.97</ele>
      </trkpt>
      <trkpt lat="31.850453" lon="34.833568">
        <ele>51.59</ele>
      </trkpt>
      <trkpt lat="31.85051" lon="34.833503">
        <ele>51.55</ele>
      </trkpt>
      <trkpt lat="31.850643" lon="34.833375">
        <ele>52</ele>
      </trkpt>
      <trkpt lat="31.85083" lon="34.833165">
        <ele>52</ele>
      </trkpt>
      <trkpt lat="31.851088" lon="34.832855">
        <ele>51.81</ele>
      </trkpt>
      <trkpt lat="31.851347" lon="34.832475">
        <ele>51.25</ele>
      </trkpt>
      <trkpt lat="31.851452" lon="34.832301">
        <ele>51.84</ele>
      </trkpt>
      <trkpt lat="31.851554" lon="34.832101">
        <ele>51.99</ele>
      </trkpt>
      <trkpt lat="31.851714" lon="34.831745">
        <ele>51.9</ele>
      </trkpt>
      <trkpt lat="31.851844" lon="34.831398">
        <ele>51.98</ele>
      </trkpt>
      <trkpt lat="31.851922" lon="34.831163">
        <ele>52</ele>
      </trkpt>
      <trkpt lat="31.851994" lon="34.830892">
        <ele>52</ele>
      </trkpt>
      <trkpt lat="31.852125" lon="34.830321">
        <ele>52</ele>
      </trkpt>
      <trkpt lat="31.852592" lon="34.828165">
        <ele>50.91</ele>
      </trkpt>
      <trkpt lat="31.85267" lon="34.827856">
        <ele>50.26</ele>
      </trkpt>
      <trkpt lat="31.852797" lon="34.827457">
        <ele>50</ele>
      </trkpt>
      <trkpt lat="31.852892" lon="34.827207">
        <ele>50</ele>
      </trkpt>
      <trkpt lat="31.852979" lon="34.827004">
        <ele>50</ele>
      </trkpt>
      <trkpt lat="31.853166" lon="34.826618">
        <ele>50</ele>
      </trkpt>
      <trkpt lat="31.853266" lon="34.826437">
        <ele>50</ele>
      </trkpt>
      <trkpt lat="31.854052" lon="34.825202">
        <ele>49</ele>
      </trkpt>
      <trkpt lat="31.854431" lon="34.824577">
        <ele>48</ele>
      </trkpt>
      <trkpt lat="31.854755" lon="34.823907">
        <ele>47.97</ele>
      </trkpt>
      <trkpt lat="31.854958" lon="34.823322">
        <ele>48</ele>
      </trkpt>
      <trkpt lat="31.85524" lon="34.822366">
        <ele>47</ele>
      </trkpt>
      <trkpt lat="31.855783" lon="34.820723">
        <ele>47.93</ele>
      </trkpt>
      <trkpt lat="31.855982" lon="34.820241">
        <ele>47.3</ele>
      </trkpt>
      <trkpt lat="31.856764" lon="34.818498">
        <ele>46.35</ele>
      </trkpt>
      <trkpt lat="31.856873" lon="34.81829">
        <ele>46.52</ele>
      </trkpt>
      <trkpt lat="31.857009" lon="34.81806">
        <ele>45.93</ele>
      </trkpt>
      <trkpt lat="31.857224" lon="34.817728">
        <ele>45.34</ele>
      </trkpt>
      <trkpt lat="31.857487" lon="34.81736">
        <ele>45.13</ele>
      </trkpt>
      <trkpt lat="31.857755" lon="34.817038">
        <ele>45.57</ele>
      </trkpt>
      <trkpt lat="31.85813" lon="34.816646">
        <ele>45</ele>
      </trkpt>
      <trkpt lat="31.858427" lon="34.816376">
        <ele>45.05</ele>
      </trkpt>
      <trkpt lat="31.858723" lon="34.816132">
        <ele>45.4</ele>
      </trkpt>
      <trkpt lat="31.859124" lon="34.815894">
        <ele>45.05</ele>
      </trkpt>
      <trkpt lat="31.859471" lon="34.815735">
        <ele>45</ele>
      </trkpt>
      <trkpt lat="31.859641" lon="34.814217">
        <ele>44</ele>
      </trkpt>
      <trkpt lat="31.859657" lon="34.814131">
        <ele>44</ele>
      </trkpt>
      <trkpt lat="31.859675" lon="34.814096">
        <ele>44</ele>
      </trkpt>
      <trkpt lat="31.859701" lon="34.814077">
        <ele>44</ele>
      </trkpt>
      <trkpt lat="31.859721" lon="34.81405">
        <ele>44</ele>
      </trkpt>
      <trkpt lat="31.859732" lon="34.81401">
        <ele>44</ele>
      </trkpt>
      <trkpt lat="31.859727" lon="34.813962">
        <ele>43.93</ele>
      </trkpt>
      <trkpt lat="31.859697" lon="34.813915">
        <ele>43.75</ele>
      </trkpt>
      <trkpt lat="31.859689" lon="34.813858">
        <ele>43.54</ele>
      </trkpt>
      <trkpt lat="31.859697" lon="34.813721">
        <ele>43.27</ele>
      </trkpt>
      <trkpt lat="31.860001" lon="34.811179">
        <ele>43.05</ele>
      </trkpt>
      <trkpt lat="31.860145" lon="34.809745">
        <ele>43.92</ele>
      </trkpt>
      <trkpt lat="31.860221" lon="34.809312">
        <ele>44</ele>
      </trkpt>
      <trkpt lat="31.86033" lon="34.808969">
        <ele>44.16</ele>
      </trkpt>
      <trkpt lat="31.860499" lon="34.80869">
        <ele>45</ele>
      </trkpt>
      <trkpt lat="31.860818" lon="34.80822">
        <ele>46</ele>
      </trkpt>
      <trkpt lat="31.860516" lon="34.807837">
        <ele>46</ele>
      </trkpt>
      <trkpt lat="31.860031" lon="34.807177">
        <ele>45</ele>
      </trkpt>
      <trkpt lat="31.859759" lon="34.806835">
        <ele>44.92</ele>
      </trkpt>
      <trkpt lat="31.859538" lon="34.806574">
        <ele>44.65</ele>
      </trkpt>
      <trkpt lat="31.859215" lon="34.806231">
        <ele>44.44</ele>
      </trkpt>
      <trkpt lat="31.858856" lon="34.805878">
        <ele>44</ele>
      </trkpt>
      <trkpt lat="31.858414" lon="34.805487">
        <ele>43.35</ele>
      </trkpt>
      <trkpt lat="31.85817" lon="34.805281">
        <ele>43.67</ele>
      </trkpt>
      <trkpt lat="31.857705" lon="34.804913">
        <ele>43</ele>
      </trkpt>
      <trkpt lat="31.853722" lon="34.80188">
        <ele>41</ele>
      </trkpt>
      <trkpt lat="31.853252" lon="34.801508">
        <ele>42.09</ele>
      </trkpt>
      <trkpt lat="31.852915" lon="34.801218">
        <ele>42.23</ele>
      </trkpt>
      <trkpt lat="31.852511" lon="34.800832">
        <ele>42.64</ele>
      </trkpt>
      <trkpt lat="31.852203" lon="34.800475">
        <ele>42.92</ele>
      </trkpt>
      <trkpt lat="31.851857" lon="34.800035">
        <ele>43.06</ele>
      </trkpt>
      <trkpt lat="31.851529" lon="34.799554">
        <ele>42</ele>
      </trkpt>
      <trkpt lat="31.851207" lon="34.799047">
        <ele>41</ele>
      </trkpt>
      <trkpt lat="31.850789" lon="34.798352">
        <ele>41</ele>
      </trkpt>
      <trkpt lat="31.850085" lon="34.797147">
        <ele>40</ele>
      </trkpt>
      <trkpt lat="31.84953" lon="34.796199">
        <ele>41</ele>
      </trkpt>
      <trkpt lat="31.849203" lon="34.795694">
        <ele>40.93</ele>
      </trkpt>
      <trkpt lat="31.849041" lon="34.795465">
        <ele>40.92</ele>
      </trkpt>
      <trkpt lat="31.848838" lon="34.795199">
        <ele>41</ele>
      </trkpt>
      <trkpt lat="31.848436" lon="34.794695">
        <ele>41.06</ele>
      </trkpt>
      <trkpt lat="31.848307" lon="34.794548">
        <ele>40.99</ele>
      </trkpt>
      <trkpt lat="31.847889" lon="34.794104">
        <ele>41.95</ele>
      </trkpt>
      <trkpt lat="31.847686" lon="34.793903">
        <ele>42.36</ele>
      </trkpt>
      <trkpt lat="31.847364" lon="34.793601">
        <ele>42</ele>
      </trkpt>
      <trkpt lat="31.844409" lon="34.790975">
        <ele>40.72</ele>
      </trkpt>
      <trkpt lat="31.843979" lon="34.790579">
        <ele>41.15</ele>
      </trkpt>
      <trkpt lat="31.843648" lon="34.790221">
        <ele>40</ele>
      </trkpt>
      <trkpt lat="31.841143" lon="34.787165">
        <ele>41.61</ele>
      </trkpt>
      <trkpt lat="31.840714" lon="34.786651">
        <ele>41.35</ele>
      </trkpt>
      <trkpt lat="31.84034" lon="34.786242">
        <ele>39.96</ele>
      </trkpt>
      <trkpt lat="31.840162" lon="34.786075">
        <ele>39.46</ele>
      </trkpt>
      <trkpt lat="31.839907" lon="34.785864">
        <ele>40.44</ele>
      </trkpt>
      <trkpt lat="31.83961" lon="34.785636">
        <ele>39.87</ele>
      </trkpt>
      <trkpt lat="31.839439" lon="34.785515">
        <ele>39.56</ele>
      </trkpt>
      <trkpt lat="31.83921" lon="34.785378">
        <ele>39.15</ele>
      </trkpt>
      <trkpt lat="31.838653" lon="34.785073">
        <ele>38.19</ele>
      </trkpt>
      <trkpt lat="31.838038" lon="34.784763">
        <ele>37.15</ele>
      </trkpt>
      <trkpt lat="31.837149" lon="34.784294">
        <ele>37.34</ele>
      </trkpt>
      <trkpt lat="31.834186" lon="34.782704">
        <ele>36.19</ele>
      </trkpt>
      <trkpt lat="31.833626" lon="34.782417">
        <ele>37</ele>
      </trkpt>
      <trkpt lat="31.833188" lon="34.782203">
        <ele>37</ele>
      </trkpt>
      <trkpt lat="31.832268" lon="34.781904">
        <ele>37</ele>
      </trkpt>
      <trkpt lat="31.831791" lon="34.781742">
        <ele>38</ele>
      </trkpt>
      <trkpt lat="31.831352" lon="34.781569">
        <ele>37.58</ele>
      </trkpt>
      <trkpt lat="31.830849" lon="34.781314">
        <ele>37</ele>
      </trkpt>
      <trkpt lat="31.830438" lon="34.781078">
        <ele>37.88</ele>
      </trkpt>
      <trkpt lat="31.830141" lon="34.780876">
        <ele>37.81</ele>
      </trkpt>
      <trkpt lat="31.829958" lon="34.780741">
        <ele>37.96</ele>
      </trkpt>
      <trkpt lat="31.829813" lon="34.780621">
        <ele>38</ele>
      </trkpt>
      <trkpt lat="31.829671" lon="34.780491">
        <ele>38</ele>
      </trkpt>
      <trkpt lat="31.829294" lon="34.78011">
        <ele>38</ele>
      </trkpt>
      <trkpt lat="31.829029" lon="34.779819">
        <ele>37.93</ele>
      </trkpt>
      <trkpt lat="31.828062" lon="34.778606">
        <ele>38</ele>
      </trkpt>
      <trkpt lat="31.827923" lon="34.778432">
        <ele>35.96</ele>
      </trkpt>
      <trkpt lat="31.827234" lon="34.777527">
        <ele>37</ele>
      </trkpt>
      <trkpt lat="31.827039" lon="34.777285">
        <ele>36.93</ele>
      </trkpt>
      <trkpt lat="31.826695" lon="34.776896">
        <ele>37.44</ele>
      </trkpt>
      <trkpt lat="31.826505" lon="34.776698">
        <ele>37.59</ele>
      </trkpt>
      <trkpt lat="31.826185" lon="34.776407">
        <ele>37.84</ele>
      </trkpt>
      <trkpt lat="31.825931" lon="34.776189">
        <ele>38.11</ele>
      </trkpt>
      <trkpt lat="31.825608" lon="34.775934">
        <ele>37.93</ele>
      </trkpt>
      <trkpt lat="31.825065" lon="34.775566">
        <ele>39.2</ele>
      </trkpt>
      <trkpt lat="31.824667" lon="34.775374">
        <ele>40</ele>
      </trkpt>
      <trkpt lat="31.823994" lon="34.775116">
        <ele>41.07</ele>
      </trkpt>
      <trkpt lat="31.822474" lon="34.774611">
        <ele>45.03</ele>
      </trkpt>
      <trkpt lat="31.820505" lon="34.773988">
        <ele>49.51</ele>
      </trkpt>
      <trkpt lat="31.820019" lon="34.773828">
        <ele>50.48</ele>
      </trkpt>
      <trkpt lat="31.818924" lon="34.773433">
        <ele>54</ele>
      </trkpt>
      <trkpt lat="31.818434" lon="34.773206">
        <ele>56</ele>
      </trkpt>
      <trkpt lat="31.818116" lon="34.773015">
        <ele>56</ele>
      </trkpt>
      <trkpt lat="31.817815" lon="34.772806">
        <ele>56.97</ele>
      </trkpt>
      <trkpt lat="31.817458" lon="34.772465">
        <ele>58.23</ele>
      </trkpt>
      <trkpt lat="31.817036" lon="34.772091">
        <ele>58</ele>
      </trkpt>
      <trkpt lat="31.816046" lon="34.77118">
        <ele>59</ele>
      </trkpt>
      <trkpt lat="31.815946" lon="34.7711">
        <ele>58.72</ele>
      </trkpt>
      <trkpt lat="31.815737" lon="34.770953">
        <ele>58.87</ele>
      </trkpt>
      <trkpt lat="31.815459" lon="34.770805">
        <ele>58</ele>
      </trkpt>
      <trkpt lat="31.814877" lon="34.770556">
        <ele>56.99</ele>
      </trkpt>
      <trkpt lat="31.814624" lon="34.770435">
        <ele>55.26</ele>
      </trkpt>
      <trkpt lat="31.814483" lon="34.770349">
        <ele>55</ele>
      </trkpt>
      <trkpt lat="31.81419" lon="34.770111">
        <ele>54</ele>
      </trkpt>
      <trkpt lat="31.813898" lon="34.769846">
        <ele>53.3</ele>
      </trkpt>
      <trkpt lat="31.813378" lon="34.769356">
        <ele>52.15</ele>
      </trkpt>
      <trkpt lat="31.812516" lon="34.768558">
        <ele>54</ele>
      </trkpt>
      <trkpt lat="31.811869" lon="34.767973">
        <ele>56.13</ele>
      </trkpt>
      <trkpt lat="31.811699" lon="34.767831">
        <ele>56.47</ele>
      </trkpt>
      <trkpt lat="31.811492" lon="34.767686">
        <ele>57.04</ele>
      </trkpt>
      <trkpt lat="31.811096" lon="34.767457">
        <ele>57.54</ele>
      </trkpt>
      <trkpt lat="31.810963" lon="34.767398">
        <ele>57.98</ele>
      </trkpt>
      <trkpt lat="31.810755" lon="34.767323">
        <ele>57.97</ele>
      </trkpt>
      <trkpt lat="31.810532" lon="34.767267">
        <ele>58.43</ele>
      </trkpt>
      <trkpt lat="31.809477" lon="34.76706">
        <ele>58.23</ele>
      </trkpt>
      <trkpt lat="31.808999" lon="34.766951">
        <ele>58.6</ele>
      </trkpt>
      <trkpt lat="31.808618" lon="34.766842">
        <ele>58.96</ele>
      </trkpt>
      <trkpt lat="31.808413" lon="34.766772">
        <ele>59.56</ele>
      </trkpt>
      <trkpt lat="31.80806" lon="34.766621">
        <ele>59.68</ele>
      </trkpt>
      <trkpt lat="31.807871" lon="34.766525">
        <ele>59.95</ele>
      </trkpt>
      <trkpt lat="31.807476" lon="34.766277">
        <ele>60.32</ele>
      </trkpt>
      <trkpt lat="31.806961" lon="34.765926">
        <ele>61.17</ele>
      </trkpt>
      <trkpt lat="31.806689" lon="34.765769">
        <ele>62</ele>
      </trkpt>
      <trkpt lat="31.806484" lon="34.765662">
        <ele>62</ele>
      </trkpt>
      <trkpt lat="31.806091" lon="34.765484">
        <ele>62.82</ele>
      </trkpt>
      <trkpt lat="31.804982" lon="34.765053">
        <ele>64.05</ele>
      </trkpt>
      <trkpt lat="31.80384" lon="34.764604">
        <ele>70.93</ele>
      </trkpt>
      <trkpt lat="31.803224" lon="34.764364">
        <ele>69.56</ele>
      </trkpt>
      <trkpt lat="31.802825" lon="34.764238">
        <ele>66.53</ele>
      </trkpt>
      <trkpt lat="31.802668" lon="34.764175">
        <ele>66</ele>
      </trkpt>
      <trkpt lat="31.802273" lon="34.764054">
        <ele>65.19</ele>
      </trkpt>
      <trkpt lat="31.801626" lon="34.76392">
        <ele>63.03</ele>
      </trkpt>
      <trkpt lat="31.801401" lon="34.763885">
        <ele>64.59</ele>
      </trkpt>
      <trkpt lat="31.801151" lon="34.76386">
        <ele>66.57</ele>
      </trkpt>
      <trkpt lat="31.800895" lon="34.763844">
        <ele>67.89</ele>
      </trkpt>
      <trkpt lat="31.800602" lon="34.763841">
        <ele>68.04</ele>
      </trkpt>
      <trkpt lat="31.800167" lon="34.763878">
        <ele>67.73</ele>
      </trkpt>
      <trkpt lat="31.799669" lon="34.763938">
        <ele>66</ele>
      </trkpt>
      <trkpt lat="31.799434" lon="34.763987">
        <ele>65.34</ele>
      </trkpt>
      <trkpt lat="31.799153" lon="34.764062">
        <ele>65.66</ele>
      </trkpt>
      <trkpt lat="31.79877" lon="34.764186">
        <ele>65.9</ele>
      </trkpt>
      <trkpt lat="31.798576" lon="34.764258">
        <ele>65.94</ele>
      </trkpt>
      <trkpt lat="31.798271" lon="34.764387">
        <ele>66.27</ele>
      </trkpt>
      <trkpt lat="31.797911" lon="34.764568">
        <ele>67</ele>
      </trkpt>
      <trkpt lat="31.797577" lon="34.764758">
        <ele>67.37</ele>
      </trkpt>
      <trkpt lat="31.797221" lon="34.765008">
        <ele>68.3</ele>
      </trkpt>
      <trkpt lat="31.797086" lon="34.765116">
        <ele>68.98</ele>
      </trkpt>
      <trkpt lat="31.796768" lon="34.765393">
        <ele>70.9</ele>
      </trkpt>
      <trkpt lat="31.796615" lon="34.76554">
        <ele>71.95</ele>
      </trkpt>
      <trkpt lat="31.796311" lon="34.76586">
        <ele>73.02</ele>
      </trkpt>
      <trkpt lat="31.795815" lon="34.766448">
        <ele>74.14</ele>
      </trkpt>
      <trkpt lat="31.795918" lon="34.766604">
        <ele>74.87</ele>
      </trkpt>
      <trkpt lat="31.796184" lon="34.766271">
        <ele>73.65</ele>
      </trkpt>
      <trkpt lat="31.796524" lon="34.765887">
        <ele>72.41</ele>
      </trkpt>
      <trkpt lat="31.796927" lon="34.765481">
        <ele>70.29</ele>
      </trkpt>
      <trkpt lat="31.797388" lon="34.765095">
        <ele>68.81</ele>
      </trkpt>
      <trkpt lat="31.797568" lon="34.764965">
        <ele>68.08</ele>
      </trkpt>
      <trkpt lat="31.797862" lon="34.764774">
        <ele>67.76</ele>
      </trkpt>
      <trkpt lat="31.797928" lon="34.764731">
        <ele>67.69</ele>
      </trkpt>
      <trkpt lat="31.798329" lon="34.76452">
        <ele>66.88</ele>
      </trkpt>
      <trkpt lat="31.79885" lon="34.764301">
        <ele>66</ele>
      </trkpt>
      <trkpt lat="31.799251" lon="34.764169">
        <ele>65</ele>
      </trkpt>
      <trkpt lat="31.799674" lon="34.764065">
        <ele>66</ele>
      </trkpt>
      <trkpt lat="31.800062" lon="34.763991">
        <ele>68.02</ele>
      </trkpt>
      <trkpt lat="31.800333" lon="34.763964">
        <ele>68.35</ele>
      </trkpt>
      <trkpt lat="31.800993" lon="34.763938">
        <ele>68.08</ele>
      </trkpt>
      <trkpt lat="31.801183" lon="34.763945">
        <ele>66.81</ele>
      </trkpt>
      <trkpt lat="31.801391" lon="34.763963">
        <ele>64.78</ele>
      </trkpt>
      <trkpt lat="31.801556" lon="34.763989">
        <ele>63.52</ele>
      </trkpt>
      <trkpt lat="31.80202" lon="34.764102">
        <ele>64.06</ele>
      </trkpt>
      <trkpt lat="31.802214" lon="34.764162">
        <ele>65</ele>
      </trkpt>
      <trkpt lat="31.8027" lon="34.764328">
        <ele>66.23</ele>
      </trkpt>
      <trkpt lat="31.802952" lon="34.764416">
        <ele>69.86</ele>
      </trkpt>
      <trkpt lat="31.803263" lon="34.764535">
        <ele>70.55</ele>
      </trkpt>
      <trkpt lat="31.803349" lon="34.764417">
        <ele>69.86</ele>
      </trkpt>
      <trkpt lat="31.803224" lon="34.764364">
        <ele>69.56</ele>
      </trkpt>
      <trkpt lat="31.802825" lon="34.764238">
        <ele>66.53</ele>
      </trkpt>
      <trkpt lat="31.802668" lon="34.764175">
        <ele>66</ele>
      </trkpt>
      <trkpt lat="31.802273" lon="34.764054">
        <ele>65.19</ele>
      </trkpt>
      <trkpt lat="31.801626" lon="34.76392">
        <ele>63.03</ele>
      </trkpt>
      <trkpt lat="31.801401" lon="34.763885">
        <ele>64.59</ele>
      </trkpt>
      <trkpt lat="31.800895" lon="34.763844">
        <ele>67.89</ele>
      </trkpt>
      <trkpt lat="31.800602" lon="34.763841">
        <ele>68.04</ele>
      </trkpt>
      <trkpt lat="31.800167" lon="34.763878">
        <ele>67.73</ele>
      </trkpt>
      <trkpt lat="31.799669" lon="34.763938">
        <ele>66</ele>
      </trkpt>
      <trkpt lat="31.799434" lon="34.763987">
        <ele>65.34</ele>
      </trkpt>
      <trkpt lat="31.799153" lon="34.764062">
        <ele>65.66</ele>
      </trkpt>
      <trkpt lat="31.79877" lon="34.764186">
        <ele>65.9</ele>
      </trkpt>
      <trkpt lat="31.798576" lon="34.764258">
        <ele>65.94</ele>
      </trkpt>
      <trkpt lat="31.798271" lon="34.764387">
        <ele>66.27</ele>
      </trkpt>
      <trkpt lat="31.797911" lon="34.764568">
        <ele>67</ele>
      </trkpt>
      <trkpt lat="31.797577" lon="34.764758">
        <ele>67.37</ele>
      </trkpt>
      <trkpt lat="31.797221" lon="34.765008">
        <ele>68.3</ele>
      </trkpt>
      <trkpt lat="31.797086" lon="34.765116">
        <ele>68.98</ele>
      </trkpt>
      <trkpt lat="31.796768" lon="34.765393">
        <ele>70.9</ele>
      </trkpt>
      <trkpt lat="31.796615" lon="34.76554">
        <ele>71.95</ele>
      </trkpt>
      <trkpt lat="31.796311" lon="34.76586">
        <ele>73.02</ele>
      </trkpt>
      <trkpt lat="31.795815" lon="34.766448">
        <ele>74.14</ele>
      </trkpt>
      <trkpt lat="31.795418" lon="34.767012">
        <ele>76.82</ele>
      </trkpt>
      <trkpt lat="31.795185" lon="34.767384">
        <ele>77.39</ele>
      </trkpt>
      <trkpt lat="31.794877" lon="34.767934">
        <ele>79.48</ele>
      </trkpt>
      <trkpt lat="31.794079" lon="34.769609">
        <ele>82.43</ele>
      </trkpt>
      <trkpt lat="31.793772" lon="34.770284">
        <ele>82.6</ele>
      </trkpt>
      <trkpt lat="31.793367" lon="34.771072">
        <ele>82.93</ele>
      </trkpt>
      <trkpt lat="31.79314" lon="34.771491">
        <ele>83</ele>
      </trkpt>
      <trkpt lat="31.792836" lon="34.772016">
        <ele>82.95</ele>
      </trkpt>
      <trkpt lat="31.792549" lon="34.772456">
        <ele>81.4</ele>
      </trkpt>
      <trkpt lat="31.79225" lon="34.772791">
        <ele>79.56</ele>
      </trkpt>
      <trkpt lat="31.792052" lon="34.772997">
        <ele>78.21</ele>
      </trkpt>
      <trkpt lat="31.791789" lon="34.773204">
        <ele>77</ele>
      </trkpt>
      <trkpt lat="31.791342" lon="34.773588">
        <ele>74.81</ele>
      </trkpt>
      <trkpt lat="31.790862" lon="34.773918">
        <ele>73.9</ele>
      </trkpt>
      <trkpt lat="31.789415" lon="34.774942">
        <ele>70.76</ele>
      </trkpt>
      <trkpt lat="31.789101" lon="34.775129">
        <ele>69.86</ele>
      </trkpt>
      <trkpt lat="31.788791" lon="34.77529">
        <ele>68.96</ele>
      </trkpt>
      <trkpt lat="31.788541" lon="34.775401">
        <ele>68</ele>
      </trkpt>
      <trkpt lat="31.788196" lon="34.775538">
        <ele>67</ele>
      </trkpt>
      <trkpt lat="31.787586" lon="34.775737">
        <ele>65.29</ele>
      </trkpt>
      <trkpt lat="31.787029" lon="34.775932">
        <ele>64.9</ele>
      </trkpt>
      <trkpt lat="31.786752" lon="34.77602">
        <ele>64</ele>
      </trkpt>
      <trkpt lat="31.786491" lon="34.77609">
        <ele>63.95</ele>
      </trkpt>
      <trkpt lat="31.786096" lon="34.776175">
        <ele>63.02</ele>
      </trkpt>
      <trkpt lat="31.78542" lon="34.776263">
        <ele>62.74</ele>
      </trkpt>
      <trkpt lat="31.785011" lon="34.776289">
        <ele>62.89</ele>
      </trkpt>
      <trkpt lat="31.784363" lon="34.776273">
        <ele>63.59</ele>
      </trkpt>
      <trkpt lat="31.783437" lon="34.776224">
        <ele>64</ele>
      </trkpt>
      <trkpt lat="31.783138" lon="34.776218">
        <ele>64.47</ele>
      </trkpt>
      <trkpt lat="31.782779" lon="34.776224">
        <ele>64.51</ele>
      </trkpt>
      <trkpt lat="31.782367" lon="34.776268">
        <ele>64.86</ele>
      </trkpt>
      <trkpt lat="31.781908" lon="34.776355">
        <ele>65</ele>
      </trkpt>
      <trkpt lat="31.781511" lon="34.776447">
        <ele>65</ele>
      </trkpt>
      <trkpt lat="31.779848" lon="34.776887">
        <ele>64.6</ele>
      </trkpt>
      <trkpt lat="31.777565" lon="34.777505">
        <ele>67.97</ele>
      </trkpt>
      <trkpt lat="31.776337" lon="34.777864">
        <ele>70.05</ele>
      </trkpt>
      <trkpt lat="31.776049" lon="34.777958">
        <ele>70.59</ele>
      </trkpt>
      <trkpt lat="31.77579" lon="34.77805">
        <ele>70.13</ele>
      </trkpt>
      <trkpt lat="31.775222" lon="34.778281">
        <ele>70</ele>
      </trkpt>
      <trkpt lat="31.774956" lon="34.77841">
        <ele>70</ele>
      </trkpt>
      <trkpt lat="31.774289" lon="34.778754">
        <ele>68.49</ele>
      </trkpt>
      <trkpt lat="31.773515" lon="34.77913">
        <ele>66.47</ele>
      </trkpt>
      <trkpt lat="31.772994" lon="34.779348">
        <ele>65.33</ele>
      </trkpt>
      <trkpt lat="31.772839" lon="34.779426">
        <ele>65.06</ele>
      </trkpt>
      <trkpt lat="31.771664" lon="34.779914">
        <ele>61.96</ele>
      </trkpt>
      <trkpt lat="31.770239" lon="34.780508">
        <ele>63.8</ele>
      </trkpt>
      <trkpt lat="31.769472" lon="34.780844">
        <ele>64</ele>
      </trkpt>
      <trkpt lat="31.769014" lon="34.781069">
        <ele>64</ele>
      </trkpt>
      <trkpt lat="31.768318" lon="34.781438">
        <ele>62.52</ele>
      </trkpt>
      <trkpt lat="31.767849" lon="34.781698">
        <ele>61.54</ele>
      </trkpt>
      <trkpt lat="31.766107" lon="34.782709">
        <ele>55</ele>
      </trkpt>
      <trkpt lat="31.764215" lon="34.783804">
        <ele>55</ele>
      </trkpt>
      <trkpt lat="31.763615" lon="34.78411">
        <ele>56</ele>
      </trkpt>
      <trkpt lat="31.763102" lon="34.78434">
        <ele>56</ele>
      </trkpt>
      <trkpt lat="31.762626" lon="34.784489">
        <ele>56</ele>
      </trkpt>
      <trkpt lat="31.762303" lon="34.784555">
        <ele>56</ele>
      </trkpt>
      <trkpt lat="31.761922" lon="34.784591">
        <ele>56</ele>
      </trkpt>
      <trkpt lat="31.761562" lon="34.784591">
        <ele>55.42</ele>
      </trkpt>
      <trkpt lat="31.761353" lon="34.784575">
        <ele>55.18</ele>
      </trkpt>
      <trkpt lat="31.760903" lon="34.784521">
        <ele>55.94</ele>
      </trkpt>
      <trkpt lat="31.76065" lon="34.784445">
        <ele>56.31</ele>
      </trkpt>
      <trkpt lat="31.760541" lon="34.78467">
        <ele>57</ele>
      </trkpt>
      <trkpt lat="31.760407" lon="34.785081">
        <ele>57</ele>
      </trkpt>
      <trkpt lat="31.760067" lon="34.786271">
        <ele>57</ele>
      </trkpt>
      <trkpt lat="31.760031" lon="34.786444">
        <ele>57</ele>
      </trkpt>
      <trkpt lat="31.760003" lon="34.786652">
        <ele>56.65</ele>
      </trkpt>
      <trkpt lat="31.760003" lon="34.786877">
        <ele>56.65</ele>
      </trkpt>
      <trkpt lat="31.760021" lon="34.787128">
        <ele>56.98</ele>
      </trkpt>
      <trkpt lat="31.760064" lon="34.787379">
        <ele>57</ele>
      </trkpt>
      <trkpt lat="31.760107" lon="34.787577">
        <ele>57</ele>
      </trkpt>
      <trkpt lat="31.760203" lon="34.78787">
        <ele>57</ele>
      </trkpt>
      <trkpt lat="31.760789" lon="34.789454">
        <ele>58.98</ele>
      </trkpt>
      <trkpt lat="31.761087" lon="34.790195">
        <ele>58.75</ele>
      </trkpt>
      <trkpt lat="31.761261" lon="34.79059">
        <ele>59.26</ele>
      </trkpt>
      <trkpt lat="31.761457" lon="34.790994">
        <ele>59.59</ele>
      </trkpt>
      <trkpt lat="31.76167" lon="34.791383">
        <ele>61</ele>
      </trkpt>
      <trkpt lat="31.76202" lon="34.791984">
        <ele>62.06</ele>
      </trkpt>
      <trkpt lat="31.762304" lon="34.792449">
        <ele>63.85</ele>
      </trkpt>
      <trkpt lat="31.762768" lon="34.793109">
        <ele>64.68</ele>
      </trkpt>
      <trkpt lat="31.763212" lon="34.793717">
        <ele>64.53</ele>
      </trkpt>
      <trkpt lat="31.763445" lon="34.794018">
        <ele>64.97</ele>
      </trkpt>
      <trkpt lat="31.764285" lon="34.795153">
        <ele>65</ele>
      </trkpt>
      <trkpt lat="31.764909" lon="34.795997">
        <ele>63</ele>
      </trkpt>
      <trkpt lat="31.765716" lon="34.797056">
        <ele>63</ele>
      </trkpt>
      <trkpt lat="31.766092" lon="34.797566">
        <ele>63</ele>
      </trkpt>
      <trkpt lat="31.766619" lon="34.798253">
        <ele>63.9</ele>
      </trkpt>
      <trkpt lat="31.767751" lon="34.799767">
        <ele>64.86</ele>
      </trkpt>
      <trkpt lat="31.768106" lon="34.80023">
        <ele>65.92</ele>
      </trkpt>
      <trkpt lat="31.76942" lon="34.80188">
        <ele>67</ele>
      </trkpt>
      <trkpt lat="31.770736" lon="34.803498">
        <ele>69</ele>
      </trkpt>
      <trkpt lat="31.771646" lon="34.804645">
        <ele>70.2</ele>
      </trkpt>
      <trkpt lat="31.771812" lon="34.804871">
        <ele>71</ele>
      </trkpt>
      <trkpt lat="31.772095" lon="34.805272">
        <ele>71</ele>
      </trkpt>
      <trkpt lat="31.772599" lon="34.806052">
        <ele>72</ele>
      </trkpt>
      <trkpt lat="31.773276" lon="34.807133">
        <ele>74</ele>
      </trkpt>
      <trkpt lat="31.773679" lon="34.80775">
        <ele>74</ele>
      </trkpt>
      <trkpt lat="31.77383" lon="34.807953">
        <ele>74</ele>
      </trkpt>
      <trkpt lat="31.774553" lon="34.808852">
        <ele>77</ele>
      </trkpt>
      <trkpt lat="31.774735" lon="34.809073">
        <ele>76.5</ele>
      </trkpt>
      <trkpt lat="31.775476" lon="34.809931">
        <ele>77.24</ele>
      </trkpt>
      <trkpt lat="31.776613" lon="34.811229">
        <ele>79.97</ele>
      </trkpt>
      <trkpt lat="31.777562" lon="34.812297">
        <ele>81.24</ele>
      </trkpt>
      <trkpt lat="31.778137" lon="34.81296">
        <ele>82.34</ele>
      </trkpt>
      <trkpt lat="31.778522" lon="34.813378">
        <ele>81</ele>
      </trkpt>
      <trkpt lat="31.778936" lon="34.813791">
        <ele>80</ele>
      </trkpt>
      <trkpt lat="31.779577" lon="34.814372">
        <ele>79</ele>
      </trkpt>
      <trkpt lat="31.779808" lon="34.814568">
        <ele>79</ele>
      </trkpt>
      <trkpt lat="31.780256" lon="34.81492">
        <ele>78</ele>
      </trkpt>
      <trkpt lat="31.780706" lon="34.815237">
        <ele>77.67</ele>
      </trkpt>
      <trkpt lat="31.781172" lon="34.815533">
        <ele>76.98</ele>
      </trkpt>
      <trkpt lat="31.781669" lon="34.815824">
        <ele>76.05</ele>
      </trkpt>
      <trkpt lat="31.782157" lon="34.816086">
        <ele>75.73</ele>
      </trkpt>
      <trkpt lat="31.782996" lon="34.816501">
        <ele>74.1</ele>
      </trkpt>
      <trkpt lat="31.784091" lon="34.817054">
        <ele>74.9</ele>
      </trkpt>
      <trkpt lat="31.784716" lon="34.817375">
        <ele>73</ele>
      </trkpt>
      <trkpt lat="31.784872" lon="34.817457">
        <ele>72.69</ele>
      </trkpt>
      <trkpt lat="31.785411" lon="34.817769">
        <ele>72.33</ele>
      </trkpt>
      <trkpt lat="31.786061" lon="34.81818">
        <ele>72.52</ele>
      </trkpt>
      <trkpt lat="31.786345" lon="34.818376">
        <ele>71.78</ele>
      </trkpt>
      <trkpt lat="31.787047" lon="34.818939">
        <ele>69.14</ele>
      </trkpt>
      <trkpt lat="31.787506" lon="34.819359">
        <ele>68.44</ele>
      </trkpt>
      <trkpt lat="31.787861" lon="34.81971">
        <ele>67.72</ele>
      </trkpt>
      <trkpt lat="31.788218" lon="34.820089">
        <ele>66.25</ele>
      </trkpt>
      <trkpt lat="31.788432" lon="34.82032">
        <ele>68</ele>
      </trkpt>
      <trkpt lat="31.788822" lon="34.82076">
        <ele>68.3</ele>
      </trkpt>
      <trkpt lat="31.789" lon="34.820972">
        <ele>68.97</ele>
      </trkpt>
      <trkpt lat="31.789329" lon="34.821397">
        <ele>69.22</ele>
      </trkpt>
      <trkpt lat="31.78977" lon="34.822019">
        <ele>70</ele>
      </trkpt>
      <trkpt lat="31.790083" lon="34.822498">
        <ele>70.66</ele>
      </trkpt>
      <trkpt lat="31.790517" lon="34.823258">
        <ele>71.36</ele>
      </trkpt>
      <trkpt lat="31.791526" lon="34.825318">
        <ele>74</ele>
      </trkpt>
      <trkpt lat="31.792805" lon="34.827945">
        <ele>80.99</ele>
      </trkpt>
      <trkpt lat="31.793349" lon="34.829059">
        <ele>80.82</ele>
      </trkpt>
      <trkpt lat="31.793885" lon="34.829931">
        <ele>82.14</ele>
      </trkpt>
      <trkpt lat="31.794021" lon="34.830148">
        <ele>79.23</ele>
      </trkpt>
      <trkpt lat="31.794662" lon="34.831059">
        <ele>78.26</ele>
      </trkpt>
      <trkpt lat="31.794839" lon="34.831284">
        <ele>82.75</ele>
      </trkpt>
      <trkpt lat="31.795016" lon="34.831509">
        <ele>83.17</ele>
      </trkpt>
      <trkpt lat="31.795726" lon="34.832409">
        <ele>80.57</ele>
      </trkpt>
      <trkpt lat="31.796855" lon="34.833668">
        <ele>78.06</ele>
      </trkpt>
      <trkpt lat="31.797293" lon="34.834157">
        <ele>75.65</ele>
      </trkpt>
      <trkpt lat="31.797732" lon="34.834646">
        <ele>77.27</ele>
      </trkpt>
      <trkpt lat="31.798833" lon="34.835842">
        <ele>79.09</ele>
      </trkpt>
      <trkpt lat="31.80031" lon="34.837493">
        <ele>81.77</ele>
      </trkpt>
      <trkpt lat="31.800649" lon="34.837824">
        <ele>82.42</ele>
      </trkpt>
      <trkpt lat="31.801242" lon="34.838353">
        <ele>82.79</ele>
      </trkpt>
      <trkpt lat="31.80306" lon="34.839685">
        <ele>81.59</ele>
      </trkpt>
      <trkpt lat="31.803391" lon="34.839984">
        <ele>82.19</ele>
      </trkpt>
      <trkpt lat="31.803703" lon="34.840305">
        <ele>81.46</ele>
      </trkpt>
      <trkpt lat="31.804087" lon="34.840798">
        <ele>81.04</ele>
      </trkpt>
      <trkpt lat="31.804391" lon="34.841254">
        <ele>80.55</ele>
      </trkpt>
      <trkpt lat="31.804466" lon="34.841392">
        <ele>80.36</ele>
      </trkpt>
      <trkpt lat="31.804595" lon="34.841601">
        <ele>80</ele>
      </trkpt>
      <trkpt lat="31.804692" lon="34.841786">
        <ele>79.31</ele>
      </trkpt>
      <trkpt lat="31.804906" lon="34.842252">
        <ele>78.6</ele>
      </trkpt>
      <trkpt lat="31.805037" lon="34.842596">
        <ele>77.73</ele>
      </trkpt>
      <trkpt lat="31.805672" lon="34.844416">
        <ele>74</ele>
      </trkpt>
      <trkpt lat="31.806285" lon="34.846191">
        <ele>72.55</ele>
      </trkpt>
      <trkpt lat="31.806747" lon="34.847418">
        <ele>71.35</ele>
      </trkpt>
      <trkpt lat="31.806987" lon="34.848023">
        <ele>70.99</ele>
      </trkpt>
      <trkpt lat="31.807757" lon="34.84991">
        <ele>70.06</ele>
      </trkpt>
      <trkpt lat="31.808248" lon="34.851105">
        <ele>71</ele>
      </trkpt>
      <trkpt lat="31.808411" lon="34.851523">
        <ele>71.23</ele>
      </trkpt>
      <trkpt lat="31.808597" lon="34.852067">
        <ele>72</ele>
      </trkpt>
      <trkpt lat="31.808783" lon="34.852708">
        <ele>73</ele>
      </trkpt>
      <trkpt lat="31.808902" lon="34.85318">
        <ele>72.06</ele>
      </trkpt>
      <trkpt lat="31.809001" lon="34.853604">
        <ele>72.4</ele>
      </trkpt>
      <trkpt lat="31.809086" lon="34.854041">
        <ele>73.37</ele>
      </trkpt>
      <trkpt lat="31.809257" lon="34.855126">
        <ele>74.54</ele>
      </trkpt>
      <trkpt lat="31.809446" lon="34.856552">
        <ele>75</ele>
      </trkpt>
      <trkpt lat="31.80962" lon="34.857981">
        <ele>76</ele>
      </trkpt>
      <trkpt lat="31.809748" lon="34.858884">
        <ele>75.91</ele>
      </trkpt>
      <trkpt lat="31.809821" lon="34.859468">
        <ele>76.4</ele>
      </trkpt>
      <trkpt lat="31.809935" lon="34.860255">
        <ele>78</ele>
      </trkpt>
      <trkpt lat="31.809998" lon="34.860811">
        <ele>78</ele>
      </trkpt>
      <trkpt lat="31.810082" lon="34.862081">
        <ele>79.82</ele>
      </trkpt>
      <trkpt lat="31.810111" lon="34.863338">
        <ele>80</ele>
      </trkpt>
      <trkpt lat="31.810106" lon="34.864031">
        <ele>81</ele>
      </trkpt>
      <trkpt lat="31.810088" lon="34.864625">
        <ele>82</ele>
      </trkpt>
      <trkpt lat="31.810048" lon="34.865167">
        <ele>82.02</ele>
      </trkpt>
      <trkpt lat="31.809944" lon="34.866244">
        <ele>82.24</ele>
      </trkpt>
      <trkpt lat="31.809795" lon="34.867295">
        <ele>82.22</ele>
      </trkpt>
      <trkpt lat="31.809731" lon="34.867689">
        <ele>82.78</ele>
      </trkpt>
      <trkpt lat="31.809659" lon="34.868103">
        <ele>81.38</ele>
      </trkpt>
      <trkpt lat="31.809491" lon="34.868896">
        <ele>84.41</ele>
      </trkpt>
      <trkpt lat="31.80927" lon="34.86981">
        <ele>85.86</ele>
      </trkpt>
      <trkpt lat="31.809102" lon="34.870617">
        <ele>86.17</ele>
      </trkpt>
      <trkpt lat="31.808983" lon="34.871476">
        <ele>87.34</ele>
      </trkpt>
      <trkpt lat="31.808931" lon="34.872085">
        <ele>87.59</ele>
      </trkpt>
      <trkpt lat="31.808926" lon="34.872599">
        <ele>87.72</ele>
      </trkpt>
      <trkpt lat="31.809031" lon="34.875939">
        <ele>88.99</ele>
      </trkpt>
      <trkpt lat="31.809091" lon="34.876589">
        <ele>89.02</ele>
      </trkpt>
      <trkpt lat="31.809204" lon="34.877278">
        <ele>89.82</ele>
      </trkpt>
      <trkpt lat="31.809281" lon="34.87766">
        <ele>89.29</ele>
      </trkpt>
      <trkpt lat="31.809364" lon="34.878008">
        <ele>89</ele>
      </trkpt>
      <trkpt lat="31.809429" lon="34.878233">
        <ele>88.57</ele>
      </trkpt>
      <trkpt lat="31.809533" lon="34.87855">
        <ele>88.44</ele>
      </trkpt>
      <trkpt lat="31.809631" lon="34.878846">
        <ele>90</ele>
      </trkpt>
      <trkpt lat="31.809841" lon="34.879451">
        <ele>90.69</ele>
      </trkpt>
      <trkpt lat="31.809987" lon="34.879934">
        <ele>91</ele>
      </trkpt>
      <trkpt lat="31.810115" lon="34.880449">
        <ele>91.69</ele>
      </trkpt>
      <trkpt lat="31.810242" lon="34.881232">
        <ele>92</ele>
      </trkpt>
      <trkpt lat="31.810343" lon="34.88179">
        <ele>92.01</ele>
      </trkpt>
      <trkpt lat="31.810397" lon="34.88223">
        <ele>92.66</ele>
      </trkpt>
      <trkpt lat="31.810726" lon="34.885921">
        <ele>94.41</ele>
      </trkpt>
      <trkpt lat="31.810762" lon="34.886414">
        <ele>95</ele>
      </trkpt>
      <trkpt lat="31.81078" lon="34.886951">
        <ele>95</ele>
      </trkpt>
      <trkpt lat="31.810771" lon="34.88767">
        <ele>96</ele>
      </trkpt>
      <trkpt lat="31.810744" lon="34.888303">
        <ele>95</ele>
      </trkpt>
      <trkpt lat="31.810671" lon="34.889644">
        <ele>95</ele>
      </trkpt>
      <trkpt lat="31.810388" lon="34.893056">
        <ele>98</ele>
      </trkpt>
      <trkpt lat="31.810352" lon="34.893753">
        <ele>101.99</ele>
      </trkpt>
      <trkpt lat="31.810306" lon="34.894525">
        <ele>103.23</ele>
      </trkpt>
      <trkpt lat="31.810288" lon="34.894955">
        <ele>103.59</ele>
      </trkpt>
      <trkpt lat="31.810279" lon="34.895416">
        <ele>104.27</ele>
      </trkpt>
      <trkpt lat="31.810288" lon="34.89606">
        <ele>104.59</ele>
      </trkpt>
      <trkpt lat="31.810333" lon="34.896736">
        <ele>103.98</ele>
      </trkpt>
      <trkpt lat="31.810605" lon="34.898743">
        <ele>104.64</ele>
      </trkpt>
      <trkpt lat="31.810657" lon="34.899062">
        <ele>104.7</ele>
      </trkpt>
      <trkpt lat="31.810757" lon="34.899677">
        <ele>104.8</ele>
      </trkpt>
      <trkpt lat="31.810739" lon="34.899813">
        <ele>104.7</ele>
      </trkpt>
      <trkpt lat="31.810669" lon="34.89992">
        <ele>104.75</ele>
      </trkpt>
      <trkpt lat="31.810571" lon="34.899987">
        <ele>104.49</ele>
      </trkpt>
      <trkpt lat="31.810391" lon="34.899964">
        <ele>104</ele>
      </trkpt>
      <trkpt lat="31.809553" lon="34.899698">
        <ele>107.44</ele>
      </trkpt>
      <trkpt lat="31.809444" lon="34.899755">
        <ele>108.13</ele>
      </trkpt>
      <trkpt lat="31.809439" lon="34.899814">
        <ele>108.21</ele>
      </trkpt>
      <trkpt lat="31.809514" lon="34.900337">
        <ele>107.59</ele>
      </trkpt>
      <trkpt lat="31.809498" lon="34.9004">
        <ele>107.33</ele>
      </trkpt>
      <trkpt lat="31.809455" lon="34.900443">
        <ele>107.45</ele>
      </trkpt>
      <trkpt lat="31.809408" lon="34.90047">
        <ele>107.92</ele>
      </trkpt>
      <trkpt lat="31.80914" lon="34.900527">
        <ele>110.26</ele>
      </trkpt>
      <trkpt lat="31.80917" lon="34.900897">
        <ele>110.05</ele>
      </trkpt>
    </trkseg>
  </trk>
</gpx>
