<?xml version="1.0" encoding="UTF-8"?>
<gpx creator="https://gpx.studio" version="1.1" xmlns="http://www.topografix.com/GPX/1/1" xmlns:xsi="http://www.w3.org/2001/XMLSchema-instance" xsi:schemaLocation="http://www.topografix.com/GPX/1/1 http://www.topografix.com/GPX/1/1/gpx.xsd http://www.garmin.com/xmlschemas/GpxExtensions/v3 http://www.garmin.com/xmlschemas/GpxExtensionsv3.xsd http://www.garmin.com/xmlschemas/TrackPointExtension/v1 http://www.garmin.com/xmlschemas/TrackPointExtensionv1.xsd http://www.garmin.com/xmlschemas/PowerExtension/v1 http://www.garmin.com/xmlschemas/PowerExtensionv1.xsd http://www.topografix.com/GPX/gpx_style/0/2 http://www.topografix.com/GPX/gpx_style/0/2/gpx_style.xsd" xmlns:gpxtpx="http://www.garmin.com/xmlschemas/TrackPointExtension/v1" xmlns:gpxx="http://www.garmin.com/xmlschemas/GpxExtensions/v3" xmlns:gpxpx="http://www.garmin.com/xmlschemas/PowerExtension/v1" xmlns:gpx_style="http://www.topografix.com/GPX/gpx_style/0/2">
  <metadata>
    <name>New file 1</name>
    <author>
      <name>gpx.studio</name>
      <link href="https://gpx.studio"/>
    </author>
  </metadata>
  <trk>
    <name>New file 1</name>
    <trkseg>
      <trkpt lat="31.984365" lon="34.916517">
        <ele>50.11</ele>
      </trkpt>
      <trkpt lat="31.984139" lon="34.919092">
        <ele>52.85</ele>
      </trkpt>
      <trkpt lat="31.984136" lon="34.919463">
        <ele>52.87</ele>
      </trkpt>
      <trkpt lat="31.984162" lon="34.92006">
        <ele>53</ele>
      </trkpt>
      <trkpt lat="31.984211" lon="34.920469">
        <ele>53</ele>
      </trkpt>
      <trkpt lat="31.98428" lon="34.920864">
        <ele>53.45</ele>
      </trkpt>
      <trkpt lat="31.984403" lon="34.921484">
        <ele>55</ele>
      </trkpt>
      <trkpt lat="31.984875" lon="34.923245">
        <ele>57.24</ele>
      </trkpt>
      <trkpt lat="31.985348" lon="34.925006">
        <ele>62.23</ele>
      </trkpt>
      <trkpt lat="31.985428" lon="34.925372">
        <ele>63</ele>
      </trkpt>
      <trkpt lat="31.985465" lon="34.925759">
        <ele>63.94</ele>
      </trkpt>
      <trkpt lat="31.985473" lon="34.92614">
        <ele>65</ele>
      </trkpt>
      <trkpt lat="31.985448" lon="34.926556">
        <ele>65</ele>
      </trkpt>
      <trkpt lat="31.985421" lon="34.926855">
        <ele>65.02</ele>
      </trkpt>
      <trkpt lat="31.985391" lon="34.92714">
        <ele>65.27</ele>
      </trkpt>
      <trkpt lat="31.985347" lon="34.927447">
        <ele>65.57</ele>
      </trkpt>
      <trkpt lat="31.985126" lon="34.928727">
        <ele>64.83</ele>
      </trkpt>
      <trkpt lat="31.984739" lon="34.930968">
        <ele>58</ele>
      </trkpt>
      <trkpt lat="31.984077" lon="34.934741">
        <ele>61</ele>
      </trkpt>
      <trkpt lat="31.983802" lon="34.936304">
        <ele>60</ele>
      </trkpt>
      <trkpt lat="31.983637" lon="34.937241">
        <ele>61.9</ele>
      </trkpt>
      <trkpt lat="31.983319" lon="34.938985">
        <ele>62</ele>
      </trkpt>
      <trkpt lat="31.983239" lon="34.939428">
        <ele>62.99</ele>
      </trkpt>
      <trkpt lat="31.983" lon="34.940697">
        <ele>63.51</ele>
      </trkpt>
      <trkpt lat="31.982971" lon="34.940982">
        <ele>64</ele>
      </trkpt>
      <trkpt lat="31.982941" lon="34.94161">
        <ele>64</ele>
      </trkpt>
      <trkpt lat="31.982939" lon="34.942007">
        <ele>64</ele>
      </trkpt>
      <trkpt lat="31.982961" lon="34.942463">
        <ele>64</ele>
      </trkpt>
      <trkpt lat="31.983052" lon="34.94311">
        <ele>64.85</ele>
      </trkpt>
      <trkpt lat="31.983209" lon="34.94406">
        <ele>64</ele>
      </trkpt>
      <trkpt lat="31.983626" lon="34.946596">
        <ele>66</ele>
      </trkpt>
      <trkpt lat="31.984222" lon="34.950219">
        <ele>65</ele>
      </trkpt>
      <trkpt lat="31.984278" lon="34.950875">
        <ele>64.9</ele>
      </trkpt>
      <trkpt lat="31.98428" lon="34.951027">
        <ele>64.89</ele>
      </trkpt>
      <trkpt lat="31.984268" lon="34.951089">
        <ele>64.96</ele>
      </trkpt>
      <trkpt lat="31.984204" lon="34.951178">
        <ele>65</ele>
      </trkpt>
      <trkpt lat="31.984148" lon="34.951226">
        <ele>65</ele>
      </trkpt>
      <trkpt lat="31.983759" lon="34.951318">
        <ele>65.48</ele>
      </trkpt>
      <trkpt lat="31.983334" lon="34.951418">
        <ele>66</ele>
      </trkpt>
      <trkpt lat="31.983171" lon="34.951444">
        <ele>66.36</ele>
      </trkpt>
      <trkpt lat="31.983" lon="34.951461">
        <ele>66.4</ele>
      </trkpt>
      <trkpt lat="31.982499" lon="34.951476">
        <ele>66.51</ele>
      </trkpt>
      <trkpt lat="31.982225" lon="34.951472">
        <ele>66.57</ele>
      </trkpt>
      <trkpt lat="31.981991" lon="34.951453">
        <ele>66.62</ele>
      </trkpt>
      <trkpt lat="31.981752" lon="34.951418">
        <ele>66.67</ele>
      </trkpt>
      <trkpt lat="31.981589" lon="34.951379">
        <ele>66.71</ele>
      </trkpt>
      <trkpt lat="31.981334" lon="34.951298">
        <ele>66.76</ele>
      </trkpt>
      <trkpt lat="31.981134" lon="34.95122">
        <ele>66.81</ele>
      </trkpt>
      <trkpt lat="31.980905" lon="34.951115">
        <ele>66.86</ele>
      </trkpt>
      <trkpt lat="31.980693" lon="34.951004">
        <ele>66.91</ele>
      </trkpt>
      <trkpt lat="31.976632" lon="34.948628">
        <ele>67.94</ele>
      </trkpt>
      <trkpt lat="31.975613" lon="34.948016">
        <ele>68.3</ele>
      </trkpt>
      <trkpt lat="31.971782" lon="34.94587">
        <ele>71.05</ele>
      </trkpt>
      <trkpt lat="31.970977" lon="34.945449">
        <ele>71.62</ele>
      </trkpt>
      <trkpt lat="31.969517" lon="34.944754">
        <ele>72.64</ele>
      </trkpt>
      <trkpt lat="31.968967" lon="34.944523">
        <ele>73.01</ele>
      </trkpt>
      <trkpt lat="31.967852" lon="34.944085">
        <ele>75.94</ele>
      </trkpt>
      <trkpt lat="31.966751" lon="34.943621">
        <ele>77.79</ele>
      </trkpt>
      <trkpt lat="31.966182" lon="34.943339">
        <ele>78.13</ele>
      </trkpt>
      <trkpt lat="31.965754" lon="34.943078">
        <ele>78.61</ele>
      </trkpt>
      <trkpt lat="31.964805" lon="34.942409">
        <ele>78.08</ele>
      </trkpt>
      <trkpt lat="31.964538" lon="34.942247">
        <ele>78.77</ele>
      </trkpt>
      <trkpt lat="31.964079" lon="34.942026">
        <ele>79</ele>
      </trkpt>
      <trkpt lat="31.963939" lon="34.941975">
        <ele>79</ele>
      </trkpt>
      <trkpt lat="31.963697" lon="34.94191">
        <ele>79.78</ele>
      </trkpt>
      <trkpt lat="31.963393" lon="34.941865">
        <ele>80</ele>
      </trkpt>
      <trkpt lat="31.963289" lon="34.941861">
        <ele>80</ele>
      </trkpt>
      <trkpt lat="31.962952" lon="34.94186">
        <ele>80.97</ele>
      </trkpt>
      <trkpt lat="31.962661" lon="34.941872">
        <ele>80.06</ele>
      </trkpt>
      <trkpt lat="31.962376" lon="34.941886">
        <ele>83.01</ele>
      </trkpt>
      <trkpt lat="31.961522" lon="34.941928">
        <ele>85.14</ele>
      </trkpt>
      <trkpt lat="31.961237" lon="34.941943">
        <ele>83.18</ele>
      </trkpt>
      <trkpt lat="31.959799" lon="34.941983">
        <ele>84.4</ele>
      </trkpt>
      <trkpt lat="31.95869" lon="34.942012">
        <ele>87.16</ele>
      </trkpt>
      <trkpt lat="31.95816" lon="34.941996">
        <ele>91.19</ele>
      </trkpt>
      <trkpt lat="31.957978" lon="34.941968">
        <ele>91.03</ele>
      </trkpt>
      <trkpt lat="31.957788" lon="34.941931">
        <ele>88.61</ele>
      </trkpt>
      <trkpt lat="31.957561" lon="34.941848">
        <ele>89</ele>
      </trkpt>
      <trkpt lat="31.957238" lon="34.941694">
        <ele>89.12</ele>
      </trkpt>
      <trkpt lat="31.957094" lon="34.941615">
        <ele>89.1</ele>
      </trkpt>
      <trkpt lat="31.956758" lon="34.941409">
        <ele>90.97</ele>
      </trkpt>
      <trkpt lat="31.956538" lon="34.941248">
        <ele>92.98</ele>
      </trkpt>
      <trkpt lat="31.955102" lon="34.940188">
        <ele>96.35</ele>
      </trkpt>
      <trkpt lat="31.954795" lon="34.939898">
        <ele>95.96</ele>
      </trkpt>
      <trkpt lat="31.95453" lon="34.939615">
        <ele>95.9</ele>
      </trkpt>
      <trkpt lat="31.954325" lon="34.939342">
        <ele>97.29</ele>
      </trkpt>
      <trkpt lat="31.954194" lon="34.939288">
        <ele>98.5</ele>
      </trkpt>
      <trkpt lat="31.953673" lon="34.939776">
        <ele>98.38</ele>
      </trkpt>
      <trkpt lat="31.953354" lon="34.940058">
        <ele>99.89</ele>
      </trkpt>
      <trkpt lat="31.953272" lon="34.940135">
        <ele>100.5</ele>
      </trkpt>
      <trkpt lat="31.953106" lon="34.940326">
        <ele>101</ele>
      </trkpt>
      <trkpt lat="31.952845" lon="34.940665">
        <ele>103.34</ele>
      </trkpt>
      <trkpt lat="31.952767" lon="34.940765">
        <ele>104.04</ele>
      </trkpt>
      <trkpt lat="31.952619" lon="34.940996">
        <ele>106.44</ele>
      </trkpt>
      <trkpt lat="31.952508" lon="34.941202">
        <ele>107.51</ele>
      </trkpt>
      <trkpt lat="31.952382" lon="34.941464">
        <ele>108.73</ele>
      </trkpt>
      <trkpt lat="31.952254" lon="34.941805">
        <ele>110.54</ele>
      </trkpt>
      <trkpt lat="31.952153" lon="34.942163">
        <ele>111.5</ele>
      </trkpt>
      <trkpt lat="31.952081" lon="34.942528">
        <ele>114.08</ele>
      </trkpt>
      <trkpt lat="31.952004" lon="34.94301">
        <ele>117.07</ele>
      </trkpt>
      <trkpt lat="31.951979" lon="34.943395">
        <ele>119.19</ele>
      </trkpt>
      <trkpt lat="31.951976" lon="34.943751">
        <ele>120.1</ele>
      </trkpt>
      <trkpt lat="31.952173" lon="34.945756">
        <ele>129.35</ele>
      </trkpt>
      <trkpt lat="31.952246" lon="34.946465">
        <ele>134.13</ele>
      </trkpt>
      <trkpt lat="31.952288" lon="34.946986">
        <ele>136.46</ele>
      </trkpt>
      <trkpt lat="31.952312" lon="34.947748">
        <ele>139.71</ele>
      </trkpt>
      <trkpt lat="31.95231" lon="34.948247">
        <ele>141.65</ele>
      </trkpt>
      <trkpt lat="31.952294" lon="34.948623">
        <ele>142.94</ele>
      </trkpt>
      <trkpt lat="31.952168" lon="34.950236">
        <ele>149.22</ele>
      </trkpt>
      <trkpt lat="31.952087" lon="34.951172">
        <ele>150.97</ele>
      </trkpt>
      <trkpt lat="31.952049" lon="34.951921">
        <ele>153.24</ele>
      </trkpt>
      <trkpt lat="31.952002" lon="34.953393">
        <ele>157.96</ele>
      </trkpt>
      <trkpt lat="31.951969" lon="34.954243">
        <ele>157.57</ele>
      </trkpt>
      <trkpt lat="31.951951" lon="34.954726">
        <ele>162.44</ele>
      </trkpt>
      <trkpt lat="31.951941" lon="34.954927">
        <ele>162.52</ele>
      </trkpt>
      <trkpt lat="31.951893" lon="34.955459">
        <ele>162.94</ele>
      </trkpt>
      <trkpt lat="31.951857" lon="34.955652">
        <ele>163.71</ele>
      </trkpt>
      <trkpt lat="31.951684" lon="34.956387">
        <ele>165</ele>
      </trkpt>
      <trkpt lat="31.951461" lon="34.957077">
        <ele>166.81</ele>
      </trkpt>
      <trkpt lat="31.95132" lon="34.957445">
        <ele>167.77</ele>
      </trkpt>
      <trkpt lat="31.951128" lon="34.957905">
        <ele>169</ele>
      </trkpt>
      <trkpt lat="31.951026" lon="34.958127">
        <ele>169</ele>
      </trkpt>
      <trkpt lat="31.949952" lon="34.960025">
        <ele>163.12</ele>
      </trkpt>
      <trkpt lat="31.94888" lon="34.961924">
        <ele>163.31</ele>
      </trkpt>
      <trkpt lat="31.947703" lon="34.963946">
        <ele>162.66</ele>
      </trkpt>
      <trkpt lat="31.947131" lon="34.964877">
        <ele>162</ele>
      </trkpt>
      <trkpt lat="31.946759" lon="34.965541">
        <ele>163</ele>
      </trkpt>
      <trkpt lat="31.946554" lon="34.965945">
        <ele>163.75</ele>
      </trkpt>
      <trkpt lat="31.946287" lon="34.966794">
        <ele>168.13</ele>
      </trkpt>
      <trkpt lat="31.946153" lon="34.967623">
        <ele>172.14</ele>
      </trkpt>
      <trkpt lat="31.946089" lon="34.968407">
        <ele>176.26</ele>
      </trkpt>
      <trkpt lat="31.945969" lon="34.970334">
        <ele>184.03</ele>
      </trkpt>
      <trkpt lat="31.945887" lon="34.971392">
        <ele>187.99</ele>
      </trkpt>
      <trkpt lat="31.945495" lon="34.972785">
        <ele>189</ele>
      </trkpt>
      <trkpt lat="31.945333" lon="34.973358">
        <ele>187.55</ele>
      </trkpt>
      <trkpt lat="31.944915" lon="34.97483">
        <ele>193.34</ele>
      </trkpt>
      <trkpt lat="31.944664" lon="34.975713">
        <ele>194</ele>
      </trkpt>
      <trkpt lat="31.944427" lon="34.976437">
        <ele>193</ele>
      </trkpt>
      <trkpt lat="31.944063" lon="34.977295">
        <ele>189.51</ele>
      </trkpt>
      <trkpt lat="31.943717" lon="34.977859">
        <ele>187.98</ele>
      </trkpt>
      <trkpt lat="31.943235" lon="34.978454">
        <ele>185.12</ele>
      </trkpt>
      <trkpt lat="31.942052" lon="34.979431">
        <ele>191.97</ele>
      </trkpt>
      <trkpt lat="31.940635" lon="34.980546">
        <ele>203.99</ele>
      </trkpt>
      <trkpt lat="31.940239" lon="34.980933">
        <ele>205.48</ele>
      </trkpt>
      <trkpt lat="31.939171" lon="34.982231">
        <ele>208.24</ele>
      </trkpt>
      <trkpt lat="31.938637" lon="34.98288">
        <ele>207.33</ele>
      </trkpt>
      <trkpt lat="31.937927" lon="34.983869">
        <ele>206</ele>
      </trkpt>
      <trkpt lat="31.937722" lon="34.984334">
        <ele>206</ele>
      </trkpt>
      <trkpt lat="31.937572" lon="34.984862">
        <ele>206.51</ele>
      </trkpt>
      <trkpt lat="31.937185" lon="34.986691">
        <ele>211</ele>
      </trkpt>
      <trkpt lat="31.937061" lon="34.987235">
        <ele>211.69</ele>
      </trkpt>
      <trkpt lat="31.936944" lon="34.987643">
        <ele>212.19</ele>
      </trkpt>
      <trkpt lat="31.936881" lon="34.98781">
        <ele>212.9</ele>
      </trkpt>
      <trkpt lat="31.936708" lon="34.988222">
        <ele>213.26</ele>
      </trkpt>
      <trkpt lat="31.936566" lon="34.988481">
        <ele>214.73</ele>
      </trkpt>
      <trkpt lat="31.936261" lon="34.988971">
        <ele>216.48</ele>
      </trkpt>
      <trkpt lat="31.935977" lon="34.989298">
        <ele>217.37</ele>
      </trkpt>
      <trkpt lat="31.935799" lon="34.989462">
        <ele>219.29</ele>
      </trkpt>
      <trkpt lat="31.935378" lon="34.989789">
        <ele>220.38</ele>
      </trkpt>
      <trkpt lat="31.935017" lon="34.989966">
        <ele>221.81</ele>
      </trkpt>
      <trkpt lat="31.933995" lon="34.990291">
        <ele>223.16</ele>
      </trkpt>
      <trkpt lat="31.932974" lon="34.990615">
        <ele>221.52</ele>
      </trkpt>
      <trkpt lat="31.932054" lon="34.991065">
        <ele>220.14</ele>
      </trkpt>
      <trkpt lat="31.931328" lon="34.991561">
        <ele>219.49</ele>
      </trkpt>
      <trkpt lat="31.929151" lon="34.993049">
        <ele>229.63</ele>
      </trkpt>
      <trkpt lat="31.928322" lon="34.993844">
        <ele>231.43</ele>
      </trkpt>
      <trkpt lat="31.927824" lon="34.994553">
        <ele>231.03</ele>
      </trkpt>
      <trkpt lat="31.927639" lon="34.994857">
        <ele>229.95</ele>
      </trkpt>
      <trkpt lat="31.92732" lon="34.995747">
        <ele>226.56</ele>
      </trkpt>
      <trkpt lat="31.926708" lon="34.997562">
        <ele>222.98</ele>
      </trkpt>
      <trkpt lat="31.926117" lon="34.999189">
        <ele>225.93</ele>
      </trkpt>
      <trkpt lat="31.925664" lon="35.000446">
        <ele>230.01</ele>
      </trkpt>
      <trkpt lat="31.925231" lon="35.001456">
        <ele>231.01</ele>
      </trkpt>
      <trkpt lat="31.925051" lon="35.001819">
        <ele>230.35</ele>
      </trkpt>
      <trkpt lat="31.924703" lon="35.002403">
        <ele>231.53</ele>
      </trkpt>
      <trkpt lat="31.924078" lon="35.003226">
        <ele>232.13</ele>
      </trkpt>
      <trkpt lat="31.923339" lon="35.004172">
        <ele>234</ele>
      </trkpt>
      <trkpt lat="31.922687" lon="35.004958">
        <ele>235.36</ele>
      </trkpt>
      <trkpt lat="31.922211" lon="35.005584">
        <ele>238</ele>
      </trkpt>
      <trkpt lat="31.921373" lon="35.006775">
        <ele>238.06</ele>
      </trkpt>
      <trkpt lat="31.920801" lon="35.007622">
        <ele>238</ele>
      </trkpt>
      <trkpt lat="31.91979" lon="35.009129">
        <ele>234.07</ele>
      </trkpt>
      <trkpt lat="31.918945" lon="35.010478">
        <ele>233.33</ele>
      </trkpt>
      <trkpt lat="31.917368" lon="35.012951">
        <ele>246.28</ele>
      </trkpt>
      <trkpt lat="31.917005" lon="35.013472">
        <ele>249.78</ele>
      </trkpt>
      <trkpt lat="31.916745" lon="35.013803">
        <ele>250.75</ele>
      </trkpt>
      <trkpt lat="31.916185" lon="35.014428">
        <ele>255.65</ele>
      </trkpt>
      <trkpt lat="31.915752" lon="35.014825">
        <ele>258.86</ele>
      </trkpt>
      <trkpt lat="31.915272" lon="35.015206">
        <ele>262.05</ele>
      </trkpt>
      <trkpt lat="31.914848" lon="35.015509">
        <ele>264.08</ele>
      </trkpt>
      <trkpt lat="31.914404" lon="35.015775">
        <ele>266</ele>
      </trkpt>
      <trkpt lat="31.914041" lon="35.015963">
        <ele>267.16</ele>
      </trkpt>
      <trkpt lat="31.913421" lon="35.01622">
        <ele>268.92</ele>
      </trkpt>
      <trkpt lat="31.91237" lon="35.016581">
        <ele>272.96</ele>
      </trkpt>
      <trkpt lat="31.91146" lon="35.016899">
        <ele>274.84</ele>
      </trkpt>
      <trkpt lat="31.911191" lon="35.016997">
        <ele>275</ele>
      </trkpt>
      <trkpt lat="31.910604" lon="35.01718">
        <ele>278.28</ele>
      </trkpt>
      <trkpt lat="31.909909" lon="35.017396">
        <ele>281.14</ele>
      </trkpt>
      <trkpt lat="31.909496" lon="35.017573">
        <ele>281.16</ele>
      </trkpt>
      <trkpt lat="31.909205" lon="35.01773">
        <ele>281.9</ele>
      </trkpt>
      <trkpt lat="31.908982" lon="35.017851">
        <ele>282.47</ele>
      </trkpt>
      <trkpt lat="31.908566" lon="35.018109">
        <ele>282.44</ele>
      </trkpt>
      <trkpt lat="31.908129" lon="35.018411">
        <ele>281.35</ele>
      </trkpt>
      <trkpt lat="31.907561" lon="35.018847">
        <ele>280.47</ele>
      </trkpt>
      <trkpt lat="31.906966" lon="35.019362">
        <ele>279.28</ele>
      </trkpt>
      <trkpt lat="31.906484" lon="35.019851">
        <ele>277.87</ele>
      </trkpt>
      <trkpt lat="31.906046" lon="35.020366">
        <ele>276.94</ele>
      </trkpt>
      <trkpt lat="31.905751" lon="35.020823">
        <ele>275.96</ele>
      </trkpt>
      <trkpt lat="31.905262" lon="35.021634">
        <ele>275.76</ele>
      </trkpt>
      <trkpt lat="31.90428" lon="35.023436">
        <ele>273.23</ele>
      </trkpt>
      <trkpt lat="31.902937" lon="35.026031">
        <ele>266.29</ele>
      </trkpt>
      <trkpt lat="31.902763" lon="35.026232">
        <ele>266</ele>
      </trkpt>
      <trkpt lat="31.90269" lon="35.026281">
        <ele>266</ele>
      </trkpt>
      <trkpt lat="31.902609" lon="35.026299">
        <ele>265.54</ele>
      </trkpt>
      <trkpt lat="31.902418" lon="35.026301">
        <ele>264.23</ele>
      </trkpt>
      <trkpt lat="31.902265" lon="35.026293">
        <ele>263.66</ele>
      </trkpt>
      <trkpt lat="31.899946" lon="35.025954">
        <ele>262.55</ele>
      </trkpt>
      <trkpt lat="31.898861" lon="35.025793">
        <ele>260.42</ele>
      </trkpt>
      <trkpt lat="31.89791" lon="35.025687">
        <ele>258</ele>
      </trkpt>
      <trkpt lat="31.896813" lon="35.025511">
        <ele>255.25</ele>
      </trkpt>
      <trkpt lat="31.896186" lon="35.025392">
        <ele>254.27</ele>
      </trkpt>
      <trkpt lat="31.895757" lon="35.025287">
        <ele>252.47</ele>
      </trkpt>
      <trkpt lat="31.894523" lon="35.024936">
        <ele>249</ele>
      </trkpt>
      <trkpt lat="31.893737" lon="35.024725">
        <ele>249.76</ele>
      </trkpt>
      <trkpt lat="31.893413" lon="35.024651">
        <ele>250.5</ele>
      </trkpt>
      <trkpt lat="31.891926" lon="35.024392">
        <ele>255.86</ele>
      </trkpt>
      <trkpt lat="31.891396" lon="35.024326">
        <ele>257.02</ele>
      </trkpt>
      <trkpt lat="31.891144" lon="35.024315">
        <ele>258.05</ele>
      </trkpt>
      <trkpt lat="31.890328" lon="35.024306">
        <ele>259.69</ele>
      </trkpt>
      <trkpt lat="31.889587" lon="35.02435">
        <ele>260.87</ele>
      </trkpt>
      <trkpt lat="31.889182" lon="35.024382">
        <ele>261</ele>
      </trkpt>
      <trkpt lat="31.88905" lon="35.024382">
        <ele>261</ele>
      </trkpt>
      <trkpt lat="31.888968" lon="35.024371">
        <ele>261</ele>
      </trkpt>
      <trkpt lat="31.888838" lon="35.02433">
        <ele>261</ele>
      </trkpt>
      <trkpt lat="31.888807" lon="35.02429">
        <ele>261.22</ele>
      </trkpt>
      <trkpt lat="31.888768" lon="35.02426">
        <ele>261.4</ele>
      </trkpt>
      <trkpt lat="31.888721" lon="35.024242">
        <ele>261.5</ele>
      </trkpt>
      <trkpt lat="31.888671" lon="35.02424">
        <ele>261.51</ele>
      </trkpt>
      <trkpt lat="31.888622" lon="35.024254">
        <ele>261.43</ele>
      </trkpt>
      <trkpt lat="31.888579" lon="35.024283">
        <ele>261.26</ele>
      </trkpt>
      <trkpt lat="31.888474" lon="35.024324">
        <ele>261.02</ele>
      </trkpt>
      <trkpt lat="31.888411" lon="35.024332">
        <ele>261</ele>
      </trkpt>
      <trkpt lat="31.887463" lon="35.024303">
        <ele>262.18</ele>
      </trkpt>
      <trkpt lat="31.886955" lon="35.024321">
        <ele>263.04</ele>
      </trkpt>
      <trkpt lat="31.886591" lon="35.024378">
        <ele>263.11</ele>
      </trkpt>
      <trkpt lat="31.885858" lon="35.024552">
        <ele>263</ele>
      </trkpt>
      <trkpt lat="31.885756" lon="35.024561">
        <ele>263</ele>
      </trkpt>
      <trkpt lat="31.885675" lon="35.024547">
        <ele>263</ele>
      </trkpt>
      <trkpt lat="31.885557" lon="35.024495">
        <ele>263.23</ele>
      </trkpt>
      <trkpt lat="31.885519" lon="35.024467">
        <ele>263.49</ele>
      </trkpt>
      <trkpt lat="31.885482" lon="35.024456">
        <ele>263.74</ele>
      </trkpt>
      <trkpt lat="31.885437" lon="35.024458">
        <ele>264</ele>
      </trkpt>
      <trkpt lat="31.885395" lon="35.024478">
        <ele>264</ele>
      </trkpt>
      <trkpt lat="31.885356" lon="35.02452">
        <ele>263.89</ele>
      </trkpt>
      <trkpt lat="31.885348" lon="35.024538">
        <ele>263.78</ele>
      </trkpt>
      <trkpt lat="31.885275" lon="35.024598">
        <ele>263.43</ele>
      </trkpt>
      <trkpt lat="31.885222" lon="35.024624">
        <ele>263.28</ele>
      </trkpt>
      <trkpt lat="31.884635" lon="35.024745">
        <ele>265.31</ele>
      </trkpt>
      <trkpt lat="31.883926" lon="35.024908">
        <ele>268.4</ele>
      </trkpt>
      <trkpt lat="31.883689" lon="35.024951">
        <ele>270.03</ele>
      </trkpt>
      <trkpt lat="31.883507" lon="35.024972">
        <ele>272.08</ele>
      </trkpt>
      <trkpt lat="31.883138" lon="35.024961">
        <ele>275.73</ele>
      </trkpt>
      <trkpt lat="31.882963" lon="35.024933">
        <ele>277.98</ele>
      </trkpt>
      <trkpt lat="31.882746" lon="35.024881">
        <ele>278.1</ele>
      </trkpt>
      <trkpt lat="31.882541" lon="35.024806">
        <ele>278</ele>
      </trkpt>
      <trkpt lat="31.882271" lon="35.024675">
        <ele>278.74</ele>
      </trkpt>
      <trkpt lat="31.882056" lon="35.024541">
        <ele>279</ele>
      </trkpt>
      <trkpt lat="31.881917" lon="35.024436">
        <ele>278.94</ele>
      </trkpt>
      <trkpt lat="31.881762" lon="35.024285">
        <ele>277.33</ele>
      </trkpt>
      <trkpt lat="31.881553" lon="35.024012">
        <ele>273.41</ele>
      </trkpt>
      <trkpt lat="31.881425" lon="35.023803">
        <ele>272.51</ele>
      </trkpt>
      <trkpt lat="31.881323" lon="35.023597">
        <ele>271.81</ele>
      </trkpt>
      <trkpt lat="31.881232" lon="35.023361">
        <ele>271.41</ele>
      </trkpt>
      <trkpt lat="31.880947" lon="35.022275">
        <ele>269.57</ele>
      </trkpt>
      <trkpt lat="31.880795" lon="35.02169">
        <ele>266.5</ele>
      </trkpt>
      <trkpt lat="31.880568" lon="35.020812">
        <ele>265.22</ele>
      </trkpt>
      <trkpt lat="31.880265" lon="35.019641">
        <ele>260.88</ele>
      </trkpt>
      <trkpt lat="31.880252" lon="35.019567">
        <ele>260.63</ele>
      </trkpt>
      <trkpt lat="31.880259" lon="35.019398">
        <ele>259.83</ele>
      </trkpt>
      <trkpt lat="31.880267" lon="35.019362">
        <ele>259.68</ele>
      </trkpt>
      <trkpt lat="31.880256" lon="35.019293">
        <ele>259.48</ele>
      </trkpt>
      <trkpt lat="31.880219" lon="35.019244">
        <ele>259.22</ele>
      </trkpt>
      <trkpt lat="31.880185" lon="35.019227">
        <ele>259.01</ele>
      </trkpt>
      <trkpt lat="31.880138" lon="35.019185">
        <ele>259.03</ele>
      </trkpt>
      <trkpt lat="31.880061" lon="35.019079">
        <ele>258.48</ele>
      </trkpt>
      <trkpt lat="31.879865" lon="35.01869">
        <ele>257.42</ele>
      </trkpt>
      <trkpt lat="31.879821" lon="35.018564">
        <ele>256.98</ele>
      </trkpt>
      <trkpt lat="31.879812" lon="35.018387">
        <ele>256.03</ele>
      </trkpt>
      <trkpt lat="31.879814" lon="35.018329">
        <ele>255.67</ele>
      </trkpt>
      <trkpt lat="31.879828" lon="35.018268">
        <ele>255.45</ele>
      </trkpt>
      <trkpt lat="31.879881" lon="35.018142">
        <ele>255.09</ele>
      </trkpt>
      <trkpt lat="31.879932" lon="35.018059">
        <ele>255.48</ele>
      </trkpt>
      <trkpt lat="31.880004" lon="35.017952">
        <ele>256.21</ele>
      </trkpt>
      <trkpt lat="31.880106" lon="35.017826">
        <ele>258.05</ele>
      </trkpt>
      <trkpt lat="31.880266" lon="35.017601">
        <ele>259.03</ele>
      </trkpt>
      <trkpt lat="31.880329" lon="35.017488">
        <ele>258.81</ele>
      </trkpt>
      <trkpt lat="31.88043" lon="35.017236">
        <ele>259.01</ele>
      </trkpt>
      <trkpt lat="31.880693" lon="35.016308">
        <ele>252.78</ele>
      </trkpt>
      <trkpt lat="31.880842" lon="35.015752">
        <ele>251.02</ele>
      </trkpt>
      <trkpt lat="31.880992" lon="35.015197">
        <ele>252.08</ele>
      </trkpt>
      <trkpt lat="31.881057" lon="35.014841">
        <ele>251.26</ele>
      </trkpt>
      <trkpt lat="31.881096" lon="35.014557">
        <ele>249.88</ele>
      </trkpt>
      <trkpt lat="31.881096" lon="35.014289">
        <ele>249.66</ele>
      </trkpt>
      <trkpt lat="31.881061" lon="35.013862">
        <ele>250.08</ele>
      </trkpt>
      <trkpt lat="31.881005" lon="35.013527">
        <ele>249.37</ele>
      </trkpt>
      <trkpt lat="31.880941" lon="35.013302">
        <ele>248.87</ele>
      </trkpt>
      <trkpt lat="31.880866" lon="35.013143">
        <ele>248.27</ele>
      </trkpt>
      <trkpt lat="31.880686" lon="35.012819">
        <ele>245.06</ele>
      </trkpt>
      <trkpt lat="31.880412" lon="35.012476">
        <ele>241.82</ele>
      </trkpt>
      <trkpt lat="31.880121" lon="35.01224">
        <ele>240.82</ele>
      </trkpt>
      <trkpt lat="31.879939" lon="35.012111">
        <ele>239.26</ele>
      </trkpt>
      <trkpt lat="31.879592" lon="35.011929">
        <ele>237.71</ele>
      </trkpt>
      <trkpt lat="31.879319" lon="35.011832">
        <ele>237.34</ele>
      </trkpt>
      <trkpt lat="31.87855" lon="35.011666">
        <ele>236.14</ele>
      </trkpt>
      <trkpt lat="31.878075" lon="35.011566">
        <ele>231.57</ele>
      </trkpt>
      <trkpt lat="31.877929" lon="35.01155">
        <ele>229.63</ele>
      </trkpt>
      <trkpt lat="31.877844" lon="35.011531">
        <ele>228.65</ele>
      </trkpt>
      <trkpt lat="31.877747" lon="35.011483">
        <ele>229.51</ele>
      </trkpt>
      <trkpt lat="31.877681" lon="35.011423">
        <ele>230.47</ele>
      </trkpt>
      <trkpt lat="31.877595" lon="35.011328">
        <ele>232.23</ele>
      </trkpt>
      <trkpt lat="31.877557" lon="35.01126">
        <ele>236.03</ele>
      </trkpt>
      <trkpt lat="31.877501" lon="35.011083">
        <ele>236.16</ele>
      </trkpt>
      <trkpt lat="31.87746" lon="35.010927">
        <ele>235.19</ele>
      </trkpt>
      <trkpt lat="31.877347" lon="35.0106">
        <ele>232.92</ele>
      </trkpt>
      <trkpt lat="31.877104" lon="35.010005">
        <ele>230.78</ele>
      </trkpt>
      <trkpt lat="31.876999" lon="35.009702">
        <ele>228.57</ele>
      </trkpt>
      <trkpt lat="31.876892" lon="35.009334">
        <ele>227.1</ele>
      </trkpt>
      <trkpt lat="31.876824" lon="35.008953">
        <ele>231.42</ele>
      </trkpt>
      <trkpt lat="31.876806" lon="35.008745">
        <ele>232.9</ele>
      </trkpt>
      <trkpt lat="31.876785" lon="35.008385">
        <ele>233.86</ele>
      </trkpt>
      <trkpt lat="31.876785" lon="35.008267">
        <ele>233.48</ele>
      </trkpt>
      <trkpt lat="31.876808" lon="35.007904">
        <ele>231.4</ele>
      </trkpt>
      <trkpt lat="31.876861" lon="35.007532">
        <ele>227.44</ele>
      </trkpt>
      <trkpt lat="31.876899" lon="35.007338">
        <ele>224.86</ele>
      </trkpt>
      <trkpt lat="31.876943" lon="35.007167">
        <ele>222.86</ele>
      </trkpt>
      <trkpt lat="31.876997" lon="35.006971">
        <ele>222.59</ele>
      </trkpt>
      <trkpt lat="31.877061" lon="35.006786">
        <ele>222.79</ele>
      </trkpt>
      <trkpt lat="31.877127" lon="35.006601">
        <ele>224.98</ele>
      </trkpt>
      <trkpt lat="31.8772" lon="35.006429">
        <ele>226.09</ele>
      </trkpt>
      <trkpt lat="31.87738" lon="35.006072">
        <ele>227.61</ele>
      </trkpt>
      <trkpt lat="31.877478" lon="35.005909">
        <ele>228.01</ele>
      </trkpt>
      <trkpt lat="31.877585" lon="35.005743">
        <ele>222.43</ele>
      </trkpt>
      <trkpt lat="31.877776" lon="35.005464">
        <ele>222.21</ele>
      </trkpt>
      <trkpt lat="31.878101" lon="35.005029">
        <ele>218.46</ele>
      </trkpt>
      <trkpt lat="31.878784" lon="35.004112">
        <ele>219.9</ele>
      </trkpt>
      <trkpt lat="31.879125" lon="35.003654">
        <ele>217.01</ele>
      </trkpt>
      <trkpt lat="31.879558" lon="35.003056">
        <ele>210.61</ele>
      </trkpt>
      <trkpt lat="31.879662" lon="35.002861">
        <ele>209.67</ele>
      </trkpt>
      <trkpt lat="31.879723" lon="35.002724">
        <ele>209.18</ele>
      </trkpt>
      <trkpt lat="31.879767" lon="35.0026">
        <ele>208.67</ele>
      </trkpt>
      <trkpt lat="31.879812" lon="35.002415">
        <ele>207.82</ele>
      </trkpt>
      <trkpt lat="31.879845" lon="35.002238">
        <ele>207.34</ele>
      </trkpt>
      <trkpt lat="31.879967" lon="35.001873">
        <ele>206.23</ele>
      </trkpt>
      <trkpt lat="31.879986" lon="35.001856">
        <ele>205.97</ele>
      </trkpt>
      <trkpt lat="31.880212" lon="35.001857">
        <ele>207.07</ele>
      </trkpt>
      <trkpt lat="31.880604" lon="35.001877">
        <ele>212.65</ele>
      </trkpt>
      <trkpt lat="31.880679" lon="35.001904">
        <ele>213.98</ele>
      </trkpt>
      <trkpt lat="31.88071" lon="35.001922">
        <ele>214.58</ele>
      </trkpt>
      <trkpt lat="31.880743" lon="35.001927">
        <ele>215.24</ele>
      </trkpt>
      <trkpt lat="31.880777" lon="35.00192">
        <ele>215.83</ele>
      </trkpt>
      <trkpt lat="31.880807" lon="35.0019">
        <ele>216.34</ele>
      </trkpt>
      <trkpt lat="31.88083" lon="35.001869">
        <ele>216.64</ele>
      </trkpt>
      <trkpt lat="31.880844" lon="35.001831">
        <ele>216.69</ele>
      </trkpt>
      <trkpt lat="31.880846" lon="35.00179">
        <ele>216.54</ele>
      </trkpt>
      <trkpt lat="31.880826" lon="35.001729">
        <ele>216.13</ele>
      </trkpt>
      <trkpt lat="31.880783" lon="35.001689">
        <ele>215.25</ele>
      </trkpt>
      <trkpt lat="31.880737" lon="35.001623">
        <ele>214.54</ele>
      </trkpt>
      <trkpt lat="31.88071" lon="35.001569">
        <ele>214.35</ele>
      </trkpt>
      <trkpt lat="31.88068" lon="35.001478">
        <ele>214.08</ele>
      </trkpt>
      <trkpt lat="31.880351" lon="35.000115">
        <ele>203.47</ele>
      </trkpt>
      <trkpt lat="31.880277" lon="34.999804">
        <ele>202.85</ele>
      </trkpt>
      <trkpt lat="31.880218" lon="34.99952">
        <ele>202.88</ele>
      </trkpt>
      <trkpt lat="31.880188" lon="34.999252">
        <ele>203.03</ele>
      </trkpt>
      <trkpt lat="31.880189" lon="34.999005">
        <ele>204.05</ele>
      </trkpt>
      <trkpt lat="31.8802" lon="34.998866">
        <ele>204.18</ele>
      </trkpt>
      <trkpt lat="31.88023" lon="34.998593">
        <ele>203.78</ele>
      </trkpt>
      <trkpt lat="31.880321" lon="34.9984">
        <ele>203.92</ele>
      </trkpt>
      <trkpt lat="31.880379" lon="34.998355">
        <ele>204.32</ele>
      </trkpt>
      <trkpt lat="31.880478" lon="34.99831">
        <ele>204.99</ele>
      </trkpt>
      <trkpt lat="31.880615" lon="34.998272">
        <ele>205</ele>
      </trkpt>
      <trkpt lat="31.880892" lon="34.998267">
        <ele>206.83</ele>
      </trkpt>
      <trkpt lat="31.88107" lon="34.998245">
        <ele>207.68</ele>
      </trkpt>
      <trkpt lat="31.881225" lon="34.998202">
        <ele>208.89</ele>
      </trkpt>
      <trkpt lat="31.881517" lon="34.998084">
        <ele>211.06</ele>
      </trkpt>
      <trkpt lat="31.881671" lon="34.997998">
        <ele>212.25</ele>
      </trkpt>
      <trkpt lat="31.881942" lon="34.997802">
        <ele>215.02</ele>
      </trkpt>
      <trkpt lat="31.882646" lon="34.997237">
        <ele>221.07</ele>
      </trkpt>
      <trkpt lat="31.883039" lon="34.996932">
        <ele>224.53</ele>
      </trkpt>
      <trkpt lat="31.883282" lon="34.996778">
        <ele>225.19</ele>
      </trkpt>
      <trkpt lat="31.883398" lon="34.996725">
        <ele>225.99</ele>
      </trkpt>
      <trkpt lat="31.883529" lon="34.99668">
        <ele>227.11</ele>
      </trkpt>
      <trkpt lat="31.883726" lon="34.996629">
        <ele>228</ele>
      </trkpt>
      <trkpt lat="31.884046" lon="34.996604">
        <ele>229.35</ele>
      </trkpt>
      <trkpt lat="31.884211" lon="34.996609">
        <ele>229.93</ele>
      </trkpt>
      <trkpt lat="31.884361" lon="34.996624">
        <ele>230.58</ele>
      </trkpt>
      <trkpt lat="31.884522" lon="34.996655">
        <ele>231.68</ele>
      </trkpt>
      <trkpt lat="31.884678" lon="34.996696">
        <ele>232</ele>
      </trkpt>
      <trkpt lat="31.884811" lon="34.996741">
        <ele>232.26</ele>
      </trkpt>
      <trkpt lat="31.885043" lon="34.996847">
        <ele>233.25</ele>
      </trkpt>
      <trkpt lat="31.885179" lon="34.996933">
        <ele>234.18</ele>
      </trkpt>
      <trkpt lat="31.885349" lon="34.997056">
        <ele>235.06</ele>
      </trkpt>
      <trkpt lat="31.885473" lon="34.997161">
        <ele>235.96</ele>
      </trkpt>
      <trkpt lat="31.885606" lon="34.997297">
        <ele>236.1</ele>
      </trkpt>
      <trkpt lat="31.885721" lon="34.997439">
        <ele>236.9</ele>
      </trkpt>
      <trkpt lat="31.885866" lon="34.997645">
        <ele>238.65</ele>
      </trkpt>
      <trkpt lat="31.886169" lon="34.99817">
        <ele>241.04</ele>
      </trkpt>
      <trkpt lat="31.886816" lon="34.99942">
        <ele>251.78</ele>
      </trkpt>
      <trkpt lat="31.88693" lon="34.999622">
        <ele>253.64</ele>
      </trkpt>
      <trkpt lat="31.887189" lon="34.999983">
        <ele>257.46</ele>
      </trkpt>
      <trkpt lat="31.887492" lon="35.000346">
        <ele>260.13</ele>
      </trkpt>
      <trkpt lat="31.887658" lon="35.000513">
        <ele>261.14</ele>
      </trkpt>
      <trkpt lat="31.887808" lon="35.000651">
        <ele>262.62</ele>
      </trkpt>
      <trkpt lat="31.888006" lon="35.000818">
        <ele>263.22</ele>
      </trkpt>
      <trkpt lat="31.888363" lon="35.001053">
        <ele>263.38</ele>
      </trkpt>
      <trkpt lat="31.88871" lon="35.001224">
        <ele>263.77</ele>
      </trkpt>
      <trkpt lat="31.888933" lon="35.001308">
        <ele>263.77</ele>
      </trkpt>
      <trkpt lat="31.889317" lon="35.001418">
        <ele>263.99</ele>
      </trkpt>
      <trkpt lat="31.889489" lon="35.001452">
        <ele>263.3</ele>
      </trkpt>
      <trkpt lat="31.88968" lon="35.001474">
        <ele>261.38</ele>
      </trkpt>
      <trkpt lat="31.889979" lon="35.001485">
        <ele>259.57</ele>
      </trkpt>
      <trkpt lat="31.890188" lon="35.00148">
        <ele>258.84</ele>
      </trkpt>
      <trkpt lat="31.890575" lon="35.00143">
        <ele>255.98</ele>
      </trkpt>
      <trkpt lat="31.890819" lon="35.001367">
        <ele>255.11</ele>
      </trkpt>
      <trkpt lat="31.891798" lon="35.001118">
        <ele>245.6</ele>
      </trkpt>
      <trkpt lat="31.892005" lon="35.001077">
        <ele>242.97</ele>
      </trkpt>
      <trkpt lat="31.892477" lon="35.001029">
        <ele>238.38</ele>
      </trkpt>
      <trkpt lat="31.89264" lon="35.001029">
        <ele>237.27</ele>
      </trkpt>
      <trkpt lat="31.892781" lon="35.00104">
        <ele>236.37</ele>
      </trkpt>
      <trkpt lat="31.892958" lon="35.001067">
        <ele>235.42</ele>
      </trkpt>
      <trkpt lat="31.893363" lon="35.001183">
        <ele>233</ele>
      </trkpt>
      <trkpt lat="31.893838" lon="35.00136">
        <ele>232.48</ele>
      </trkpt>
      <trkpt lat="31.894122" lon="35.001471">
        <ele>234.48</ele>
      </trkpt>
      <trkpt lat="31.894267" lon="35.001548">
        <ele>235.23</ele>
      </trkpt>
      <trkpt lat="31.894417" lon="35.001639">
        <ele>236.49</ele>
      </trkpt>
      <trkpt lat="31.894786" lon="35.001935">
        <ele>238.78</ele>
      </trkpt>
      <trkpt lat="31.894912" lon="35.002061">
        <ele>239.54</ele>
      </trkpt>
      <trkpt lat="31.895205" lon="35.002407">
        <ele>241.18</ele>
      </trkpt>
      <trkpt lat="31.895331" lon="35.00257">
        <ele>241.65</ele>
      </trkpt>
      <trkpt lat="31.895444" lon="35.002755">
        <ele>242.6</ele>
      </trkpt>
      <trkpt lat="31.895652" lon="35.003139">
        <ele>243.01</ele>
      </trkpt>
      <trkpt lat="31.895731" lon="35.003321">
        <ele>242.12</ele>
      </trkpt>
      <trkpt lat="31.895838" lon="35.003579">
        <ele>241.54</ele>
      </trkpt>
      <trkpt lat="31.896679" lon="35.005725">
        <ele>231.11</ele>
      </trkpt>
      <trkpt lat="31.896763" lon="35.005902">
        <ele>230.35</ele>
      </trkpt>
      <trkpt lat="31.896902" lon="35.00613">
        <ele>229.38</ele>
      </trkpt>
      <trkpt lat="31.896975" lon="35.006226">
        <ele>228.88</ele>
      </trkpt>
      <trkpt lat="31.897086" lon="35.006344">
        <ele>228.12</ele>
      </trkpt>
      <trkpt lat="31.897258" lon="35.006484">
        <ele>225.57</ele>
      </trkpt>
      <trkpt lat="31.897491" lon="35.006633">
        <ele>225.02</ele>
      </trkpt>
      <trkpt lat="31.898051" lon="35.006696">
        <ele>225.49</ele>
      </trkpt>
      <trkpt lat="31.89813" lon="35.006688">
        <ele>225.44</ele>
      </trkpt>
      <trkpt lat="31.898238" lon="35.00665">
        <ele>225.22</ele>
      </trkpt>
      <trkpt lat="31.898423" lon="35.00655">
        <ele>225</ele>
      </trkpt>
      <trkpt lat="31.898556" lon="35.006463">
        <ele>225.78</ele>
      </trkpt>
      <trkpt lat="31.899009" lon="35.006021">
        <ele>227</ele>
      </trkpt>
      <trkpt lat="31.899393" lon="35.005634">
        <ele>225.33</ele>
      </trkpt>
      <trkpt lat="31.899579" lon="35.005504">
        <ele>225.44</ele>
      </trkpt>
      <trkpt lat="31.899776" lon="35.005423">
        <ele>225.77</ele>
      </trkpt>
      <trkpt lat="31.899972" lon="35.005359">
        <ele>225.58</ele>
      </trkpt>
      <trkpt lat="31.900176" lon="35.005321">
        <ele>226.45</ele>
      </trkpt>
      <trkpt lat="31.900406" lon="35.005295">
        <ele>229.11</ele>
      </trkpt>
      <trkpt lat="31.90209" lon="35.005127">
        <ele>239.35</ele>
      </trkpt>
      <trkpt lat="31.903401" lon="35.005007">
        <ele>246.64</ele>
      </trkpt>
      <trkpt lat="31.905756" lon="35.004793">
        <ele>255.05</ele>
      </trkpt>
      <trkpt lat="31.905848" lon="35.004841">
        <ele>255.22</ele>
      </trkpt>
      <trkpt lat="31.906138" lon="35.004838">
        <ele>256.71</ele>
      </trkpt>
      <trkpt lat="31.906667" lon="35.004881">
        <ele>259.02</ele>
      </trkpt>
      <trkpt lat="31.906924" lon="35.004923">
        <ele>260</ele>
      </trkpt>
      <trkpt lat="31.907124" lon="35.004992">
        <ele>260</ele>
      </trkpt>
      <trkpt lat="31.907354" lon="35.005102">
        <ele>260.25</ele>
      </trkpt>
      <trkpt lat="31.9075" lon="35.005197">
        <ele>261.01</ele>
      </trkpt>
      <trkpt lat="31.907681" lon="35.005301">
        <ele>261.28</ele>
      </trkpt>
      <trkpt lat="31.907898" lon="35.005454">
        <ele>262</ele>
      </trkpt>
      <trkpt lat="31.908116" lon="35.005637">
        <ele>262.5</ele>
      </trkpt>
      <trkpt lat="31.908356" lon="35.005875">
        <ele>263</ele>
      </trkpt>
      <trkpt lat="31.90847" lon="35.005998">
        <ele>263.82</ele>
      </trkpt>
      <trkpt lat="31.908742" lon="35.006326">
        <ele>265.7</ele>
      </trkpt>
      <trkpt lat="31.908925" lon="35.006564">
        <ele>266.94</ele>
      </trkpt>
      <trkpt lat="31.909083" lon="35.006827">
        <ele>268.22</ele>
      </trkpt>
      <trkpt lat="31.909191" lon="35.007026">
        <ele>269.25</ele>
      </trkpt>
      <trkpt lat="31.909293" lon="35.007237">
        <ele>270.63</ele>
      </trkpt>
      <trkpt lat="31.909443" lon="35.007624">
        <ele>272.88</ele>
      </trkpt>
      <trkpt lat="31.909571" lon="35.008146">
        <ele>275.92</ele>
      </trkpt>
      <trkpt lat="31.909625" lon="35.008667">
        <ele>278.95</ele>
      </trkpt>
      <trkpt lat="31.909645" lon="35.009088">
        <ele>281.39</ele>
      </trkpt>
      <trkpt lat="31.909614" lon="35.009697">
        <ele>284.93</ele>
      </trkpt>
      <trkpt lat="31.909567" lon="35.010611">
        <ele>286.8</ele>
      </trkpt>
      <trkpt lat="31.909412" lon="35.013566">
        <ele>286</ele>
      </trkpt>
      <trkpt lat="31.909403" lon="35.013816">
        <ele>286</ele>
      </trkpt>
      <trkpt lat="31.909397" lon="35.014011">
        <ele>286</ele>
      </trkpt>
      <trkpt lat="31.909406" lon="35.014225">
        <ele>285.74</ele>
      </trkpt>
      <trkpt lat="31.909434" lon="35.014451">
        <ele>285</ele>
      </trkpt>
      <trkpt lat="31.909488" lon="35.014719">
        <ele>284.95</ele>
      </trkpt>
      <trkpt lat="31.909569" lon="35.014933">
        <ele>284.7</ele>
      </trkpt>
      <trkpt lat="31.909744" lon="35.015299">
        <ele>284</ele>
      </trkpt>
      <trkpt lat="31.909858" lon="35.015472">
        <ele>284</ele>
      </trkpt>
      <trkpt lat="31.909992" lon="35.015626">
        <ele>283.9</ele>
      </trkpt>
      <trkpt lat="31.910267" lon="35.015908">
        <ele>282.06</ele>
      </trkpt>
      <trkpt lat="31.910661" lon="35.016356">
        <ele>280.31</ele>
      </trkpt>
      <trkpt lat="31.910842" lon="35.016597">
        <ele>278.03</ele>
      </trkpt>
      <trkpt lat="31.910876" lon="35.016707">
        <ele>277.37</ele>
      </trkpt>
      <trkpt lat="31.910898" lon="35.016775">
        <ele>276.97</ele>
      </trkpt>
      <trkpt lat="31.910902" lon="35.016876">
        <ele>276.77</ele>
      </trkpt>
      <trkpt lat="31.910898" lon="35.016928">
        <ele>276.7</ele>
      </trkpt>
      <trkpt lat="31.910852" lon="35.017027">
        <ele>277</ele>
      </trkpt>
      <trkpt lat="31.910772" lon="35.017091">
        <ele>277.55</ele>
      </trkpt>
      <trkpt lat="31.910572" lon="35.01719">
        <ele>278.46</ele>
      </trkpt>
      <trkpt lat="31.909909" lon="35.017396">
        <ele>281.14</ele>
      </trkpt>
      <trkpt lat="31.909496" lon="35.017573">
        <ele>281.16</ele>
      </trkpt>
      <trkpt lat="31.908982" lon="35.017851">
        <ele>282.47</ele>
      </trkpt>
      <trkpt lat="31.908566" lon="35.018109">
        <ele>282.44</ele>
      </trkpt>
      <trkpt lat="31.908129" lon="35.018411">
        <ele>281.35</ele>
      </trkpt>
      <trkpt lat="31.907561" lon="35.018847">
        <ele>280.47</ele>
      </trkpt>
      <trkpt lat="31.906966" lon="35.019362">
        <ele>279.28</ele>
      </trkpt>
      <trkpt lat="31.906484" lon="35.019851">
        <ele>277.87</ele>
      </trkpt>
      <trkpt lat="31.906046" lon="35.020366">
        <ele>276.94</ele>
      </trkpt>
      <trkpt lat="31.905751" lon="35.020823">
        <ele>275.96</ele>
      </trkpt>
      <trkpt lat="31.905262" lon="35.021634">
        <ele>275.76</ele>
      </trkpt>
      <trkpt lat="31.90428" lon="35.023436">
        <ele>273.23</ele>
      </trkpt>
      <trkpt lat="31.902937" lon="35.026031">
        <ele>266.29</ele>
      </trkpt>
      <trkpt lat="31.902604" lon="35.026639">
        <ele>265.29</ele>
      </trkpt>
      <trkpt lat="31.902768" lon="35.026691">
        <ele>264.17</ele>
      </trkpt>
      <trkpt lat="31.9035" lon="35.025209">
        <ele>268.88</ele>
      </trkpt>
      <trkpt lat="31.905392" lon="35.021677">
        <ele>274.81</ele>
      </trkpt>
      <trkpt lat="31.905636" lon="35.021284">
        <ele>275.16</ele>
      </trkpt>
      <trkpt lat="31.906023" lon="35.020696">
        <ele>274.37</ele>
      </trkpt>
      <trkpt lat="31.906348" lon="35.020283">
        <ele>275.59</ele>
      </trkpt>
      <trkpt lat="31.906755" lon="35.019824">
        <ele>276.43</ele>
      </trkpt>
      <trkpt lat="31.907249" lon="35.019349">
        <ele>278.52</ele>
      </trkpt>
      <trkpt lat="31.907742" lon="35.018928">
        <ele>280.4</ele>
      </trkpt>
      <trkpt lat="31.908326" lon="35.018503">
        <ele>282.79</ele>
      </trkpt>
      <trkpt lat="31.909029" lon="35.018063">
        <ele>286.04</ele>
      </trkpt>
      <trkpt lat="31.909264" lon="35.017916">
        <ele>285.17</ele>
      </trkpt>
      <trkpt lat="31.909682" lon="35.017731">
        <ele>284.19</ele>
      </trkpt>
      <trkpt lat="31.910082" lon="35.017576">
        <ele>284.5</ele>
      </trkpt>
      <trkpt lat="31.910264" lon="35.017508">
        <ele>282.73</ele>
      </trkpt>
      <trkpt lat="31.911179" lon="35.017225">
        <ele>276.41</ele>
      </trkpt>
      <trkpt lat="31.911698" lon="35.017081">
        <ele>274.86</ele>
      </trkpt>
      <trkpt lat="31.912361" lon="35.016815">
        <ele>273.21</ele>
      </trkpt>
      <trkpt lat="31.912463" lon="35.016783">
        <ele>272.97</ele>
      </trkpt>
      <trkpt lat="31.913388" lon="35.016498">
        <ele>269</ele>
      </trkpt>
      <trkpt lat="31.913666" lon="35.016388">
        <ele>269</ele>
      </trkpt>
      <trkpt lat="31.914043" lon="35.016199">
        <ele>267.78</ele>
      </trkpt>
      <trkpt lat="31.914324" lon="35.016042">
        <ele>266.18</ele>
      </trkpt>
      <trkpt lat="31.914534" lon="35.015911">
        <ele>265.8</ele>
      </trkpt>
      <trkpt lat="31.91497" lon="35.015605">
        <ele>263.28</ele>
      </trkpt>
      <trkpt lat="31.915197" lon="35.01544">
        <ele>263.25</ele>
      </trkpt>
      <trkpt lat="31.915594" lon="35.01515">
        <ele>260.16</ele>
      </trkpt>
      <trkpt lat="31.915935" lon="35.014876">
        <ele>259</ele>
      </trkpt>
      <trkpt lat="31.916236" lon="35.014603">
        <ele>256.13</ele>
      </trkpt>
      <trkpt lat="31.916495" lon="35.014345">
        <ele>254.34</ele>
      </trkpt>
      <trkpt lat="31.916712" lon="35.014104">
        <ele>252.87</ele>
      </trkpt>
      <trkpt lat="31.916989" lon="35.01375">
        <ele>250.5</ele>
      </trkpt>
      <trkpt lat="31.917235" lon="35.013417">
        <ele>249.56</ele>
      </trkpt>
      <trkpt lat="31.917647" lon="35.012785">
        <ele>247.32</ele>
      </trkpt>
      <trkpt lat="31.917969" lon="35.012281">
        <ele>242.94</ele>
      </trkpt>
      <trkpt lat="31.918292" lon="35.011776">
        <ele>241.95</ele>
      </trkpt>
      <trkpt lat="31.919011" lon="35.010649">
        <ele>234.87</ele>
      </trkpt>
      <trkpt lat="31.91915" lon="35.010419">
        <ele>234.85</ele>
      </trkpt>
      <trkpt lat="31.919758" lon="35.009479">
        <ele>235.66</ele>
      </trkpt>
      <trkpt lat="31.920254" lon="35.008685">
        <ele>235.43</ele>
      </trkpt>
      <trkpt lat="31.920874" lon="35.007704">
        <ele>238.22</ele>
      </trkpt>
      <trkpt lat="31.92128" lon="35.00709">
        <ele>238.43</ele>
      </trkpt>
      <trkpt lat="31.922226" lon="35.005762">
        <ele>238</ele>
      </trkpt>
      <trkpt lat="31.924089" lon="35.003561">
        <ele>231.16</ele>
      </trkpt>
      <trkpt lat="31.924618" lon="35.002928">
        <ele>229.97</ele>
      </trkpt>
      <trkpt lat="31.924866" lon="35.002578">
        <ele>230.47</ele>
      </trkpt>
      <trkpt lat="31.925005" lon="35.002347">
        <ele>230.81</ele>
      </trkpt>
      <trkpt lat="31.925523" lon="35.001356">
        <ele>230.7</ele>
      </trkpt>
      <trkpt lat="31.925708" lon="35.000943">
        <ele>229.79</ele>
      </trkpt>
      <trkpt lat="31.925876" lon="35.000501">
        <ele>229.43</ele>
      </trkpt>
      <trkpt lat="31.926792" lon="34.997667">
        <ele>224.18</ele>
      </trkpt>
      <trkpt lat="31.927169" lon="34.996617">
        <ele>225.77</ele>
      </trkpt>
      <trkpt lat="31.927515" lon="34.995586">
        <ele>227.88</ele>
      </trkpt>
      <trkpt lat="31.927745" lon="34.994981">
        <ele>230.18</ele>
      </trkpt>
      <trkpt lat="31.928039" lon="34.99447">
        <ele>231.89</ele>
      </trkpt>
      <trkpt lat="31.928715" lon="34.993567">
        <ele>232.2</ele>
      </trkpt>
      <trkpt lat="31.929343" lon="34.993041">
        <ele>230.25</ele>
      </trkpt>
      <trkpt lat="31.930232" lon="34.992479">
        <ele>227.4</ele>
      </trkpt>
      <trkpt lat="31.931422" lon="34.991673">
        <ele>220.14</ele>
      </trkpt>
      <trkpt lat="31.932136" lon="34.991189">
        <ele>220.86</ele>
      </trkpt>
      <trkpt lat="31.932781" lon="34.990839">
        <ele>221.5</ele>
      </trkpt>
      <trkpt lat="31.93306" lon="34.990728">
        <ele>222.16</ele>
      </trkpt>
      <trkpt lat="31.934074" lon="34.990445">
        <ele>225</ele>
      </trkpt>
      <trkpt lat="31.93503" lon="34.990098">
        <ele>222.97</ele>
      </trkpt>
      <trkpt lat="31.935445" lon="34.989872">
        <ele>221.8</ele>
      </trkpt>
      <trkpt lat="31.935813" lon="34.98961">
        <ele>220.3</ele>
      </trkpt>
      <trkpt lat="31.936067" lon="34.989383">
        <ele>218.43</ele>
      </trkpt>
      <trkpt lat="31.936317" lon="34.989114">
        <ele>217.7</ele>
      </trkpt>
      <trkpt lat="31.936575" lon="34.988759">
        <ele>216.36</ele>
      </trkpt>
      <trkpt lat="31.936711" lon="34.988552">
        <ele>215.86</ele>
      </trkpt>
      <trkpt lat="31.936841" lon="34.988319">
        <ele>214.64</ele>
      </trkpt>
      <trkpt lat="31.936987" lon="34.987999">
        <ele>213.78</ele>
      </trkpt>
      <trkpt lat="31.937064" lon="34.987805">
        <ele>212.85</ele>
      </trkpt>
      <trkpt lat="31.937175" lon="34.987418">
        <ele>212</ele>
      </trkpt>
      <trkpt lat="31.937384" lon="34.986492">
        <ele>210.27</ele>
      </trkpt>
      <trkpt lat="31.937412" lon="34.986334">
        <ele>210.01</ele>
      </trkpt>
      <trkpt lat="31.937679" lon="34.985139">
        <ele>205.48</ele>
      </trkpt>
      <trkpt lat="31.937745" lon="34.984841">
        <ele>205.24</ele>
      </trkpt>
      <trkpt lat="31.937854" lon="34.984407">
        <ele>206</ele>
      </trkpt>
      <trkpt lat="31.93805" lon="34.98392">
        <ele>206.28</ele>
      </trkpt>
      <trkpt lat="31.938455" lon="34.983303">
        <ele>207.08</ele>
      </trkpt>
      <trkpt lat="31.939343" lon="34.982182">
        <ele>208.96</ele>
      </trkpt>
      <trkpt lat="31.940442" lon="34.980842">
        <ele>205</ele>
      </trkpt>
      <trkpt lat="31.940895" lon="34.980444">
        <ele>202.09</ele>
      </trkpt>
      <trkpt lat="31.942436" lon="34.979209">
        <ele>189.32</ele>
      </trkpt>
      <trkpt lat="31.943097" lon="34.978679">
        <ele>185.66</ele>
      </trkpt>
      <trkpt lat="31.943317" lon="34.978502">
        <ele>186.13</ele>
      </trkpt>
      <trkpt lat="31.943704" lon="34.978104">
        <ele>188.04</ele>
      </trkpt>
      <trkpt lat="31.943872" lon="34.977875">
        <ele>189.02</ele>
      </trkpt>
      <trkpt lat="31.944213" lon="34.977295">
        <ele>191.07</ele>
      </trkpt>
      <trkpt lat="31.94455" lon="34.97655">
        <ele>194.02</ele>
      </trkpt>
      <trkpt lat="31.945069" lon="34.974751">
        <ele>194.15</ele>
      </trkpt>
      <trkpt lat="31.945502" lon="34.973251">
        <ele>189.4</ele>
      </trkpt>
      <trkpt lat="31.945848" lon="34.972052">
        <ele>188.25</ele>
      </trkpt>
      <trkpt lat="31.946026" lon="34.971427">
        <ele>186.09</ele>
      </trkpt>
      <trkpt lat="31.946098" lon="34.970684">
        <ele>184.67</ele>
      </trkpt>
      <trkpt lat="31.946143" lon="34.969788">
        <ele>181.93</ele>
      </trkpt>
      <trkpt lat="31.946146" lon="34.969591">
        <ele>181.17</ele>
      </trkpt>
      <trkpt lat="31.946168" lon="34.969303">
        <ele>181</ele>
      </trkpt>
      <trkpt lat="31.946307" lon="34.967459">
        <ele>171.36</ele>
      </trkpt>
      <trkpt lat="31.946435" lon="34.966787">
        <ele>167.58</ele>
      </trkpt>
      <trkpt lat="31.946669" lon="34.966024">
        <ele>163.65</ele>
      </trkpt>
      <trkpt lat="31.946911" lon="34.96556">
        <ele>161.98</ele>
      </trkpt>
      <trkpt lat="31.947532" lon="34.964478">
        <ele>160.99</ele>
      </trkpt>
      <trkpt lat="31.949117" lon="34.96176">
        <ele>161.97</ele>
      </trkpt>
      <trkpt lat="31.950884" lon="34.958664">
        <ele>166.83</ele>
      </trkpt>
      <trkpt lat="31.951163" lon="34.958137">
        <ele>169</ele>
      </trkpt>
      <trkpt lat="31.951298" lon="34.957844">
        <ele>168.04</ele>
      </trkpt>
      <trkpt lat="31.951433" lon="34.957512">
        <ele>167</ele>
      </trkpt>
      <trkpt lat="31.951574" lon="34.957135">
        <ele>166.35</ele>
      </trkpt>
      <trkpt lat="31.951681" lon="34.956818">
        <ele>166</ele>
      </trkpt>
      <trkpt lat="31.951893" lon="34.956094">
        <ele>163.89</ele>
      </trkpt>
      <trkpt lat="31.951982" lon="34.955659">
        <ele>163.18</ele>
      </trkpt>
      <trkpt lat="31.952035" lon="34.955277">
        <ele>161.75</ele>
      </trkpt>
      <trkpt lat="31.952064" lon="34.954939">
        <ele>161.67</ele>
      </trkpt>
      <trkpt lat="31.95208" lon="34.954639">
        <ele>161.31</ele>
      </trkpt>
      <trkpt lat="31.952091" lon="34.954306">
        <ele>157.75</ele>
      </trkpt>
      <trkpt lat="31.952102" lon="34.953972">
        <ele>157.07</ele>
      </trkpt>
      <trkpt lat="31.952133" lon="34.953685">
        <ele>158.2</ele>
      </trkpt>
      <trkpt lat="31.952256" lon="34.952535">
        <ele>155</ele>
      </trkpt>
      <trkpt lat="31.952335" lon="34.952036">
        <ele>152.94</ele>
      </trkpt>
      <trkpt lat="31.952401" lon="34.951745">
        <ele>152</ele>
      </trkpt>
      <trkpt lat="31.952483" lon="34.951496">
        <ele>150.91</ele>
      </trkpt>
      <trkpt lat="31.952589" lon="34.951266">
        <ele>149.29</ele>
      </trkpt>
      <trkpt lat="31.952794" lon="34.950882">
        <ele>146.66</ele>
      </trkpt>
      <trkpt lat="31.952923" lon="34.950622">
        <ele>144.79</ele>
      </trkpt>
      <trkpt lat="31.952984" lon="34.950445">
        <ele>144.37</ele>
      </trkpt>
      <trkpt lat="31.953064" lon="34.950141">
        <ele>142.67</ele>
      </trkpt>
      <trkpt lat="31.953088" lon="34.94996">
        <ele>141.49</ele>
      </trkpt>
      <trkpt lat="31.9531" lon="34.949645">
        <ele>139.36</ele>
      </trkpt>
      <trkpt lat="31.953086" lon="34.949125">
        <ele>137.67</ele>
      </trkpt>
      <trkpt lat="31.953064" lon="34.948865">
        <ele>138.14</ele>
      </trkpt>
      <trkpt lat="31.95301" lon="34.9486">
        <ele>138.62</ele>
      </trkpt>
      <trkpt lat="31.952756" lon="34.947828">
        <ele>136.13</ele>
      </trkpt>
      <trkpt lat="31.952578" lon="34.94725">
        <ele>135.98</ele>
      </trkpt>
      <trkpt lat="31.952444" lon="34.946764">
        <ele>135</ele>
      </trkpt>
      <trkpt lat="31.952369" lon="34.946389">
        <ele>133.5</ele>
      </trkpt>
      <trkpt lat="31.952293" lon="34.945822">
        <ele>129.62</ele>
      </trkpt>
      <trkpt lat="31.952155" lon="34.944576">
        <ele>124.32</ele>
      </trkpt>
      <trkpt lat="31.952082" lon="34.943711">
        <ele>120.74</ele>
      </trkpt>
      <trkpt lat="31.952085" lon="34.943413">
        <ele>119.77</ele>
      </trkpt>
      <trkpt lat="31.952104" lon="34.9431">
        <ele>118.34</ele>
      </trkpt>
      <trkpt lat="31.952168" lon="34.942588">
        <ele>115.83</ele>
      </trkpt>
      <trkpt lat="31.952253" lon="34.94217">
        <ele>113.28</ele>
      </trkpt>
      <trkpt lat="31.952348" lon="34.94185">
        <ele>111.74</ele>
      </trkpt>
      <trkpt lat="31.952476" lon="34.941533">
        <ele>109.88</ele>
      </trkpt>
      <trkpt lat="31.952588" lon="34.941305">
        <ele>108.58</ele>
      </trkpt>
      <trkpt lat="31.952699" lon="34.941114">
        <ele>107.19</ele>
      </trkpt>
      <trkpt lat="31.953036" lon="34.940728">
        <ele>103.88</ele>
      </trkpt>
      <trkpt lat="31.953355" lon="34.940384">
        <ele>100.99</ele>
      </trkpt>
      <trkpt lat="31.953577" lon="34.940163">
        <ele>98.51</ele>
      </trkpt>
      <trkpt lat="31.95402" lon="34.939722">
        <ele>97.24</ele>
      </trkpt>
      <trkpt lat="31.954095" lon="34.939665">
        <ele>97.24</ele>
      </trkpt>
      <trkpt lat="31.954217" lon="34.939622">
        <ele>97.45</ele>
      </trkpt>
      <trkpt lat="31.954302" lon="34.939634">
        <ele>97.14</ele>
      </trkpt>
      <trkpt lat="31.954356" lon="34.939664">
        <ele>96.97</ele>
      </trkpt>
      <trkpt lat="31.95441" lon="34.939717">
        <ele>96.67</ele>
      </trkpt>
      <trkpt lat="31.954718" lon="34.940017">
        <ele>95.91</ele>
      </trkpt>
      <trkpt lat="31.955059" lon="34.940318">
        <ele>97.17</ele>
      </trkpt>
      <trkpt lat="31.955962" lon="34.940982">
        <ele>95.8</ele>
      </trkpt>
      <trkpt lat="31.956864" lon="34.941647">
        <ele>90.63</ele>
      </trkpt>
      <trkpt lat="31.957041" lon="34.941754">
        <ele>89.91</ele>
      </trkpt>
      <trkpt lat="31.957195" lon="34.941835">
        <ele>90.08</ele>
      </trkpt>
      <trkpt lat="31.957353" lon="34.941907">
        <ele>89.69</ele>
      </trkpt>
      <trkpt lat="31.957604" lon="34.941995">
        <ele>89.42</ele>
      </trkpt>
      <trkpt lat="31.957856" lon="34.942083">
        <ele>91.49</ele>
      </trkpt>
      <trkpt lat="31.958109" lon="34.94212">
        <ele>92.41</ele>
      </trkpt>
      <trkpt lat="31.958363" lon="34.942157">
        <ele>90.17</ele>
      </trkpt>
      <trkpt lat="31.958638" lon="34.942155">
        <ele>88.11</ele>
      </trkpt>
      <trkpt lat="31.959465" lon="34.942147">
        <ele>86.03</ele>
      </trkpt>
      <trkpt lat="31.959741" lon="34.942145">
        <ele>86.91</ele>
      </trkpt>
      <trkpt lat="31.961213" lon="34.942133">
        <ele>82.02</ele>
      </trkpt>
      <trkpt lat="31.961782" lon="34.942108">
        <ele>84.97</ele>
      </trkpt>
      <trkpt lat="31.963203" lon="34.942046">
        <ele>80</ele>
      </trkpt>
      <trkpt lat="31.963401" lon="34.942052">
        <ele>80</ele>
      </trkpt>
      <trkpt lat="31.963493" lon="34.942056">
        <ele>80</ele>
      </trkpt>
      <trkpt lat="31.963748" lon="34.942096">
        <ele>79.06</ele>
      </trkpt>
      <trkpt lat="31.96395" lon="34.94215">
        <ele>78.79</ele>
      </trkpt>
      <trkpt lat="31.964132" lon="34.94222">
        <ele>78.38</ele>
      </trkpt>
      <trkpt lat="31.964396" lon="34.942356">
        <ele>78.42</ele>
      </trkpt>
      <trkpt lat="31.964676" lon="34.942513">
        <ele>78.68</ele>
      </trkpt>
      <trkpt lat="31.964858" lon="34.942628">
        <ele>78</ele>
      </trkpt>
      <trkpt lat="31.965415" lon="34.943019">
        <ele>79.67</ele>
      </trkpt>
      <trkpt lat="31.965706" lon="34.943216">
        <ele>79.6</ele>
      </trkpt>
      <trkpt lat="31.966126" lon="34.943465">
        <ele>79.17</ele>
      </trkpt>
      <trkpt lat="31.966539" lon="34.943676">
        <ele>79.04</ele>
      </trkpt>
      <trkpt lat="31.966928" lon="34.943848">
        <ele>78.08</ele>
      </trkpt>
      <trkpt lat="31.96868" lon="34.944549">
        <ele>73.68</ele>
      </trkpt>
      <trkpt lat="31.969152" lon="34.944748">
        <ele>74</ele>
      </trkpt>
      <trkpt lat="31.969528" lon="34.944923">
        <ele>74.34</ele>
      </trkpt>
      <trkpt lat="31.970247" lon="34.94527">
        <ele>77.71</ele>
      </trkpt>
      <trkpt lat="31.971473" lon="34.945871">
        <ele>78.9</ele>
      </trkpt>
      <trkpt lat="31.972315" lon="34.946332">
        <ele>78.42</ele>
      </trkpt>
      <trkpt lat="31.974196" lon="34.947396">
        <ele>71.28</ele>
      </trkpt>
      <trkpt lat="31.975607" lon="34.948195">
        <ele>68.21</ele>
      </trkpt>
      <trkpt lat="31.975954" lon="34.948404">
        <ele>68.95</ele>
      </trkpt>
      <trkpt lat="31.976127" lon="34.948513">
        <ele>67.72</ele>
      </trkpt>
      <trkpt lat="31.977599" lon="34.949384">
        <ele>69.27</ele>
      </trkpt>
      <trkpt lat="31.978359" lon="34.949823">
        <ele>69</ele>
      </trkpt>
      <trkpt lat="31.979372" lon="34.950409">
        <ele>71</ele>
      </trkpt>
      <trkpt lat="31.980344" lon="34.950976">
        <ele>69</ele>
      </trkpt>
      <trkpt lat="31.980735" lon="34.951201">
        <ele>69</ele>
      </trkpt>
      <trkpt lat="31.981038" lon="34.951343">
        <ele>69</ele>
      </trkpt>
      <trkpt lat="31.981259" lon="34.951428">
        <ele>69.94</ele>
      </trkpt>
      <trkpt lat="31.981473" lon="34.951496">
        <ele>69.06</ele>
      </trkpt>
      <trkpt lat="31.98168" lon="34.951555">
        <ele>69</ele>
      </trkpt>
      <trkpt lat="31.981936" lon="34.951609">
        <ele>68.19</ele>
      </trkpt>
      <trkpt lat="31.982291" lon="34.951648">
        <ele>67.51</ele>
      </trkpt>
      <trkpt lat="31.982597" lon="34.951662">
        <ele>67</ele>
      </trkpt>
      <trkpt lat="31.982878" lon="34.951651">
        <ele>67</ele>
      </trkpt>
      <trkpt lat="31.983233" lon="34.951604">
        <ele>66</ele>
      </trkpt>
      <trkpt lat="31.984482" lon="34.95133">
        <ele>63.79</ele>
      </trkpt>
      <trkpt lat="31.984506" lon="34.951139">
        <ele>63.33</ele>
      </trkpt>
      <trkpt lat="31.984258" lon="34.94969">
        <ele>65</ele>
      </trkpt>
      <trkpt lat="31.983132" lon="34.943082">
        <ele>64.47</ele>
      </trkpt>
      <trkpt lat="31.983054" lon="34.942463">
        <ele>64</ele>
      </trkpt>
      <trkpt lat="31.98303" lon="34.941892">
        <ele>64</ele>
      </trkpt>
      <trkpt lat="31.983049" lon="34.941253">
        <ele>64</ele>
      </trkpt>
      <trkpt lat="31.983093" lon="34.940796">
        <ele>63.35</ele>
      </trkpt>
      <trkpt lat="31.983185" lon="34.940296">
        <ele>63</ele>
      </trkpt>
      <trkpt lat="31.983315" lon="34.939709">
        <ele>63</ele>
      </trkpt>
      <trkpt lat="31.983433" lon="34.939091">
        <ele>62.31</ele>
      </trkpt>
      <trkpt lat="31.983675" lon="34.937824">
        <ele>62</ele>
      </trkpt>
      <trkpt lat="31.983796" lon="34.937239">
        <ele>62.53</ele>
      </trkpt>
      <trkpt lat="31.983856" lon="34.936832">
        <ele>61.3</ele>
      </trkpt>
      <trkpt lat="31.98462" lon="34.932345">
        <ele>59</ele>
      </trkpt>
      <trkpt lat="31.984783" lon="34.931424">
        <ele>57.43</ele>
      </trkpt>
      <trkpt lat="31.984888" lon="34.930808">
        <ele>57.92</ele>
      </trkpt>
      <trkpt lat="31.985308" lon="34.928345">
        <ele>65</ele>
      </trkpt>
      <trkpt lat="31.985465" lon="34.927422">
        <ele>65</ele>
      </trkpt>
      <trkpt lat="31.985554" lon="34.92664">
        <ele>65</ele>
      </trkpt>
      <trkpt lat="31.985581" lon="34.925968">
        <ele>64.97</ele>
      </trkpt>
      <trkpt lat="31.985561" lon="34.925601">
        <ele>63.89</ele>
      </trkpt>
      <trkpt lat="31.98551" lon="34.925228">
        <ele>62.91</ele>
      </trkpt>
      <trkpt lat="31.985363" lon="34.924605">
        <ele>61.09</ele>
      </trkpt>
      <trkpt lat="31.984959" lon="34.923104">
        <ele>56.6</ele>
      </trkpt>
      <trkpt lat="31.984488" lon="34.921324">
        <ele>54.45</ele>
      </trkpt>
      <trkpt lat="31.984319" lon="34.920432">
        <ele>52.98</ele>
      </trkpt>
      <trkpt lat="31.984277" lon="34.920006">
        <ele>52.91</ele>
      </trkpt>
      <trkpt lat="31.984261" lon="34.919455">
        <ele>52.02</ele>
      </trkpt>
      <trkpt lat="31.984267" lon="34.919076">
        <ele>51.97</ele>
      </trkpt>
      <trkpt lat="31.984301" lon="34.918664">
        <ele>51.74</ele>
      </trkpt>
      <trkpt lat="31.984555" lon="34.916096">
        <ele>49</ele>
      </trkpt>
      <trkpt lat="31.984407" lon="34.916038">
        <ele>50</ele>
      </trkpt>
      <trkpt lat="31.984324" lon="34.916036">
        <ele>50</ele>
      </trkpt>
      <trkpt lat="31.984129" lon="34.916058">
        <ele>50.2</ele>
      </trkpt>
    </trkseg>
  </trk>
</gpx>
