<?xml version="1.0" encoding="UTF-8"?>
<gpx creator="https://gpx.studio" version="1.1" xmlns="http://www.topografix.com/GPX/1/1" xmlns:xsi="http://www.w3.org/2001/XMLSchema-instance" xsi:schemaLocation="http://www.topografix.com/GPX/1/1 http://www.topografix.com/GPX/1/1/gpx.xsd http://www.garmin.com/xmlschemas/GpxExtensions/v3 http://www.garmin.com/xmlschemas/GpxExtensionsv3.xsd http://www.garmin.com/xmlschemas/TrackPointExtension/v1 http://www.garmin.com/xmlschemas/TrackPointExtensionv1.xsd http://www.garmin.com/xmlschemas/PowerExtension/v1 http://www.garmin.com/xmlschemas/PowerExtensionv1.xsd http://www.topografix.com/GPX/gpx_style/0/2 http://www.topografix.com/GPX/gpx_style/0/2/gpx_style.xsd" xmlns:gpxtpx="http://www.garmin.com/xmlschemas/TrackPointExtension/v1" xmlns:gpxx="http://www.garmin.com/xmlschemas/GpxExtensions/v3" xmlns:gpxpx="http://www.garmin.com/xmlschemas/PowerExtension/v1" xmlns:gpx_style="http://www.topografix.com/GPX/gpx_style/0/2">
  <metadata>
    <name>New file 3</name>
    <author>
      <name>gpx.studio</name>
      <link href="https://gpx.studio"/>
    </author>
  </metadata>
  <trk>
    <name>New file 3</name>
    <trkseg>
      <trkpt lat="32.141357" lon="34.801335">
        <ele>17.93</ele>
      </trkpt>
      <trkpt lat="32.141205" lon="34.801282">
        <ele>18</ele>
      </trkpt>
      <trkpt lat="32.140931" lon="34.801143">
        <ele>17.5</ele>
      </trkpt>
      <trkpt lat="32.140838" lon="34.801349">
        <ele>18</ele>
      </trkpt>
      <trkpt lat="32.141296" lon="34.801583">
        <ele>18.71</ele>
      </trkpt>
      <trkpt lat="32.141577" lon="34.801717">
        <ele>18.74</ele>
      </trkpt>
      <trkpt lat="32.141889" lon="34.801855">
        <ele>17.6</ele>
      </trkpt>
      <trkpt lat="32.142065" lon="34.801915">
        <ele>17</ele>
      </trkpt>
      <trkpt lat="32.143131" lon="34.802232">
        <ele>16.76</ele>
      </trkpt>
      <trkpt lat="32.144176" lon="34.802543">
        <ele>16.53</ele>
      </trkpt>
      <trkpt lat="32.146254" lon="34.803215">
        <ele>16</ele>
      </trkpt>
      <trkpt lat="32.148101" lon="34.803805">
        <ele>19.99</ele>
      </trkpt>
      <trkpt lat="32.148857" lon="34.804117">
        <ele>20.32</ele>
      </trkpt>
      <trkpt lat="32.149101" lon="34.804239">
        <ele>20.95</ele>
      </trkpt>
      <trkpt lat="32.150488" lon="34.80506">
        <ele>24.55</ele>
      </trkpt>
      <trkpt lat="32.150951" lon="34.805333">
        <ele>23</ele>
      </trkpt>
      <trkpt lat="32.151669" lon="34.805784">
        <ele>21.62</ele>
      </trkpt>
      <trkpt lat="32.152653" lon="34.806373">
        <ele>21</ele>
      </trkpt>
      <trkpt lat="32.152989" lon="34.806597">
        <ele>21</ele>
      </trkpt>
      <trkpt lat="32.155037" lon="34.807895">
        <ele>18.24</ele>
      </trkpt>
      <trkpt lat="32.160158" lon="34.811171">
        <ele>21.88</ele>
      </trkpt>
      <trkpt lat="32.160689" lon="34.811503">
        <ele>21.57</ele>
      </trkpt>
      <trkpt lat="32.161714" lon="34.812061">
        <ele>27.27</ele>
      </trkpt>
      <trkpt lat="32.162226" lon="34.81234">
        <ele>26.56</ele>
      </trkpt>
      <trkpt lat="32.162738" lon="34.812619">
        <ele>28.11</ele>
      </trkpt>
      <trkpt lat="32.164251" lon="34.813409">
        <ele>29</ele>
      </trkpt>
      <trkpt lat="32.164503" lon="34.813541">
        <ele>30.31</ele>
      </trkpt>
      <trkpt lat="32.164812" lon="34.813688">
        <ele>32.21</ele>
      </trkpt>
      <trkpt lat="32.165538" lon="34.813858">
        <ele>32.38</ele>
      </trkpt>
      <trkpt lat="32.165707" lon="34.813885">
        <ele>32.48</ele>
      </trkpt>
      <trkpt lat="32.166453" lon="34.813974">
        <ele>33.98</ele>
      </trkpt>
      <trkpt lat="32.168058" lon="34.814164">
        <ele>30</ele>
      </trkpt>
      <trkpt lat="32.168833" lon="34.814222">
        <ele>27.43</ele>
      </trkpt>
      <trkpt lat="32.170125" lon="34.814318">
        <ele>26.99</ele>
      </trkpt>
      <trkpt lat="32.170637" lon="34.814391">
        <ele>26.94</ele>
      </trkpt>
      <trkpt lat="32.172174" lon="34.814971">
        <ele>29.28</ele>
      </trkpt>
      <trkpt lat="32.172427" lon="34.815066">
        <ele>28.26</ele>
      </trkpt>
      <trkpt lat="32.174558" lon="34.815895">
        <ele>30.56</ele>
      </trkpt>
      <trkpt lat="32.175265" lon="34.816067">
        <ele>29.71</ele>
      </trkpt>
      <trkpt lat="32.176168" lon="34.816169">
        <ele>24.14</ele>
      </trkpt>
      <trkpt lat="32.177641" lon="34.816196">
        <ele>21.97</ele>
      </trkpt>
      <trkpt lat="32.178563" lon="34.816226">
        <ele>21.08</ele>
      </trkpt>
      <trkpt lat="32.179371" lon="34.816157">
        <ele>19.37</ele>
      </trkpt>
      <trkpt lat="32.17977" lon="34.816089">
        <ele>20.58</ele>
      </trkpt>
      <trkpt lat="32.180243" lon="34.816003">
        <ele>19.57</ele>
      </trkpt>
      <trkpt lat="32.183139" lon="34.815429">
        <ele>25.15</ele>
      </trkpt>
      <trkpt lat="32.183547" lon="34.815386">
        <ele>25.8</ele>
      </trkpt>
      <trkpt lat="32.183996" lon="34.815358">
        <ele>26.64</ele>
      </trkpt>
      <trkpt lat="32.184532" lon="34.815339">
        <ele>26.93</ele>
      </trkpt>
      <trkpt lat="32.185053" lon="34.815353">
        <ele>27.15</ele>
      </trkpt>
      <trkpt lat="32.185451" lon="34.815385">
        <ele>27.11</ele>
      </trkpt>
      <trkpt lat="32.186065" lon="34.815499">
        <ele>26</ele>
      </trkpt>
      <trkpt lat="32.186728" lon="34.815608">
        <ele>26.31</ele>
      </trkpt>
      <trkpt lat="32.187661" lon="34.815927">
        <ele>25.77</ele>
      </trkpt>
      <trkpt lat="32.188647" lon="34.816303">
        <ele>25.75</ele>
      </trkpt>
      <trkpt lat="32.190426" lon="34.816892">
        <ele>27</ele>
      </trkpt>
      <trkpt lat="32.19316" lon="34.81783">
        <ele>27</ele>
      </trkpt>
      <trkpt lat="32.193928" lon="34.818088">
        <ele>27</ele>
      </trkpt>
      <trkpt lat="32.194696" lon="34.818346">
        <ele>24.1</ele>
      </trkpt>
      <trkpt lat="32.195208" lon="34.818518">
        <ele>25</ele>
      </trkpt>
      <trkpt lat="32.196499" lon="34.818833">
        <ele>24.88</ele>
      </trkpt>
      <trkpt lat="32.199594" lon="34.819261">
        <ele>25</ele>
      </trkpt>
      <trkpt lat="32.200421" lon="34.819369">
        <ele>26</ele>
      </trkpt>
      <trkpt lat="32.201237" lon="34.819477">
        <ele>25</ele>
      </trkpt>
      <trkpt lat="32.201454" lon="34.81952">
        <ele>25.51</ele>
      </trkpt>
      <trkpt lat="32.201684" lon="34.819577">
        <ele>25.43</ele>
      </trkpt>
      <trkpt lat="32.201858" lon="34.819625">
        <ele>25.46</ele>
      </trkpt>
      <trkpt lat="32.202058" lon="34.8197">
        <ele>25.43</ele>
      </trkpt>
      <trkpt lat="32.202461" lon="34.81988">
        <ele>24.79</ele>
      </trkpt>
      <trkpt lat="32.202726" lon="34.820026">
        <ele>25.49</ele>
      </trkpt>
      <trkpt lat="32.202963" lon="34.82019">
        <ele>26.78</ele>
      </trkpt>
      <trkpt lat="32.204319" lon="34.821256">
        <ele>26.89</ele>
      </trkpt>
      <trkpt lat="32.205702" lon="34.82236">
        <ele>30.79</ele>
      </trkpt>
      <trkpt lat="32.206624" lon="34.823095">
        <ele>31.06</ele>
      </trkpt>
      <trkpt lat="32.207547" lon="34.82383">
        <ele>33.39</ele>
      </trkpt>
      <trkpt lat="32.210244" lon="34.825884">
        <ele>42.29</ele>
      </trkpt>
      <trkpt lat="32.211386" lon="34.826784">
        <ele>45.47</ele>
      </trkpt>
      <trkpt lat="32.212049" lon="34.82732">
        <ele>46</ele>
      </trkpt>
      <trkpt lat="32.212421" lon="34.827612">
        <ele>45</ele>
      </trkpt>
      <trkpt lat="32.212783" lon="34.827865">
        <ele>44.09</ele>
      </trkpt>
      <trkpt lat="32.21297" lon="34.827982">
        <ele>44.38</ele>
      </trkpt>
      <trkpt lat="32.213356" lon="34.828183">
        <ele>46</ele>
      </trkpt>
      <trkpt lat="32.213716" lon="34.828334">
        <ele>47</ele>
      </trkpt>
      <trkpt lat="32.214057" lon="34.828449">
        <ele>47.11</ele>
      </trkpt>
      <trkpt lat="32.21441" lon="34.828538">
        <ele>48</ele>
      </trkpt>
      <trkpt lat="32.214827" lon="34.828622">
        <ele>47.85</ele>
      </trkpt>
      <trkpt lat="32.21587" lon="34.828799">
        <ele>46.81</ele>
      </trkpt>
      <trkpt lat="32.216341" lon="34.828879">
        <ele>43.52</ele>
      </trkpt>
      <trkpt lat="32.216872" lon="34.82897">
        <ele>45</ele>
      </trkpt>
      <trkpt lat="32.217334" lon="34.829066">
        <ele>44.83</ele>
      </trkpt>
      <trkpt lat="32.217852" lon="34.829192">
        <ele>42.89</ele>
      </trkpt>
      <trkpt lat="32.218238" lon="34.829311">
        <ele>41.28</ele>
      </trkpt>
      <trkpt lat="32.218536" lon="34.829414">
        <ele>40.09</ele>
      </trkpt>
      <trkpt lat="32.21952" lon="34.829799">
        <ele>36.33</ele>
      </trkpt>
      <trkpt lat="32.222363" lon="34.830953">
        <ele>27.29</ele>
      </trkpt>
      <trkpt lat="32.222926" lon="34.83118">
        <ele>27.08</ele>
      </trkpt>
      <trkpt lat="32.223197" lon="34.831297">
        <ele>28</ele>
      </trkpt>
      <trkpt lat="32.223944" lon="34.831573">
        <ele>28</ele>
      </trkpt>
      <trkpt lat="32.224517" lon="34.831743">
        <ele>29</ele>
      </trkpt>
      <trkpt lat="32.224788" lon="34.831808">
        <ele>29</ele>
      </trkpt>
      <trkpt lat="32.225369" lon="34.831927">
        <ele>30</ele>
      </trkpt>
      <trkpt lat="32.22565" lon="34.831971">
        <ele>30.63</ele>
      </trkpt>
      <trkpt lat="32.226218" lon="34.832033">
        <ele>29.99</ele>
      </trkpt>
      <trkpt lat="32.227648" lon="34.832106">
        <ele>28.41</ele>
      </trkpt>
      <trkpt lat="32.229903" lon="34.832207">
        <ele>26</ele>
      </trkpt>
      <trkpt lat="32.23152" lon="34.83236">
        <ele>26.11</ele>
      </trkpt>
      <trkpt lat="32.232046" lon="34.832414">
        <ele>25</ele>
      </trkpt>
      <trkpt lat="32.232572" lon="34.832469">
        <ele>28.66</ele>
      </trkpt>
      <trkpt lat="32.233094" lon="34.832529">
        <ele>28.13</ele>
      </trkpt>
      <trkpt lat="32.234479" lon="34.832752">
        <ele>29.6</ele>
      </trkpt>
      <trkpt lat="32.239098" lon="34.833513">
        <ele>26</ele>
      </trkpt>
      <trkpt lat="32.239434" lon="34.833562">
        <ele>27</ele>
      </trkpt>
      <trkpt lat="32.240778" lon="34.833795">
        <ele>30.46</ele>
      </trkpt>
      <trkpt lat="32.242123" lon="34.834028">
        <ele>27.03</ele>
      </trkpt>
      <trkpt lat="32.243467" lon="34.83426">
        <ele>27.94</ele>
      </trkpt>
      <trkpt lat="32.243989" lon="34.834351">
        <ele>26.15</ele>
      </trkpt>
      <trkpt lat="32.245315" lon="34.834557">
        <ele>22.34</ele>
      </trkpt>
      <trkpt lat="32.246575" lon="34.834776">
        <ele>22.07</ele>
      </trkpt>
      <trkpt lat="32.247416" lon="34.834914">
        <ele>23</ele>
      </trkpt>
      <trkpt lat="32.24848" lon="34.835086">
        <ele>22</ele>
      </trkpt>
      <trkpt lat="32.24973" lon="34.835318">
        <ele>19</ele>
      </trkpt>
      <trkpt lat="32.249965" lon="34.835384">
        <ele>19</ele>
      </trkpt>
      <trkpt lat="32.251283" lon="34.835619">
        <ele>18</ele>
      </trkpt>
      <trkpt lat="32.252645" lon="34.835845">
        <ele>16.1</ele>
      </trkpt>
      <trkpt lat="32.253634" lon="34.836029">
        <ele>16</ele>
      </trkpt>
      <trkpt lat="32.254525" lon="34.836182">
        <ele>15</ele>
      </trkpt>
      <trkpt lat="32.255375" lon="34.83636">
        <ele>14</ele>
      </trkpt>
      <trkpt lat="32.256144" lon="34.836536">
        <ele>14.17</ele>
      </trkpt>
      <trkpt lat="32.25844" lon="34.837383">
        <ele>12.09</ele>
      </trkpt>
      <trkpt lat="32.258691" lon="34.837471">
        <ele>12.61</ele>
      </trkpt>
      <trkpt lat="32.259194" lon="34.837647">
        <ele>10.61</ele>
      </trkpt>
      <trkpt lat="32.261278" lon="34.838369">
        <ele>18.29</ele>
      </trkpt>
      <trkpt lat="32.261786" lon="34.838547">
        <ele>16.14</ele>
      </trkpt>
      <trkpt lat="32.263185" lon="34.839016">
        <ele>17</ele>
      </trkpt>
      <trkpt lat="32.263669" lon="34.839177">
        <ele>15.48</ele>
      </trkpt>
      <trkpt lat="32.265175" lon="34.839652">
        <ele>10.73</ele>
      </trkpt>
      <trkpt lat="32.265943" lon="34.839938">
        <ele>8.27</ele>
      </trkpt>
      <trkpt lat="32.266221" lon="34.840079">
        <ele>8.2</ele>
      </trkpt>
      <trkpt lat="32.266537" lon="34.840264">
        <ele>8.11</ele>
      </trkpt>
      <trkpt lat="32.267072" lon="34.840645">
        <ele>7.97</ele>
      </trkpt>
      <trkpt lat="32.267471" lon="34.841001">
        <ele>7.84</ele>
      </trkpt>
      <trkpt lat="32.268036" lon="34.841625">
        <ele>8.37</ele>
      </trkpt>
      <trkpt lat="32.268287" lon="34.841953">
        <ele>9.02</ele>
      </trkpt>
      <trkpt lat="32.268515" lon="34.842314">
        <ele>9.69</ele>
      </trkpt>
      <trkpt lat="32.268727" lon="34.842771">
        <ele>10.47</ele>
      </trkpt>
      <trkpt lat="32.269" lon="34.843553">
        <ele>11.78</ele>
      </trkpt>
      <trkpt lat="32.269117" lon="34.844066">
        <ele>12.61</ele>
      </trkpt>
      <trkpt lat="32.269633" lon="34.846541">
        <ele>16.34</ele>
      </trkpt>
      <trkpt lat="32.269697" lon="34.84685">
        <ele>19.19</ele>
      </trkpt>
      <trkpt lat="32.270019" lon="34.848397">
        <ele>18</ele>
      </trkpt>
      <trkpt lat="32.270137" lon="34.848892">
        <ele>17</ele>
      </trkpt>
      <trkpt lat="32.270619" lon="34.850393">
        <ele>15.27</ele>
      </trkpt>
      <trkpt lat="32.271155" lon="34.85161">
        <ele>14.69</ele>
      </trkpt>
      <trkpt lat="32.271522" lon="34.852263">
        <ele>16</ele>
      </trkpt>
      <trkpt lat="32.272151" lon="34.853101">
        <ele>17.72</ele>
      </trkpt>
      <trkpt lat="32.273243" lon="34.854274">
        <ele>21</ele>
      </trkpt>
      <trkpt lat="32.273487" lon="34.854479">
        <ele>22.32</ele>
      </trkpt>
      <trkpt lat="32.27376" lon="34.854682">
        <ele>24.8</ele>
      </trkpt>
      <trkpt lat="32.274034" lon="34.854884">
        <ele>23.45</ele>
      </trkpt>
      <trkpt lat="32.274625" lon="34.855322">
        <ele>26</ele>
      </trkpt>
      <trkpt lat="32.274886" lon="34.855478">
        <ele>26.79</ele>
      </trkpt>
      <trkpt lat="32.275433" lon="34.855754">
        <ele>28.04</ele>
      </trkpt>
      <trkpt lat="32.27597" lon="34.855947">
        <ele>29.68</ele>
      </trkpt>
      <trkpt lat="32.277813" lon="34.856546">
        <ele>33.19</ele>
      </trkpt>
      <trkpt lat="32.280928" lon="34.857579">
        <ele>33.32</ele>
      </trkpt>
      <trkpt lat="32.283263" lon="34.858316">
        <ele>34</ele>
      </trkpt>
      <trkpt lat="32.284041" lon="34.858562">
        <ele>32.36</ele>
      </trkpt>
      <trkpt lat="32.286387" lon="34.859303">
        <ele>22.46</ele>
      </trkpt>
      <trkpt lat="32.286918" lon="34.859471">
        <ele>24.46</ele>
      </trkpt>
      <trkpt lat="32.287183" lon="34.859554">
        <ele>20.31</ele>
      </trkpt>
      <trkpt lat="32.287713" lon="34.859722">
        <ele>18.98</ele>
      </trkpt>
      <trkpt lat="32.290895" lon="34.860726">
        <ele>17</ele>
      </trkpt>
      <trkpt lat="32.292442" lon="34.861215">
        <ele>19.01</ele>
      </trkpt>
      <trkpt lat="32.294762" lon="34.861949">
        <ele>26.97</ele>
      </trkpt>
      <trkpt lat="32.295277" lon="34.862112">
        <ele>27.13</ele>
      </trkpt>
      <trkpt lat="32.296344" lon="34.86235">
        <ele>27.71</ele>
      </trkpt>
      <trkpt lat="32.297679" lon="34.862647">
        <ele>25.96</ele>
      </trkpt>
      <trkpt lat="32.300081" lon="34.863183">
        <ele>17.91</ele>
      </trkpt>
      <trkpt lat="32.304084" lon="34.864075">
        <ele>14</ele>
      </trkpt>
      <trkpt lat="32.304351" lon="34.864135">
        <ele>14.34</ele>
      </trkpt>
      <trkpt lat="32.306756" lon="34.864615">
        <ele>13.58</ele>
      </trkpt>
      <trkpt lat="32.309503" lon="34.865243">
        <ele>13</ele>
      </trkpt>
      <trkpt lat="32.31013" lon="34.865378">
        <ele>12.14</ele>
      </trkpt>
      <trkpt lat="32.311076" lon="34.865558">
        <ele>13</ele>
      </trkpt>
      <trkpt lat="32.311713" lon="34.865656">
        <ele>13.84</ele>
      </trkpt>
      <trkpt lat="32.312033" lon="34.865697">
        <ele>19.26</ele>
      </trkpt>
      <trkpt lat="32.312355" lon="34.865733">
        <ele>14.95</ele>
      </trkpt>
      <trkpt lat="32.312679" lon="34.865762">
        <ele>14</ele>
      </trkpt>
      <trkpt lat="32.319402" lon="34.866353">
        <ele>14</ele>
      </trkpt>
      <trkpt lat="32.324501" lon="34.867593">
        <ele>15</ele>
      </trkpt>
      <trkpt lat="32.325021" lon="34.867735">
        <ele>16.87</ele>
      </trkpt>
      <trkpt lat="32.325541" lon="34.867878">
        <ele>14</ele>
      </trkpt>
      <trkpt lat="32.326432" lon="34.868147">
        <ele>14</ele>
      </trkpt>
      <trkpt lat="32.327099" lon="34.868436">
        <ele>14</ele>
      </trkpt>
      <trkpt lat="32.327464" lon="34.868606">
        <ele>14</ele>
      </trkpt>
      <trkpt lat="32.327741" lon="34.868776">
        <ele>14</ele>
      </trkpt>
      <trkpt lat="32.328947" lon="34.869392">
        <ele>13</ele>
      </trkpt>
      <trkpt lat="32.330901" lon="34.870492">
        <ele>13.41</ele>
      </trkpt>
      <trkpt lat="32.334898" lon="34.872344">
        <ele>17.64</ele>
      </trkpt>
      <trkpt lat="32.337146" lon="34.873386">
        <ele>16.58</ele>
      </trkpt>
      <trkpt lat="32.339484" lon="34.874387">
        <ele>17</ele>
      </trkpt>
      <trkpt lat="32.341043" lon="34.875054">
        <ele>14</ele>
      </trkpt>
      <trkpt lat="32.342342" lon="34.87561">
        <ele>13.66</ele>
      </trkpt>
      <trkpt lat="32.344955" lon="34.8766">
        <ele>13.27</ele>
      </trkpt>
      <trkpt lat="32.349397" lon="34.878283">
        <ele>16.98</ele>
      </trkpt>
      <trkpt lat="32.350036" lon="34.878489">
        <ele>19.15</ele>
      </trkpt>
      <trkpt lat="32.350703" lon="34.878582">
        <ele>21.22</ele>
      </trkpt>
      <trkpt lat="32.351153" lon="34.878598">
        <ele>22.54</ele>
      </trkpt>
      <trkpt lat="32.35157" lon="34.878561">
        <ele>24.32</ele>
      </trkpt>
      <trkpt lat="32.351966" lon="34.878472">
        <ele>24.48</ele>
      </trkpt>
      <trkpt lat="32.352513" lon="34.87832">
        <ele>24.52</ele>
      </trkpt>
      <trkpt lat="32.352993" lon="34.878126">
        <ele>26.04</ele>
      </trkpt>
      <trkpt lat="32.353306" lon="34.877971">
        <ele>28.69</ele>
      </trkpt>
      <trkpt lat="32.353771" lon="34.877718">
        <ele>31.97</ele>
      </trkpt>
      <trkpt lat="32.354138" lon="34.87745">
        <ele>34.49</ele>
      </trkpt>
      <trkpt lat="32.354522" lon="34.877053">
        <ele>35.24</ele>
      </trkpt>
      <trkpt lat="32.355371" lon="34.876073">
        <ele>39</ele>
      </trkpt>
      <trkpt lat="32.356066" lon="34.87522">
        <ele>41</ele>
      </trkpt>
      <trkpt lat="32.357452" lon="34.87294">
        <ele>38.13</ele>
      </trkpt>
      <trkpt lat="32.358502" lon="34.871094">
        <ele>31.09</ele>
      </trkpt>
      <trkpt lat="32.358802" lon="34.870566">
        <ele>31.43</ele>
      </trkpt>
      <trkpt lat="32.358952" lon="34.870303">
        <ele>28.68</ele>
      </trkpt>
      <trkpt lat="32.360901" lon="34.866874">
        <ele>19</ele>
      </trkpt>
      <trkpt lat="32.361245" lon="34.866382">
        <ele>17.72</ele>
      </trkpt>
      <trkpt lat="32.361352" lon="34.866249">
        <ele>17.85</ele>
      </trkpt>
      <trkpt lat="32.361648" lon="34.865914">
        <ele>15.82</ele>
      </trkpt>
      <trkpt lat="32.362238" lon="34.865258">
        <ele>14.59</ele>
      </trkpt>
      <trkpt lat="32.36278" lon="34.864712">
        <ele>14</ele>
      </trkpt>
      <trkpt lat="32.363128" lon="34.864379">
        <ele>12.98</ele>
      </trkpt>
      <trkpt lat="32.363408" lon="34.864139">
        <ele>12.35</ele>
      </trkpt>
      <trkpt lat="32.363981" lon="34.86374">
        <ele>13</ele>
      </trkpt>
      <trkpt lat="32.364481" lon="34.863455">
        <ele>13.53</ele>
      </trkpt>
      <trkpt lat="32.364757" lon="34.86333">
        <ele>14.05</ele>
      </trkpt>
      <trkpt lat="32.365011" lon="34.863225">
        <ele>14.66</ele>
      </trkpt>
      <trkpt lat="32.365329" lon="34.863116">
        <ele>15.66</ele>
      </trkpt>
      <trkpt lat="32.365589" lon="34.863041">
        <ele>16.73</ele>
      </trkpt>
      <trkpt lat="32.365887" lon="34.86298">
        <ele>17.09</ele>
      </trkpt>
      <trkpt lat="32.366152" lon="34.862937">
        <ele>17.46</ele>
      </trkpt>
      <trkpt lat="32.366465" lon="34.862903">
        <ele>18</ele>
      </trkpt>
      <trkpt lat="32.366766" lon="34.86289">
        <ele>18</ele>
      </trkpt>
      <trkpt lat="32.367179" lon="34.862898">
        <ele>18</ele>
      </trkpt>
      <trkpt lat="32.367533" lon="34.862935">
        <ele>18.35</ele>
      </trkpt>
      <trkpt lat="32.367923" lon="34.862997">
        <ele>17.62</ele>
      </trkpt>
      <trkpt lat="32.368273" lon="34.863073">
        <ele>16.54</ele>
      </trkpt>
      <trkpt lat="32.370021" lon="34.863502">
        <ele>15</ele>
      </trkpt>
      <trkpt lat="32.37107" lon="34.863754">
        <ele>12.56</ele>
      </trkpt>
      <trkpt lat="32.373415" lon="34.864317">
        <ele>11.25</ele>
      </trkpt>
      <trkpt lat="32.374421" lon="34.864504">
        <ele>10.22</ele>
      </trkpt>
      <trkpt lat="32.375333" lon="34.864654">
        <ele>10.6</ele>
      </trkpt>
      <trkpt lat="32.375889" lon="34.864732">
        <ele>11.9</ele>
      </trkpt>
      <trkpt lat="32.377864" lon="34.86498">
        <ele>19.54</ele>
      </trkpt>
      <trkpt lat="32.378356" lon="34.865038">
        <ele>19.68</ele>
      </trkpt>
      <trkpt lat="32.379077" lon="34.865128">
        <ele>17.34</ele>
      </trkpt>
      <trkpt lat="32.380937" lon="34.865343">
        <ele>11.01</ele>
      </trkpt>
      <trkpt lat="32.381503" lon="34.865435">
        <ele>8.81</ele>
      </trkpt>
      <trkpt lat="32.381741" lon="34.86548">
        <ele>8.77</ele>
      </trkpt>
      <trkpt lat="32.382292" lon="34.865619">
        <ele>6.82</ele>
      </trkpt>
      <trkpt lat="32.382644" lon="34.865722">
        <ele>7</ele>
      </trkpt>
      <trkpt lat="32.383218" lon="34.865914">
        <ele>6</ele>
      </trkpt>
      <trkpt lat="32.383637" lon="34.866077">
        <ele>6</ele>
      </trkpt>
      <trkpt lat="32.384033" lon="34.866249">
        <ele>5.66</ele>
      </trkpt>
      <trkpt lat="32.384489" lon="34.866465">
        <ele>4.18</ele>
      </trkpt>
      <trkpt lat="32.384722" lon="34.866587">
        <ele>5</ele>
      </trkpt>
      <trkpt lat="32.385855" lon="34.86723">
        <ele>3.17</ele>
      </trkpt>
      <trkpt lat="32.386475" lon="34.867579">
        <ele>6.41</ele>
      </trkpt>
      <trkpt lat="32.386665" lon="34.867678">
        <ele>3.83</ele>
      </trkpt>
      <trkpt lat="32.386899" lon="34.8678">
        <ele>2.94</ele>
      </trkpt>
      <trkpt lat="32.387132" lon="34.867922">
        <ele>4.3</ele>
      </trkpt>
      <trkpt lat="32.387992" lon="34.868351">
        <ele>2.92</ele>
      </trkpt>
      <trkpt lat="32.388498" lon="34.868584">
        <ele>1</ele>
      </trkpt>
      <trkpt lat="32.389466" lon="34.869009">
        <ele>1</ele>
      </trkpt>
      <trkpt lat="32.391787" lon="34.869919">
        <ele>1.71</ele>
      </trkpt>
      <trkpt lat="32.392255" lon="34.870113">
        <ele>1.86</ele>
      </trkpt>
      <trkpt lat="32.39272" lon="34.870331">
        <ele>2</ele>
      </trkpt>
      <trkpt lat="32.393145" lon="34.870535">
        <ele>1.98</ele>
      </trkpt>
      <trkpt lat="32.393845" lon="34.870919">
        <ele>1.95</ele>
      </trkpt>
      <trkpt lat="32.394423" lon="34.871266">
        <ele>2.47</ele>
      </trkpt>
      <trkpt lat="32.39462" lon="34.871394">
        <ele>2.65</ele>
      </trkpt>
      <trkpt lat="32.394983" lon="34.871669">
        <ele>3</ele>
      </trkpt>
      <trkpt lat="32.395342" lon="34.871905">
        <ele>3.03</ele>
      </trkpt>
      <trkpt lat="32.39579" lon="34.87225">
        <ele>3.19</ele>
      </trkpt>
      <trkpt lat="32.39646" lon="34.872806">
        <ele>3.01</ele>
      </trkpt>
      <trkpt lat="32.397307" lon="34.873533">
        <ele>3</ele>
      </trkpt>
      <trkpt lat="32.398138" lon="34.874241">
        <ele>5</ele>
      </trkpt>
      <trkpt lat="32.400407" lon="34.876157">
        <ele>13.02</ele>
      </trkpt>
      <trkpt lat="32.401838" lon="34.877351">
        <ele>20.47</ele>
      </trkpt>
      <trkpt lat="32.40207" lon="34.877544">
        <ele>20.31</ele>
      </trkpt>
      <trkpt lat="32.403114" lon="34.878342">
        <ele>21</ele>
      </trkpt>
      <trkpt lat="32.403557" lon="34.878706">
        <ele>20</ele>
      </trkpt>
      <trkpt lat="32.405106" lon="34.87998">
        <ele>22.38</ele>
      </trkpt>
      <trkpt lat="32.405586" lon="34.880361">
        <ele>23</ele>
      </trkpt>
      <trkpt lat="32.407119" lon="34.881575">
        <ele>30.26</ele>
      </trkpt>
      <trkpt lat="32.407412" lon="34.881785">
        <ele>31.44</ele>
      </trkpt>
      <trkpt lat="32.407955" lon="34.882138">
        <ele>33</ele>
      </trkpt>
      <trkpt lat="32.408756" lon="34.882588">
        <ele>31.4</ele>
      </trkpt>
      <trkpt lat="32.409147" lon="34.882776">
        <ele>29.79</ele>
      </trkpt>
      <trkpt lat="32.409533" lon="34.882934">
        <ele>28.12</ele>
      </trkpt>
      <trkpt lat="32.410216" lon="34.883192">
        <ele>26</ele>
      </trkpt>
      <trkpt lat="32.411101" lon="34.883433">
        <ele>26</ele>
      </trkpt>
      <trkpt lat="32.411941" lon="34.883649">
        <ele>26.04</ele>
      </trkpt>
      <trkpt lat="32.413106" lon="34.883907">
        <ele>27.31</ele>
      </trkpt>
      <trkpt lat="32.414172" lon="34.884152">
        <ele>26</ele>
      </trkpt>
      <trkpt lat="32.418602" lon="34.885192">
        <ele>14.04</ele>
      </trkpt>
      <trkpt lat="32.419648" lon="34.885439">
        <ele>12.51</ele>
      </trkpt>
      <trkpt lat="32.422305" lon="34.886066">
        <ele>13.86</ele>
      </trkpt>
      <trkpt lat="32.424434" lon="34.88657">
        <ele>16.84</ele>
      </trkpt>
      <trkpt lat="32.426031" lon="34.886947">
        <ele>15.13</ele>
      </trkpt>
      <trkpt lat="32.426519" lon="34.887071">
        <ele>14.98</ele>
      </trkpt>
      <trkpt lat="32.42789" lon="34.88746">
        <ele>13.47</ele>
      </trkpt>
      <trkpt lat="32.428935" lon="34.887821">
        <ele>14</ele>
      </trkpt>
      <trkpt lat="32.429119" lon="34.887895">
        <ele>14</ele>
      </trkpt>
      <trkpt lat="32.429885" lon="34.888159">
        <ele>12.4</ele>
      </trkpt>
      <trkpt lat="32.43065" lon="34.888422">
        <ele>15.05</ele>
      </trkpt>
      <trkpt lat="32.431775" lon="34.888846">
        <ele>18.3</ele>
      </trkpt>
      <trkpt lat="32.432279" lon="34.889045">
        <ele>17.47</ele>
      </trkpt>
      <trkpt lat="32.432782" lon="34.889243">
        <ele>13.39</ele>
      </trkpt>
      <trkpt lat="32.433537" lon="34.88954">
        <ele>10.8</ele>
      </trkpt>
      <trkpt lat="32.436306" lon="34.89063">
        <ele>10.42</ele>
      </trkpt>
      <trkpt lat="32.437313" lon="34.891027">
        <ele>12.25</ele>
      </trkpt>
      <trkpt lat="32.437894" lon="34.891228">
        <ele>15.07</ele>
      </trkpt>
      <trkpt lat="32.438186" lon="34.891337">
        <ele>16.39</ele>
      </trkpt>
      <trkpt lat="32.439937" lon="34.891997">
        <ele>16.38</ele>
      </trkpt>
      <trkpt lat="32.440575" lon="34.892216">
        <ele>16.1</ele>
      </trkpt>
      <trkpt lat="32.44157" lon="34.892517">
        <ele>17.7</ele>
      </trkpt>
      <trkpt lat="32.441893" lon="34.892598">
        <ele>17.67</ele>
      </trkpt>
      <trkpt lat="32.442777" lon="34.892797">
        <ele>18.85</ele>
      </trkpt>
      <trkpt lat="32.443412" lon="34.892924">
        <ele>20.44</ele>
      </trkpt>
      <trkpt lat="32.443828" lon="34.89299">
        <ele>24.36</ele>
      </trkpt>
      <trkpt lat="32.444147" lon="34.893033">
        <ele>20</ele>
      </trkpt>
      <trkpt lat="32.444833" lon="34.893112">
        <ele>20</ele>
      </trkpt>
      <trkpt lat="32.445111" lon="34.893133">
        <ele>20.72</ele>
      </trkpt>
      <trkpt lat="32.447856" lon="34.893182">
        <ele>22.08</ele>
      </trkpt>
      <trkpt lat="32.449195" lon="34.893211">
        <ele>21.32</ele>
      </trkpt>
      <trkpt lat="32.449943" lon="34.893248">
        <ele>21.11</ele>
      </trkpt>
      <trkpt lat="32.450697" lon="34.893315">
        <ele>21.59</ele>
      </trkpt>
      <trkpt lat="32.451394" lon="34.893397">
        <ele>21.29</ele>
      </trkpt>
      <trkpt lat="32.45218" lon="34.893513">
        <ele>20.77</ele>
      </trkpt>
      <trkpt lat="32.453217" lon="34.893725">
        <ele>23.33</ele>
      </trkpt>
      <trkpt lat="32.454564" lon="34.894052">
        <ele>24.43</ele>
      </trkpt>
      <trkpt lat="32.455372" lon="34.894248">
        <ele>23.29</ele>
      </trkpt>
      <trkpt lat="32.457797" lon="34.894837">
        <ele>27.79</ele>
      </trkpt>
      <trkpt lat="32.459414" lon="34.895229">
        <ele>28.61</ele>
      </trkpt>
      <trkpt lat="32.459931" lon="34.895353">
        <ele>30.22</ele>
      </trkpt>
      <trkpt lat="32.46019" lon="34.895415">
        <ele>29.16</ele>
      </trkpt>
      <trkpt lat="32.461014" lon="34.895638">
        <ele>28.79</ele>
      </trkpt>
      <trkpt lat="32.461839" lon="34.895862">
        <ele>25.83</ele>
      </trkpt>
      <trkpt lat="32.464657" lon="34.896735">
        <ele>20.4</ele>
      </trkpt>
      <trkpt lat="32.464904" lon="34.896814">
        <ele>19.26</ele>
      </trkpt>
      <trkpt lat="32.465399" lon="34.896971">
        <ele>12.1</ele>
      </trkpt>
      <trkpt lat="32.466141" lon="34.897207">
        <ele>8.17</ele>
      </trkpt>
      <trkpt lat="32.467439" lon="34.897584">
        <ele>11.86</ele>
      </trkpt>
      <trkpt lat="32.468319" lon="34.897837">
        <ele>18.57</ele>
      </trkpt>
      <trkpt lat="32.468612" lon="34.897921">
        <ele>18.09</ele>
      </trkpt>
      <trkpt lat="32.468938" lon="34.898033">
        <ele>15.9</ele>
      </trkpt>
      <trkpt lat="32.469183" lon="34.898174">
        <ele>12.95</ele>
      </trkpt>
      <trkpt lat="32.469666" lon="34.898461">
        <ele>13.39</ele>
      </trkpt>
      <trkpt lat="32.469856" lon="34.898597">
        <ele>14.78</ele>
      </trkpt>
      <trkpt lat="32.470017" lon="34.898738">
        <ele>16.81</ele>
      </trkpt>
      <trkpt lat="32.470178" lon="34.898915">
        <ele>19.82</ele>
      </trkpt>
      <trkpt lat="32.470304" lon="34.899084">
        <ele>20.73</ele>
      </trkpt>
      <trkpt lat="32.4704" lon="34.899247">
        <ele>21.37</ele>
      </trkpt>
      <trkpt lat="32.470485" lon="34.899436">
        <ele>21.57</ele>
      </trkpt>
      <trkpt lat="32.470557" lon="34.899643">
        <ele>22.19</ele>
      </trkpt>
      <trkpt lat="32.470631" lon="34.899976">
        <ele>21.32</ele>
      </trkpt>
      <trkpt lat="32.470794" lon="34.900705">
        <ele>22.48</ele>
      </trkpt>
      <trkpt lat="32.470808" lon="34.900877">
        <ele>21.99</ele>
      </trkpt>
      <trkpt lat="32.470805" lon="34.901051">
        <ele>21.95</ele>
      </trkpt>
      <trkpt lat="32.47079" lon="34.901193">
        <ele>21.75</ele>
      </trkpt>
      <trkpt lat="32.470758" lon="34.901344">
        <ele>21.64</ele>
      </trkpt>
      <trkpt lat="32.47069" lon="34.901558">
        <ele>21</ele>
      </trkpt>
      <trkpt lat="32.470591" lon="34.901799">
        <ele>20.19</ele>
      </trkpt>
      <trkpt lat="32.470491" lon="34.902014">
        <ele>19.81</ele>
      </trkpt>
      <trkpt lat="32.470285" lon="34.902387">
        <ele>17.98</ele>
      </trkpt>
      <trkpt lat="32.47003" lon="34.902828">
        <ele>17</ele>
      </trkpt>
      <trkpt lat="32.468851" lon="34.904548">
        <ele>10.21</ele>
      </trkpt>
      <trkpt lat="32.468094" lon="34.905654">
        <ele>9.3</ele>
      </trkpt>
      <trkpt lat="32.46733" lon="34.90682">
        <ele>9</ele>
      </trkpt>
      <trkpt lat="32.466902" lon="34.907487">
        <ele>9.71</ele>
      </trkpt>
      <trkpt lat="32.466576" lon="34.908155">
        <ele>9.93</ele>
      </trkpt>
      <trkpt lat="32.466253" lon="34.909016">
        <ele>10.61</ele>
      </trkpt>
      <trkpt lat="32.465907" lon="34.910054">
        <ele>10</ele>
      </trkpt>
      <trkpt lat="32.465485" lon="34.91136">
        <ele>10.45</ele>
      </trkpt>
      <trkpt lat="32.465197" lon="34.912351">
        <ele>10.97</ele>
      </trkpt>
      <trkpt lat="32.465138" lon="34.912433">
        <ele>11.4</ele>
      </trkpt>
      <trkpt lat="32.46508" lon="34.912487">
        <ele>11.4</ele>
      </trkpt>
      <trkpt lat="32.465024" lon="34.912516">
        <ele>11.13</ele>
      </trkpt>
      <trkpt lat="32.464925" lon="34.912541">
        <ele>10.97</ele>
      </trkpt>
      <trkpt lat="32.464874" lon="34.912543">
        <ele>10.93</ele>
      </trkpt>
      <trkpt lat="32.464823" lon="34.912533">
        <ele>10.98</ele>
      </trkpt>
      <trkpt lat="32.464587" lon="34.912383">
        <ele>10.87</ele>
      </trkpt>
      <trkpt lat="32.464218" lon="34.912119">
        <ele>10.86</ele>
      </trkpt>
      <trkpt lat="32.463147" lon="34.911354">
        <ele>10.84</ele>
      </trkpt>
      <trkpt lat="32.458008" lon="34.907534">
        <ele>14</ele>
      </trkpt>
      <trkpt lat="32.457911" lon="34.907452">
        <ele>14</ele>
      </trkpt>
      <trkpt lat="32.457002" lon="34.906954">
        <ele>13</ele>
      </trkpt>
      <trkpt lat="32.456798" lon="34.906876">
        <ele>12.45</ele>
      </trkpt>
      <trkpt lat="32.456518" lon="34.906823">
        <ele>12</ele>
      </trkpt>
      <trkpt lat="32.456269" lon="34.906834">
        <ele>12</ele>
      </trkpt>
      <trkpt lat="32.455681" lon="34.9069">
        <ele>11</ele>
      </trkpt>
      <trkpt lat="32.455254" lon="34.906975">
        <ele>12</ele>
      </trkpt>
      <trkpt lat="32.455161" lon="34.906999">
        <ele>12</ele>
      </trkpt>
      <trkpt lat="32.454237" lon="34.90735">
        <ele>11</ele>
      </trkpt>
      <trkpt lat="32.452177" lon="34.908229">
        <ele>10.01</ele>
      </trkpt>
      <trkpt lat="32.45169" lon="34.908435">
        <ele>11</ele>
      </trkpt>
      <trkpt lat="32.451132" lon="34.90864">
        <ele>10</ele>
      </trkpt>
      <trkpt lat="32.448709" lon="34.909622">
        <ele>9</ele>
      </trkpt>
      <trkpt lat="32.447292" lon="34.910081">
        <ele>10.76</ele>
      </trkpt>
      <trkpt lat="32.446777" lon="34.910236">
        <ele>10.8</ele>
      </trkpt>
      <trkpt lat="32.444603" lon="34.910819">
        <ele>16.9</ele>
      </trkpt>
      <trkpt lat="32.443596" lon="34.911083">
        <ele>17</ele>
      </trkpt>
      <trkpt lat="32.442825" lon="34.911148">
        <ele>16.18</ele>
      </trkpt>
      <trkpt lat="32.442037" lon="34.911051">
        <ele>16.55</ele>
      </trkpt>
      <trkpt lat="32.440727" lon="34.910883">
        <ele>20.42</ele>
      </trkpt>
      <trkpt lat="32.439989" lon="34.910778">
        <ele>21.22</ele>
      </trkpt>
      <trkpt lat="32.43947" lon="34.910685">
        <ele>21</ele>
      </trkpt>
      <trkpt lat="32.43878" lon="34.910584">
        <ele>23</ele>
      </trkpt>
      <trkpt lat="32.438158" lon="34.910472">
        <ele>23</ele>
      </trkpt>
      <trkpt lat="32.437344" lon="34.910322">
        <ele>22</ele>
      </trkpt>
      <trkpt lat="32.436969" lon="34.910274">
        <ele>22</ele>
      </trkpt>
      <trkpt lat="32.436327" lon="34.910157">
        <ele>22</ele>
      </trkpt>
      <trkpt lat="32.435383" lon="34.909941">
        <ele>20.91</ele>
      </trkpt>
      <trkpt lat="32.434333" lon="34.909749">
        <ele>18</ele>
      </trkpt>
      <trkpt lat="32.433981" lon="34.909679">
        <ele>18</ele>
      </trkpt>
      <trkpt lat="32.432956" lon="34.909431">
        <ele>17</ele>
      </trkpt>
      <trkpt lat="32.429527" lon="34.908619">
        <ele>19</ele>
      </trkpt>
      <trkpt lat="32.427681" lon="34.908182">
        <ele>17</ele>
      </trkpt>
      <trkpt lat="32.422249" lon="34.906773">
        <ele>14.79</ele>
      </trkpt>
      <trkpt lat="32.419865" lon="34.906189">
        <ele>15.98</ele>
      </trkpt>
      <trkpt lat="32.417807" lon="34.905697">
        <ele>15</ele>
      </trkpt>
      <trkpt lat="32.414078" lon="34.904574">
        <ele>11</ele>
      </trkpt>
      <trkpt lat="32.412548" lon="34.904143">
        <ele>9.76</ele>
      </trkpt>
      <trkpt lat="32.411029" lon="34.903824">
        <ele>8.11</ele>
      </trkpt>
      <trkpt lat="32.40954" lon="34.903589">
        <ele>9</ele>
      </trkpt>
      <trkpt lat="32.406094" lon="34.903111">
        <ele>12</ele>
      </trkpt>
      <trkpt lat="32.405377" lon="34.903049">
        <ele>12</ele>
      </trkpt>
      <trkpt lat="32.405015" lon="34.903034">
        <ele>12</ele>
      </trkpt>
      <trkpt lat="32.404334" lon="34.903025">
        <ele>12</ele>
      </trkpt>
      <trkpt lat="32.401243" lon="34.903076">
        <ele>9.96</ele>
      </trkpt>
      <trkpt lat="32.400861" lon="34.903091">
        <ele>8.9</ele>
      </trkpt>
      <trkpt lat="32.400374" lon="34.903099">
        <ele>8.83</ele>
      </trkpt>
      <trkpt lat="32.399356" lon="34.903108">
        <ele>7.78</ele>
      </trkpt>
      <trkpt lat="32.397169" lon="34.903154">
        <ele>8</ele>
      </trkpt>
      <trkpt lat="32.395298" lon="34.903179">
        <ele>6.69</ele>
      </trkpt>
      <trkpt lat="32.393836" lon="34.903195">
        <ele>10</ele>
      </trkpt>
      <trkpt lat="32.392229" lon="34.903256">
        <ele>12.11</ele>
      </trkpt>
      <trkpt lat="32.392091" lon="34.903272">
        <ele>12.35</ele>
      </trkpt>
      <trkpt lat="32.391439" lon="34.903404">
        <ele>11.26</ele>
      </trkpt>
      <trkpt lat="32.390993" lon="34.903538">
        <ele>10.78</ele>
      </trkpt>
      <trkpt lat="32.389957" lon="34.90397">
        <ele>9.07</ele>
      </trkpt>
      <trkpt lat="32.388664" lon="34.904666">
        <ele>6.72</ele>
      </trkpt>
      <trkpt lat="32.38763" lon="34.905223">
        <ele>7</ele>
      </trkpt>
      <trkpt lat="32.387203" lon="34.905429">
        <ele>7.72</ele>
      </trkpt>
      <trkpt lat="32.386021" lon="34.905798">
        <ele>7.86</ele>
      </trkpt>
      <trkpt lat="32.384076" lon="34.906347">
        <ele>9</ele>
      </trkpt>
      <trkpt lat="32.376588" lon="34.908279">
        <ele>12</ele>
      </trkpt>
      <trkpt lat="32.374859" lon="34.908639">
        <ele>11</ele>
      </trkpt>
      <trkpt lat="32.373933" lon="34.908767">
        <ele>11</ele>
      </trkpt>
      <trkpt lat="32.372278" lon="34.908948">
        <ele>9.89</ele>
      </trkpt>
      <trkpt lat="32.367693" lon="34.909413">
        <ele>9.17</ele>
      </trkpt>
      <trkpt lat="32.366606" lon="34.909473">
        <ele>9.92</ele>
      </trkpt>
      <trkpt lat="32.365069" lon="34.909465">
        <ele>9.79</ele>
      </trkpt>
      <trkpt lat="32.36372" lon="34.909405">
        <ele>9.69</ele>
      </trkpt>
      <trkpt lat="32.362183" lon="34.909254">
        <ele>9.56</ele>
      </trkpt>
      <trkpt lat="32.360357" lon="34.908924">
        <ele>9.41</ele>
      </trkpt>
      <trkpt lat="32.357548" lon="34.908443">
        <ele>9.77</ele>
      </trkpt>
      <trkpt lat="32.356954" lon="34.908356">
        <ele>9</ele>
      </trkpt>
      <trkpt lat="32.355988" lon="34.908229">
        <ele>10.01</ele>
      </trkpt>
      <trkpt lat="32.355441" lon="34.908177">
        <ele>10.31</ele>
      </trkpt>
      <trkpt lat="32.35402" lon="34.908074">
        <ele>11</ele>
      </trkpt>
      <trkpt lat="32.351229" lon="34.908111">
        <ele>10</ele>
      </trkpt>
      <trkpt lat="32.350478" lon="34.908128">
        <ele>10.41</ele>
      </trkpt>
      <trkpt lat="32.349463" lon="34.908133">
        <ele>10.44</ele>
      </trkpt>
      <trkpt lat="32.348161" lon="34.908112">
        <ele>11</ele>
      </trkpt>
      <trkpt lat="32.347214" lon="34.908091">
        <ele>13</ele>
      </trkpt>
      <trkpt lat="32.344845" lon="34.907883">
        <ele>16</ele>
      </trkpt>
      <trkpt lat="32.343923" lon="34.907785">
        <ele>18</ele>
      </trkpt>
      <trkpt lat="32.342051" lon="34.907588">
        <ele>18</ele>
      </trkpt>
      <trkpt lat="32.340934" lon="34.907459">
        <ele>17.33</ele>
      </trkpt>
      <trkpt lat="32.340407" lon="34.907369">
        <ele>16</ele>
      </trkpt>
      <trkpt lat="32.338824" lon="34.907099">
        <ele>16.96</ele>
      </trkpt>
      <trkpt lat="32.337793" lon="34.906898">
        <ele>17</ele>
      </trkpt>
      <trkpt lat="32.337536" lon="34.906847">
        <ele>18.73</ele>
      </trkpt>
      <trkpt lat="32.336505" lon="34.906646">
        <ele>19.97</ele>
      </trkpt>
      <trkpt lat="32.334959" lon="34.906344">
        <ele>24.46</ele>
      </trkpt>
      <trkpt lat="32.333023" lon="34.905992">
        <ele>29.8</ele>
      </trkpt>
      <trkpt lat="32.331698" lon="34.905731">
        <ele>35.49</ele>
      </trkpt>
      <trkpt lat="32.330084" lon="34.905412">
        <ele>35.37</ele>
      </trkpt>
      <trkpt lat="32.328729" lon="34.905143">
        <ele>32</ele>
      </trkpt>
      <trkpt lat="32.327917" lon="34.904981">
        <ele>31.89</ele>
      </trkpt>
      <trkpt lat="32.325546" lon="34.904544">
        <ele>31.26</ele>
      </trkpt>
      <trkpt lat="32.324062" lon="34.904269">
        <ele>36</ele>
      </trkpt>
      <trkpt lat="32.323385" lon="34.904158">
        <ele>39.08</ele>
      </trkpt>
      <trkpt lat="32.323033" lon="34.904074">
        <ele>40.62</ele>
      </trkpt>
      <trkpt lat="32.317517" lon="34.903046">
        <ele>47.57</ele>
      </trkpt>
      <trkpt lat="32.314319" lon="34.902451">
        <ele>44.2</ele>
      </trkpt>
      <trkpt lat="32.312187" lon="34.902054">
        <ele>37.08</ele>
      </trkpt>
      <trkpt lat="32.310854" lon="34.901806">
        <ele>38</ele>
      </trkpt>
      <trkpt lat="32.30955" lon="34.901559">
        <ele>40.07</ele>
      </trkpt>
      <trkpt lat="32.306452" lon="34.900946">
        <ele>42</ele>
      </trkpt>
      <trkpt lat="32.304021" lon="34.900476">
        <ele>47</ele>
      </trkpt>
      <trkpt lat="32.301565" lon="34.900002">
        <ele>47</ele>
      </trkpt>
      <trkpt lat="32.300555" lon="34.899809">
        <ele>45.82</ele>
      </trkpt>
      <trkpt lat="32.299239" lon="34.899559">
        <ele>41</ele>
      </trkpt>
      <trkpt lat="32.298449" lon="34.899409">
        <ele>40.81</ele>
      </trkpt>
      <trkpt lat="32.29687" lon="34.89911">
        <ele>37</ele>
      </trkpt>
      <trkpt lat="32.295749" lon="34.898897">
        <ele>37</ele>
      </trkpt>
      <trkpt lat="32.294073" lon="34.898579">
        <ele>32.32</ele>
      </trkpt>
      <trkpt lat="32.292688" lon="34.898316">
        <ele>34.1</ele>
      </trkpt>
      <trkpt lat="32.291879" lon="34.898174">
        <ele>36.94</ele>
      </trkpt>
      <trkpt lat="32.289719" lon="34.897796">
        <ele>39.34</ele>
      </trkpt>
      <trkpt lat="32.289039" lon="34.897678">
        <ele>41.79</ele>
      </trkpt>
      <trkpt lat="32.288262" lon="34.89753">
        <ele>43.94</ele>
      </trkpt>
      <trkpt lat="32.28593" lon="34.897087">
        <ele>45</ele>
      </trkpt>
      <trkpt lat="32.284635" lon="34.89684">
        <ele>43.07</ele>
      </trkpt>
      <trkpt lat="32.283658" lon="34.896659">
        <ele>39.17</ele>
      </trkpt>
      <trkpt lat="32.282508" lon="34.896441">
        <ele>33.54</ele>
      </trkpt>
      <trkpt lat="32.280909" lon="34.896142">
        <ele>32</ele>
      </trkpt>
      <trkpt lat="32.279578" lon="34.895892">
        <ele>32</ele>
      </trkpt>
      <trkpt lat="32.27718" lon="34.895443">
        <ele>36.34</ele>
      </trkpt>
      <trkpt lat="32.275316" lon="34.895094">
        <ele>36</ele>
      </trkpt>
      <trkpt lat="32.269754" lon="34.893982">
        <ele>32</ele>
      </trkpt>
      <trkpt lat="32.268873" lon="34.893807">
        <ele>29</ele>
      </trkpt>
      <trkpt lat="32.266753" lon="34.893476">
        <ele>24</ele>
      </trkpt>
      <trkpt lat="32.265537" lon="34.893217">
        <ele>23</ele>
      </trkpt>
      <trkpt lat="32.264365" lon="34.892989">
        <ele>22</ele>
      </trkpt>
      <trkpt lat="32.261551" lon="34.8925">
        <ele>20</ele>
      </trkpt>
      <trkpt lat="32.260988" lon="34.892395">
        <ele>19</ele>
      </trkpt>
      <trkpt lat="32.259255" lon="34.892065">
        <ele>20.2</ele>
      </trkpt>
      <trkpt lat="32.258362" lon="34.89185">
        <ele>21.23</ele>
      </trkpt>
      <trkpt lat="32.25619" lon="34.891251">
        <ele>21</ele>
      </trkpt>
      <trkpt lat="32.25456" lon="34.890779">
        <ele>18.76</ele>
      </trkpt>
      <trkpt lat="32.253472" lon="34.890464">
        <ele>19</ele>
      </trkpt>
      <trkpt lat="32.250562" lon="34.889631">
        <ele>23.73</ele>
      </trkpt>
      <trkpt lat="32.248852" lon="34.889165">
        <ele>26.76</ele>
      </trkpt>
      <trkpt lat="32.247236" lon="34.888693">
        <ele>27</ele>
      </trkpt>
      <trkpt lat="32.246697" lon="34.888536">
        <ele>25.23</ele>
      </trkpt>
      <trkpt lat="32.244598" lon="34.887968">
        <ele>20.01</ele>
      </trkpt>
      <trkpt lat="32.242499" lon="34.887399">
        <ele>16.89</ele>
      </trkpt>
      <trkpt lat="32.242327" lon="34.887329">
        <ele>16.78</ele>
      </trkpt>
      <trkpt lat="32.23997" lon="34.886665">
        <ele>21</ele>
      </trkpt>
      <trkpt lat="32.2377" lon="34.885994">
        <ele>25.83</ele>
      </trkpt>
      <trkpt lat="32.233645" lon="34.884795">
        <ele>30.38</ele>
      </trkpt>
      <trkpt lat="32.229359" lon="34.883525">
        <ele>29</ele>
      </trkpt>
      <trkpt lat="32.227792" lon="34.88306">
        <ele>26.66</ele>
      </trkpt>
      <trkpt lat="32.225864" lon="34.882798">
        <ele>26</ele>
      </trkpt>
      <trkpt lat="32.224639" lon="34.882798">
        <ele>26</ele>
      </trkpt>
      <trkpt lat="32.222839" lon="34.88289">
        <ele>26</ele>
      </trkpt>
      <trkpt lat="32.221007" lon="34.883031">
        <ele>22.49</ele>
      </trkpt>
      <trkpt lat="32.219437" lon="34.883151">
        <ele>23</ele>
      </trkpt>
      <trkpt lat="32.218521" lon="34.883221">
        <ele>21.48</ele>
      </trkpt>
      <trkpt lat="32.217227" lon="34.883297">
        <ele>20.04</ele>
      </trkpt>
      <trkpt lat="32.213438" lon="34.883509">
        <ele>26</ele>
      </trkpt>
      <trkpt lat="32.212623" lon="34.883555">
        <ele>30.72</ele>
      </trkpt>
      <trkpt lat="32.211265" lon="34.88363">
        <ele>34.08</ele>
      </trkpt>
      <trkpt lat="32.210722" lon="34.883661">
        <ele>33.79</ele>
      </trkpt>
      <trkpt lat="32.207792" lon="34.883824">
        <ele>44.72</ele>
      </trkpt>
      <trkpt lat="32.204827" lon="34.884122">
        <ele>39.54</ele>
      </trkpt>
      <trkpt lat="32.203143" lon="34.884291">
        <ele>44.89</ele>
      </trkpt>
      <trkpt lat="32.202301" lon="34.884376">
        <ele>45.76</ele>
      </trkpt>
      <trkpt lat="32.199734" lon="34.884677">
        <ele>48.49</ele>
      </trkpt>
      <trkpt lat="32.198346" lon="34.884831">
        <ele>49.92</ele>
      </trkpt>
      <trkpt lat="32.197996" lon="34.884903">
        <ele>50.29</ele>
      </trkpt>
      <trkpt lat="32.19722" lon="34.885193">
        <ele>51.13</ele>
      </trkpt>
      <trkpt lat="32.19657" lon="34.885536">
        <ele>51.88</ele>
      </trkpt>
      <trkpt lat="32.195794" lon="34.886078">
        <ele>52.84</ele>
      </trkpt>
      <trkpt lat="32.194514" lon="34.887012">
        <ele>54.49</ele>
      </trkpt>
      <trkpt lat="32.193924" lon="34.887462">
        <ele>55.27</ele>
      </trkpt>
      <trkpt lat="32.193311" lon="34.887897">
        <ele>56.06</ele>
      </trkpt>
      <trkpt lat="32.192655" lon="34.888299">
        <ele>56.88</ele>
      </trkpt>
      <trkpt lat="32.192302" lon="34.888483">
        <ele>57.31</ele>
      </trkpt>
      <trkpt lat="32.191596" lon="34.888764">
        <ele>57.19</ele>
      </trkpt>
      <trkpt lat="32.190743" lon="34.889032">
        <ele>57.04</ele>
      </trkpt>
      <trkpt lat="32.189784" lon="34.889265">
        <ele>56.89</ele>
      </trkpt>
      <trkpt lat="32.189098" lon="34.88939">
        <ele>56.78</ele>
      </trkpt>
      <trkpt lat="32.188525" lon="34.889483">
        <ele>57.05</ele>
      </trkpt>
      <trkpt lat="32.185989" lon="34.889865">
        <ele>58.23</ele>
      </trkpt>
      <trkpt lat="32.185682" lon="34.889888">
        <ele>58.66</ele>
      </trkpt>
      <trkpt lat="32.185158" lon="34.889899">
        <ele>59.42</ele>
      </trkpt>
      <trkpt lat="32.184548" lon="34.889854">
        <ele>60.16</ele>
      </trkpt>
      <trkpt lat="32.182928" lon="34.889506">
        <ele>59.03</ele>
      </trkpt>
      <trkpt lat="32.181039" lon="34.889099">
        <ele>53.77</ele>
      </trkpt>
      <trkpt lat="32.179959" lon="34.888867">
        <ele>54</ele>
      </trkpt>
      <trkpt lat="32.179449" lon="34.88875">
        <ele>54</ele>
      </trkpt>
      <trkpt lat="32.17768" lon="34.888347">
        <ele>61.8</ele>
      </trkpt>
      <trkpt lat="32.177395" lon="34.888261">
        <ele>62.08</ele>
      </trkpt>
      <trkpt lat="32.177053" lon="34.888193">
        <ele>63</ele>
      </trkpt>
      <trkpt lat="32.175411" lon="34.887742">
        <ele>66</ele>
      </trkpt>
      <trkpt lat="32.175022" lon="34.88759">
        <ele>66</ele>
      </trkpt>
      <trkpt lat="32.1748" lon="34.887485">
        <ele>66.23</ele>
      </trkpt>
      <trkpt lat="32.1746" lon="34.887348">
        <ele>65.98</ele>
      </trkpt>
      <trkpt lat="32.174374" lon="34.887161">
        <ele>65.5</ele>
      </trkpt>
      <trkpt lat="32.173828" lon="34.886604">
        <ele>64.27</ele>
      </trkpt>
      <trkpt lat="32.173439" lon="34.886142">
        <ele>61.65</ele>
      </trkpt>
      <trkpt lat="32.173289" lon="34.885962">
        <ele>58.17</ele>
      </trkpt>
      <trkpt lat="32.172998" lon="34.885621">
        <ele>54.57</ele>
      </trkpt>
      <trkpt lat="32.172465" lon="34.885026">
        <ele>62.24</ele>
      </trkpt>
      <trkpt lat="32.172247" lon="34.884816">
        <ele>65.02</ele>
      </trkpt>
      <trkpt lat="32.172065" lon="34.884645">
        <ele>65.6</ele>
      </trkpt>
      <trkpt lat="32.171649" lon="34.884318">
        <ele>65.76</ele>
      </trkpt>
      <trkpt lat="32.171326" lon="34.884093">
        <ele>63.73</ele>
      </trkpt>
      <trkpt lat="32.170477" lon="34.883552">
        <ele>63</ele>
      </trkpt>
      <trkpt lat="32.16974" lon="34.883095">
        <ele>62.87</ele>
      </trkpt>
      <trkpt lat="32.168509" lon="34.882196">
        <ele>61.93</ele>
      </trkpt>
      <trkpt lat="32.167553" lon="34.881498">
        <ele>64</ele>
      </trkpt>
      <trkpt lat="32.166772" lon="34.88091">
        <ele>66</ele>
      </trkpt>
      <trkpt lat="32.166144" lon="34.880455">
        <ele>68</ele>
      </trkpt>
      <trkpt lat="32.165382" lon="34.879906">
        <ele>67.91</ele>
      </trkpt>
      <trkpt lat="32.162613" lon="34.878122">
        <ele>62.34</ele>
      </trkpt>
      <trkpt lat="32.16241" lon="34.877995">
        <ele>60.6</ele>
      </trkpt>
      <trkpt lat="32.161472" lon="34.877395">
        <ele>60.15</ele>
      </trkpt>
      <trkpt lat="32.160001" lon="34.87645">
        <ele>54.54</ele>
      </trkpt>
      <trkpt lat="32.159034" lon="34.875777">
        <ele>51.64</ele>
      </trkpt>
      <trkpt lat="32.158298" lon="34.875045">
        <ele>53.94</ele>
      </trkpt>
      <trkpt lat="32.1574" lon="34.874035">
        <ele>58</ele>
      </trkpt>
      <trkpt lat="32.157229" lon="34.873857">
        <ele>58.89</ele>
      </trkpt>
      <trkpt lat="32.156887" lon="34.873502">
        <ele>58.44</ele>
      </trkpt>
      <trkpt lat="32.156477" lon="34.873119">
        <ele>57.94</ele>
      </trkpt>
      <trkpt lat="32.155839" lon="34.872741">
        <ele>56</ele>
      </trkpt>
      <trkpt lat="32.155166" lon="34.872459">
        <ele>56</ele>
      </trkpt>
      <trkpt lat="32.154452" lon="34.872336">
        <ele>56</ele>
      </trkpt>
      <trkpt lat="32.153975" lon="34.87228">
        <ele>56</ele>
      </trkpt>
      <trkpt lat="32.153733" lon="34.872293">
        <ele>55.94</ele>
      </trkpt>
      <trkpt lat="32.153004" lon="34.8724">
        <ele>55</ele>
      </trkpt>
      <trkpt lat="32.151488" lon="34.872703">
        <ele>54.38</ele>
      </trkpt>
      <trkpt lat="32.150717" lon="34.872846">
        <ele>54.71</ele>
      </trkpt>
      <trkpt lat="32.149947" lon="34.872988">
        <ele>53</ele>
      </trkpt>
      <trkpt lat="32.148919" lon="34.873178">
        <ele>53.79</ele>
      </trkpt>
      <trkpt lat="32.147817" lon="34.873369">
        <ele>51</ele>
      </trkpt>
      <trkpt lat="32.146716" lon="34.87356">
        <ele>50.23</ele>
      </trkpt>
      <trkpt lat="32.145624" lon="34.87361">
        <ele>51.57</ele>
      </trkpt>
      <trkpt lat="32.145077" lon="34.873557">
        <ele>51.59</ele>
      </trkpt>
      <trkpt lat="32.143433" lon="34.873401">
        <ele>47</ele>
      </trkpt>
      <trkpt lat="32.141281" lon="34.873017">
        <ele>42.22</ele>
      </trkpt>
      <trkpt lat="32.140743" lon="34.872921">
        <ele>43.62</ele>
      </trkpt>
      <trkpt lat="32.139914" lon="34.872705">
        <ele>39.46</ele>
      </trkpt>
      <trkpt lat="32.139265" lon="34.872499">
        <ele>38.26</ele>
      </trkpt>
      <trkpt lat="32.138493" lon="34.872171">
        <ele>37.35</ele>
      </trkpt>
      <trkpt lat="32.135814" lon="34.870942">
        <ele>29.94</ele>
      </trkpt>
      <trkpt lat="32.135326" lon="34.870825">
        <ele>28.47</ele>
      </trkpt>
      <trkpt lat="32.134746" lon="34.870768">
        <ele>27.28</ele>
      </trkpt>
      <trkpt lat="32.133896" lon="34.870822">
        <ele>25</ele>
      </trkpt>
      <trkpt lat="32.133047" lon="34.870876">
        <ele>28.69</ele>
      </trkpt>
      <trkpt lat="32.132456" lon="34.870913">
        <ele>27</ele>
      </trkpt>
      <trkpt lat="32.130891" lon="34.870839">
        <ele>27</ele>
      </trkpt>
      <trkpt lat="32.130669" lon="34.870801">
        <ele>27</ele>
      </trkpt>
      <trkpt lat="32.130318" lon="34.870672">
        <ele>27.42</ele>
      </trkpt>
      <trkpt lat="32.129885" lon="34.870464">
        <ele>30.96</ele>
      </trkpt>
      <trkpt lat="32.129219" lon="34.870015">
        <ele>24.89</ele>
      </trkpt>
      <trkpt lat="32.128639" lon="34.869405">
        <ele>22.42</ele>
      </trkpt>
      <trkpt lat="32.128194" lon="34.868788">
        <ele>21.12</ele>
      </trkpt>
      <trkpt lat="32.127885" lon="34.868237">
        <ele>20.64</ele>
      </trkpt>
      <trkpt lat="32.127635" lon="34.867612">
        <ele>21.68</ele>
      </trkpt>
      <trkpt lat="32.127454" lon="34.86691">
        <ele>22.29</ele>
      </trkpt>
      <trkpt lat="32.127355" lon="34.866331">
        <ele>23.84</ele>
      </trkpt>
      <trkpt lat="32.127318" lon="34.866033">
        <ele>25.34</ele>
      </trkpt>
      <trkpt lat="32.127343" lon="34.865215">
        <ele>28.05</ele>
      </trkpt>
      <trkpt lat="32.127331" lon="34.864065">
        <ele>30</ele>
      </trkpt>
      <trkpt lat="32.127316" lon="34.863531">
        <ele>30.34</ele>
      </trkpt>
      <trkpt lat="32.127295" lon="34.863169">
        <ele>31</ele>
      </trkpt>
      <trkpt lat="32.127138" lon="34.861263">
        <ele>27.93</ele>
      </trkpt>
      <trkpt lat="32.12709" lon="34.860882">
        <ele>26.67</ele>
      </trkpt>
      <trkpt lat="32.127021" lon="34.860433">
        <ele>25.72</ele>
      </trkpt>
      <trkpt lat="32.12696" lon="34.860135">
        <ele>25.44</ele>
      </trkpt>
      <trkpt lat="32.126789" lon="34.859455">
        <ele>23.84</ele>
      </trkpt>
      <trkpt lat="32.126714" lon="34.859218">
        <ele>23.21</ele>
      </trkpt>
      <trkpt lat="32.126628" lon="34.858961">
        <ele>24.52</ele>
      </trkpt>
      <trkpt lat="32.126475" lon="34.858554">
        <ele>26.03</ele>
      </trkpt>
      <trkpt lat="32.126204" lon="34.857934">
        <ele>26.71</ele>
      </trkpt>
      <trkpt lat="32.126034" lon="34.857584">
        <ele>26.54</ele>
      </trkpt>
      <trkpt lat="32.1259" lon="34.857311">
        <ele>26.03</ele>
      </trkpt>
      <trkpt lat="32.125434" lon="34.856506">
        <ele>26.31</ele>
      </trkpt>
      <trkpt lat="32.125389" lon="34.856397">
        <ele>26.43</ele>
      </trkpt>
      <trkpt lat="32.125332" lon="34.856215">
        <ele>26.72</ele>
      </trkpt>
      <trkpt lat="32.125308" lon="34.855973">
        <ele>26.55</ele>
      </trkpt>
      <trkpt lat="32.125304" lon="34.855794">
        <ele>26.53</ele>
      </trkpt>
      <trkpt lat="32.125322" lon="34.855292">
        <ele>27</ele>
      </trkpt>
      <trkpt lat="32.125337" lon="34.855122">
        <ele>27.19</ele>
      </trkpt>
      <trkpt lat="32.125395" lon="34.854798">
        <ele>27</ele>
      </trkpt>
      <trkpt lat="32.125453" lon="34.854608">
        <ele>27.34</ele>
      </trkpt>
      <trkpt lat="32.126498" lon="34.851779">
        <ele>31.43</ele>
      </trkpt>
      <trkpt lat="32.127121" lon="34.850101">
        <ele>39.96</ele>
      </trkpt>
      <trkpt lat="32.127603" lon="34.848956">
        <ele>39.16</ele>
      </trkpt>
      <trkpt lat="32.129103" lon="34.845389">
        <ele>53.61</ele>
      </trkpt>
      <trkpt lat="32.129689" lon="34.843997">
        <ele>54.26</ele>
      </trkpt>
      <trkpt lat="32.130274" lon="34.842604">
        <ele>57.03</ele>
      </trkpt>
      <trkpt lat="32.130742" lon="34.84149">
        <ele>53</ele>
      </trkpt>
      <trkpt lat="32.130848" lon="34.841155">
        <ele>52.6</ele>
      </trkpt>
      <trkpt lat="32.13114" lon="34.840358">
        <ele>53.36</ele>
      </trkpt>
      <trkpt lat="32.131645" lon="34.839149">
        <ele>57.06</ele>
      </trkpt>
      <trkpt lat="32.132762" lon="34.836476">
        <ele>57.38</ele>
      </trkpt>
      <trkpt lat="32.132921" lon="34.83615">
        <ele>57.6</ele>
      </trkpt>
      <trkpt lat="32.13311" lon="34.835792">
        <ele>57.17</ele>
      </trkpt>
      <trkpt lat="32.133592" lon="34.835029">
        <ele>55.66</ele>
      </trkpt>
      <trkpt lat="32.133756" lon="34.834761">
        <ele>56.8</ele>
      </trkpt>
      <trkpt lat="32.134405" lon="34.833717">
        <ele>50.79</ele>
      </trkpt>
      <trkpt lat="32.134729" lon="34.833194">
        <ele>51.91</ele>
      </trkpt>
      <trkpt lat="32.134951" lon="34.832837">
        <ele>48.66</ele>
      </trkpt>
      <trkpt lat="32.135535" lon="34.831881">
        <ele>47.08</ele>
      </trkpt>
      <trkpt lat="32.135985" lon="34.83105">
        <ele>46.96</ele>
      </trkpt>
      <trkpt lat="32.136209" lon="34.830556">
        <ele>47</ele>
      </trkpt>
      <trkpt lat="32.136571" lon="34.829687">
        <ele>44.92</ele>
      </trkpt>
      <trkpt lat="32.136917" lon="34.828594">
        <ele>42.99</ele>
      </trkpt>
      <trkpt lat="32.137133" lon="34.82772">
        <ele>41</ele>
      </trkpt>
      <trkpt lat="32.137363" lon="34.826733">
        <ele>38.73</ele>
      </trkpt>
      <trkpt lat="32.138394" lon="34.821642">
        <ele>33.26</ele>
      </trkpt>
      <trkpt lat="32.138705" lon="34.81985">
        <ele>31.46</ele>
      </trkpt>
      <trkpt lat="32.13879" lon="34.81909">
        <ele>30.88</ele>
      </trkpt>
      <trkpt lat="32.138811" lon="34.818663">
        <ele>30.19</ele>
      </trkpt>
      <trkpt lat="32.138828" lon="34.817817">
        <ele>29.62</ele>
      </trkpt>
      <trkpt lat="32.138832" lon="34.816333">
        <ele>29.41</ele>
      </trkpt>
      <trkpt lat="32.138778" lon="34.815826">
        <ele>29.03</ele>
      </trkpt>
      <trkpt lat="32.138667" lon="34.814637">
        <ele>28.72</ele>
      </trkpt>
      <trkpt lat="32.138586" lon="34.813561">
        <ele>26.89</ele>
      </trkpt>
      <trkpt lat="32.138617" lon="34.813027">
        <ele>26.93</ele>
      </trkpt>
      <trkpt lat="32.13872" lon="34.812127">
        <ele>28.16</ele>
      </trkpt>
      <trkpt lat="32.138871" lon="34.811612">
        <ele>28</ele>
      </trkpt>
      <trkpt lat="32.139099" lon="34.81101">
        <ele>28.58</ele>
      </trkpt>
      <trkpt lat="32.139349" lon="34.810538">
        <ele>28.94</ele>
      </trkpt>
      <trkpt lat="32.139915" lon="34.809301">
        <ele>28.43</ele>
      </trkpt>
      <trkpt lat="32.140118" lon="34.808798">
        <ele>28.67</ele>
      </trkpt>
      <trkpt lat="32.14021" lon="34.808556">
        <ele>30</ele>
      </trkpt>
      <trkpt lat="32.140295" lon="34.808258">
        <ele>29.1</ele>
      </trkpt>
      <trkpt lat="32.140363" lon="34.807993">
        <ele>27.28</ele>
      </trkpt>
      <trkpt lat="32.140425" lon="34.807651">
        <ele>26.66</ele>
      </trkpt>
      <trkpt lat="32.140478" lon="34.807231">
        <ele>27</ele>
      </trkpt>
      <trkpt lat="32.140522" lon="34.80668">
        <ele>27</ele>
      </trkpt>
      <trkpt lat="32.140528" lon="34.80631">
        <ele>26.95</ele>
      </trkpt>
      <trkpt lat="32.14052" lon="34.806031">
        <ele>27</ele>
      </trkpt>
      <trkpt lat="32.140519" lon="34.805107">
        <ele>26.99</ele>
      </trkpt>
      <trkpt lat="32.140498" lon="34.804324">
        <ele>27.68</ele>
      </trkpt>
      <trkpt lat="32.140518" lon="34.803915">
        <ele>26.47</ele>
      </trkpt>
      <trkpt lat="32.140533" lon="34.803794">
        <ele>25.94</ele>
      </trkpt>
      <trkpt lat="32.14056" lon="34.803686">
        <ele>25.23</ele>
      </trkpt>
      <trkpt lat="32.140606" lon="34.803564">
        <ele>25.13</ele>
      </trkpt>
      <trkpt lat="32.140669" lon="34.80344">
        <ele>24.78</ele>
      </trkpt>
      <trkpt lat="32.140819" lon="34.803201">
        <ele>23.38</ele>
      </trkpt>
      <trkpt lat="32.140888" lon="34.803121">
        <ele>23.08</ele>
      </trkpt>
      <trkpt lat="32.141064" lon="34.802954">
        <ele>22.27</ele>
      </trkpt>
      <trkpt lat="32.141574" lon="34.802529">
        <ele>20.55</ele>
      </trkpt>
      <trkpt lat="32.141827" lon="34.802385">
        <ele>19.77</ele>
      </trkpt>
    </trkseg>
  </trk>
</gpx>
